{
"type": "FeatureCollection",
"crs": { "type": "name", "properties": { "name": "urn:ogc:def:crs:OGC:1.3:CRS84" } },
"name": "Natura 2000",
"color": "#A70CDA",
"active": "false",
"interactive":"true",
"description": "Le réseau des sites Natura 2000 est un ensemble de sites naturels d'intérêt Européen ",

"features": [
{ "type": "Feature", "properties": { "NOM": "Carrière de Lanquais - Les Roques", "MODIF_GEO": "2013-04-18", "VALID_GEST": "2016-05-13" }, "geometry": { "type": "MultiPolygon", "coordinates": [ [ [ [ 0.67178, 44.81836 ], [ 0.67106, 44.81938 ], [ 0.67104, 44.81948 ], [ 0.67242, 44.81979 ], [ 0.67304, 44.81988 ], [ 0.6737, 44.82012 ], [ 0.6736, 44.82066 ], [ 0.67373, 44.82068 ], [ 0.6734, 44.82168 ], [ 0.67368, 44.82175 ], [ 0.67436, 44.8221 ], [ 0.6747, 44.82227 ], [ 0.67482, 44.82209 ], [ 0.67574, 44.82219 ], [ 0.67705, 44.82211 ], [ 0.677, 44.82227 ], [ 0.67659, 44.82311 ], [ 0.67711, 44.82331 ], [ 0.67722, 44.82338 ], [ 0.67754, 44.82336 ], [ 0.67813, 44.82324 ], [ 0.67832, 44.8236 ], [ 0.67921, 44.8233 ], [ 0.67957, 44.82322 ], [ 0.67918, 44.82251 ], [ 0.67973, 44.82232 ], [ 0.68028, 44.82213 ], [ 0.68158, 44.82157 ], [ 0.68261, 44.82155 ], [ 0.68291, 44.82146 ], [ 0.6833, 44.82149 ], [ 0.68344, 44.82067 ], [ 0.68382, 44.82069 ], [ 0.68393, 44.82048 ], [ 0.68433, 44.82054 ], [ 0.68432, 44.82043 ], [ 0.68394, 44.82038 ], [ 0.68399, 44.82011 ], [ 0.68346, 44.82008 ], [ 0.68244, 44.8203 ], [ 0.68242, 44.82004 ], [ 0.68235, 44.81987 ], [ 0.68164, 44.81967 ], [ 0.68085, 44.81934 ], [ 0.68078, 44.81912 ], [ 0.68095, 44.81897 ], [ 0.68096, 44.81882 ], [ 0.68045, 44.8187 ], [ 0.68, 44.81863 ], [ 0.67965, 44.81868 ], [ 0.67895, 44.8193 ], [ 0.67884, 44.81939 ], [ 0.67832, 44.81984 ], [ 0.67732, 44.8195 ], [ 0.67727, 44.81957 ], [ 0.67677, 44.81936 ], [ 0.67704, 44.81864 ], [ 0.67644, 44.81856 ], [ 0.6759, 44.81851 ], [ 0.67569, 44.81809 ], [ 0.67527, 44.81807 ], [ 0.67541, 44.81747 ], [ 0.67553, 44.8173 ], [ 0.67529, 44.81716 ], [ 0.67505, 44.8172 ], [ 0.67499, 44.81702 ], [ 0.67448, 44.81757 ], [ 0.67458, 44.81706 ], [ 0.67451, 44.8167 ], [ 0.67452, 44.81626 ], [ 0.67446, 44.81596 ], [ 0.67434, 44.81556 ], [ 0.67435, 44.81496 ], [ 0.67402, 44.81409 ], [ 0.67408, 44.81347 ], [ 0.67463, 44.81263 ], [ 0.67529, 44.81185 ], [ 0.67548, 44.81156 ], [ 0.67555, 44.81146 ], [ 0.67561, 44.81126 ], [ 0.67565, 44.81107 ], [ 0.67575, 44.81069 ], [ 0.67589, 44.81038 ], [ 0.67605, 44.81007 ], [ 0.67597, 44.81008 ], [ 0.67584, 44.81006 ], [ 0.67587, 44.80997 ], [ 0.67582, 44.80996 ], [ 0.67585, 44.8098 ], [ 0.67592, 44.80974 ], [ 0.67604, 44.80974 ], [ 0.676, 44.80956 ], [ 0.67607, 44.80928 ], [ 0.67612, 44.80902 ], [ 0.67632, 44.8089 ], [ 0.67701, 44.80871 ], [ 0.67757, 44.80852 ], [ 0.67785, 44.8084 ], [ 0.67834, 44.80808 ], [ 0.67856, 44.80805 ], [ 0.67878, 44.80771 ], [ 0.67866, 44.80751 ], [ 0.67841, 44.80745 ], [ 0.67792, 44.80734 ], [ 0.67779, 44.80675 ], [ 0.67783, 44.80656 ], [ 0.67772, 44.80655 ], [ 0.67764, 44.80651 ], [ 0.67759, 44.8065 ], [ 0.67762, 44.80636 ], [ 0.67784, 44.80637 ], [ 0.67784, 44.80597 ], [ 0.67785, 44.80589 ], [ 0.67799, 44.80561 ], [ 0.67802, 44.80538 ], [ 0.67801, 44.80536 ], [ 0.67804, 44.80523 ], [ 0.68006, 44.80519 ], [ 0.6809, 44.80505 ], [ 0.6814, 44.80508 ], [ 0.68336, 44.80524 ], [ 0.68391, 44.80456 ], [ 0.68404, 44.80422 ], [ 0.68511, 44.80536 ], [ 0.6854, 44.80531 ], [ 0.68628, 44.80477 ], [ 0.68737, 44.8036 ], [ 0.68822, 44.80271 ], [ 0.68858, 44.80208 ], [ 0.68906, 44.80124 ], [ 0.68987, 44.80065 ], [ 0.69075, 44.80014 ], [ 0.69115, 44.80001 ], [ 0.69206, 44.79984 ], [ 0.69174, 44.79884 ], [ 0.69144, 44.79884 ], [ 0.69096, 44.79808 ], [ 0.6926, 44.79779 ], [ 0.69254, 44.79751 ], [ 0.69087, 44.79749 ], [ 0.69056, 44.79746 ], [ 0.68983, 44.79709 ], [ 0.68931, 44.79661 ], [ 0.68964, 44.79651 ], [ 0.68962, 44.79601 ], [ 0.68989, 44.79612 ], [ 0.6899, 44.79591 ], [ 0.68881, 44.79548 ], [ 0.68842, 44.79542 ], [ 0.68814, 44.7956 ], [ 0.68804, 44.79559 ], [ 0.68763, 44.79534 ], [ 0.68671, 44.79573 ], [ 0.68555, 44.79652 ], [ 0.68376, 44.79756 ], [ 0.68333, 44.79703 ], [ 0.68276, 44.79618 ], [ 0.68249, 44.7961 ], [ 0.68233, 44.79625 ], [ 0.68212, 44.79698 ], [ 0.68158, 44.79702 ], [ 0.68107, 44.79636 ], [ 0.68083, 44.79574 ], [ 0.68127, 44.79461 ], [ 0.6811, 44.79381 ], [ 0.67831, 44.79466 ], [ 0.67774, 44.79506 ], [ 0.67659, 44.79543 ], [ 0.67624, 44.79561 ], [ 0.67597, 44.79566 ], [ 0.6756, 44.79544 ], [ 0.67495, 44.79537 ], [ 0.67532, 44.79505 ], [ 0.67546, 44.79436 ], [ 0.67507, 44.79415 ], [ 0.67488, 44.7945 ], [ 0.67475, 44.79449 ], [ 0.67491, 44.79389 ], [ 0.67463, 44.79357 ], [ 0.67422, 44.79335 ], [ 0.67335, 44.79308 ], [ 0.67326, 44.79328 ], [ 0.67385, 44.79499 ], [ 0.67397, 44.79527 ], [ 0.6738, 44.7954 ], [ 0.67369, 44.79566 ], [ 0.67327, 44.79562 ], [ 0.67318, 44.79554 ], [ 0.67291, 44.79562 ], [ 0.67273, 44.79553 ], [ 0.67212, 44.79559 ], [ 0.67179, 44.79562 ], [ 0.67142, 44.79571 ], [ 0.67125, 44.79572 ], [ 0.6706, 44.7956 ], [ 0.6699, 44.79617 ], [ 0.67092, 44.79638 ], [ 0.67103, 44.79679 ], [ 0.67094, 44.79733 ], [ 0.6715, 44.7974 ], [ 0.67168, 44.79804 ], [ 0.67109, 44.79812 ], [ 0.67049, 44.79814 ], [ 0.6707, 44.79895 ], [ 0.67034, 44.79898 ], [ 0.67039, 44.79938 ], [ 0.67048, 44.79964 ], [ 0.67048, 44.79981 ], [ 0.67062, 44.80007 ], [ 0.67064, 44.80033 ], [ 0.67011, 44.80023 ], [ 0.66998, 44.8002 ], [ 0.66922, 44.80027 ], [ 0.66921, 44.80061 ], [ 0.66995, 44.80077 ], [ 0.67008, 44.80123 ], [ 0.67025, 44.80184 ], [ 0.67044, 44.80224 ], [ 0.67045, 44.80276 ], [ 0.6707, 44.80377 ], [ 0.67098, 44.80416 ], [ 0.67096, 44.80477 ], [ 0.67102, 44.80496 ], [ 0.67116, 44.80518 ], [ 0.67124, 44.80565 ], [ 0.67073, 44.80598 ], [ 0.6707, 44.80634 ], [ 0.66953, 44.80636 ], [ 0.66601, 44.80605 ], [ 0.66579, 44.80654 ], [ 0.66637, 44.80723 ], [ 0.66595, 44.8076 ], [ 0.66559, 44.80773 ], [ 0.66576, 44.80796 ], [ 0.66526, 44.80844 ], [ 0.66644, 44.80938 ], [ 0.66667, 44.80929 ], [ 0.66863, 44.81156 ], [ 0.66778, 44.81191 ], [ 0.6684, 44.81236 ], [ 0.66936, 44.81333 ], [ 0.66968, 44.81348 ], [ 0.67014, 44.81394 ], [ 0.67075, 44.81429 ], [ 0.67114, 44.81474 ], [ 0.67114, 44.81474 ], [ 0.67157, 44.81552 ], [ 0.67181, 44.81597 ], [ 0.6718, 44.81735 ], [ 0.67178, 44.81836 ] ] ] ] } },
{ "type": "Feature", "properties": { "NOM": "La Dordogne", "MODIF_GEO": "2014-09-25", "VALID_GEST": "2016-05-13" }, "geometry": { "type": "MultiPolygon", "coordinates": [ [ [ [ 0.61364, 44.84855 ], [ 0.61384, 44.84899 ], [ 0.61423, 44.84889 ], [ 0.61477, 44.84877 ], [ 0.61484, 44.84875 ], [ 0.61532, 44.84864 ], [ 0.61564, 44.84858 ], [ 0.61587, 44.84854 ], [ 0.6164, 44.84845 ], [ 0.61743, 44.84831 ], [ 0.61755, 44.84829 ], [ 0.61812, 44.84823 ], [ 0.61817, 44.84823 ], [ 0.61854, 44.84814 ], [ 0.619, 44.84803 ], [ 0.61921, 44.84799 ], [ 0.61963, 44.84793 ], [ 0.62019, 44.84784 ], [ 0.62033, 44.84782 ], [ 0.62076, 44.84776 ], [ 0.621, 44.84775 ], [ 0.62138, 44.84773 ], [ 0.62146, 44.84772 ], [ 0.62147, 44.84772 ], [ 0.62237, 44.84762 ], [ 0.6226, 44.8476 ], [ 0.62271, 44.84758 ], [ 0.62278, 44.84758 ], [ 0.62313, 44.84757 ], [ 0.62317, 44.84757 ], [ 0.62374, 44.84755 ], [ 0.62408, 44.84754 ], [ 0.62497, 44.84749 ], [ 0.62532, 44.84743 ], [ 0.6262, 44.84728 ], [ 0.62696, 44.84718 ], [ 0.62708, 44.84716 ], [ 0.62724, 44.84714 ], [ 0.62741, 44.84709 ], [ 0.62751, 44.84706 ], [ 0.62787, 44.84697 ], [ 0.62821, 44.84687 ], [ 0.6284, 44.84681 ], [ 0.62857, 44.84677 ], [ 0.62874, 44.84671 ], [ 0.62938, 44.84647 ], [ 0.62999, 44.84623 ], [ 0.63017, 44.84616 ], [ 0.63059, 44.84591 ], [ 0.63079, 44.84579 ], [ 0.63157, 44.8453 ], [ 0.63203, 44.84572 ], [ 0.63215, 44.84584 ], [ 0.63216, 44.84584 ], [ 0.63219, 44.84587 ], [ 0.63219, 44.84587 ], [ 0.63223, 44.84587 ], [ 0.63225, 44.84586 ], [ 0.6335, 44.84572 ], [ 0.63361, 44.84571 ], [ 0.63371, 44.84567 ], [ 0.63382, 44.84559 ], [ 0.63402, 44.8452 ], [ 0.63443, 44.84468 ], [ 0.63471, 44.84444 ], [ 0.63488, 44.84431 ], [ 0.6353, 44.84409 ], [ 0.63582, 44.84388 ], [ 0.63635, 44.84366 ], [ 0.63697, 44.84344 ], [ 0.63764, 44.84325 ], [ 0.63832, 44.84304 ], [ 0.63902, 44.84288 ], [ 0.6399, 44.84272 ], [ 0.64138, 44.84256 ], [ 0.64256, 44.84242 ], [ 0.64368, 44.84231 ], [ 0.64436, 44.84224 ], [ 0.64482, 44.84221 ], [ 0.64545, 44.84219 ], [ 0.64608, 44.84217 ], [ 0.64668, 44.84217 ], [ 0.64703, 44.8422 ], [ 0.64723, 44.84224 ], [ 0.6474, 44.84233 ], [ 0.6475, 44.84236 ], [ 0.64758, 44.84234 ], [ 0.64767, 44.84228 ], [ 0.64777, 44.84219 ], [ 0.64784, 44.84213 ], [ 0.64796, 44.84209 ], [ 0.64811, 44.84209 ], [ 0.64824, 44.84211 ], [ 0.64835, 44.84211 ], [ 0.64844, 44.8421 ], [ 0.6485, 44.84207 ], [ 0.64858, 44.84203 ], [ 0.64864, 44.84202 ], [ 0.649, 44.842 ], [ 0.6494, 44.84198 ], [ 0.65008, 44.84187 ], [ 0.65071, 44.84176 ], [ 0.65107, 44.8417 ], [ 0.65127, 44.84166 ], [ 0.65155, 44.84156 ], [ 0.65208, 44.84137 ], [ 0.65246, 44.84124 ], [ 0.65252, 44.84123 ], [ 0.65255, 44.84125 ], [ 0.65269, 44.84119 ], [ 0.65277, 44.84113 ], [ 0.65288, 44.84111 ], [ 0.6531, 44.84106 ], [ 0.65334, 44.84103 ], [ 0.65352, 44.841 ], [ 0.6537, 44.84096 ], [ 0.654, 44.84093 ], [ 0.65437, 44.84089 ], [ 0.65466, 44.84085 ], [ 0.65491, 44.8408 ], [ 0.65527, 44.84076 ], [ 0.65564, 44.84072 ], [ 0.65613, 44.84071 ], [ 0.65668, 44.8407 ], [ 0.65723, 44.84066 ], [ 0.65764, 44.84062 ], [ 0.65797, 44.84058 ], [ 0.65837, 44.84056 ], [ 0.6588, 44.84059 ], [ 0.65933, 44.84061 ], [ 0.65989, 44.84065 ], [ 0.66039, 44.84069 ], [ 0.66078, 44.8407 ], [ 0.66129, 44.84073 ], [ 0.66171, 44.84075 ], [ 0.66196, 44.84079 ], [ 0.66237, 44.84083 ], [ 0.66276, 44.84087 ], [ 0.66314, 44.84088 ], [ 0.6636, 44.84092 ], [ 0.66413, 44.84093 ], [ 0.66461, 44.84092 ], [ 0.66523, 44.84093 ], [ 0.66581, 44.84092 ], [ 0.66618, 44.8409 ], [ 0.66655, 44.84087 ], [ 0.66694, 44.84084 ], [ 0.66738, 44.84078 ], [ 0.66779, 44.84069 ], [ 0.66825, 44.84059 ], [ 0.66858, 44.84052 ], [ 0.66884, 44.84042 ], [ 0.66898, 44.84037 ], [ 0.6691, 44.84031 ], [ 0.66932, 44.84022 ], [ 0.66962, 44.84014 ], [ 0.67011, 44.83997 ], [ 0.67063, 44.83976 ], [ 0.67096, 44.8396 ], [ 0.67125, 44.83949 ], [ 0.67155, 44.8394 ], [ 0.67188, 44.83936 ], [ 0.67227, 44.8393 ], [ 0.67256, 44.83924 ], [ 0.67292, 44.83917 ], [ 0.67327, 44.83913 ], [ 0.67359, 44.83908 ], [ 0.67397, 44.83897 ], [ 0.67432, 44.83885 ], [ 0.67464, 44.83873 ], [ 0.67488, 44.8386 ], [ 0.67501, 44.83846 ], [ 0.67519, 44.83841 ], [ 0.67563, 44.83831 ], [ 0.67607, 44.83818 ], [ 0.67663, 44.83802 ], [ 0.67722, 44.83786 ], [ 0.67821, 44.83761 ], [ 0.67868, 44.83748 ], [ 0.679, 44.8374 ], [ 0.6793, 44.83733 ], [ 0.67954, 44.83724 ], [ 0.67976, 44.83712 ], [ 0.6801, 44.83701 ], [ 0.68059, 44.83687 ], [ 0.68116, 44.83668 ], [ 0.68162, 44.83654 ], [ 0.68207, 44.83638 ], [ 0.68264, 44.83626 ], [ 0.68345, 44.83608 ], [ 0.68421, 44.83588 ], [ 0.68496, 44.83573 ], [ 0.68559, 44.8356 ], [ 0.68631, 44.83546 ], [ 0.68693, 44.83535 ], [ 0.68771, 44.83526 ], [ 0.68849, 44.8352 ], [ 0.68906, 44.83516 ], [ 0.68964, 44.83509 ], [ 0.69007, 44.83507 ], [ 0.69021, 44.8351 ], [ 0.69049, 44.83512 ], [ 0.69077, 44.8351 ], [ 0.69139, 44.83493 ], [ 0.69208, 44.83479 ], [ 0.69247, 44.83462 ], [ 0.69298, 44.8345 ], [ 0.69338, 44.83443 ], [ 0.69366, 44.83435 ], [ 0.69395, 44.83429 ], [ 0.69449, 44.83417 ], [ 0.69496, 44.8341 ], [ 0.69563, 44.83397 ], [ 0.69585, 44.83391 ], [ 0.6963, 44.83383 ], [ 0.69699, 44.8337 ], [ 0.69752, 44.8336 ], [ 0.69804, 44.83352 ], [ 0.69844, 44.83342 ], [ 0.6993, 44.83324 ], [ 0.69951, 44.8332 ], [ 0.70014, 44.83305 ], [ 0.70077, 44.83289 ], [ 0.70132, 44.83275 ], [ 0.70183, 44.83259 ], [ 0.70234, 44.83248 ], [ 0.70287, 44.83238 ], [ 0.70357, 44.83229 ], [ 0.70397, 44.83224 ], [ 0.70447, 44.83219 ], [ 0.70486, 44.83214 ], [ 0.70536, 44.83212 ], [ 0.70581, 44.83208 ], [ 0.70644, 44.83212 ], [ 0.70693, 44.83217 ], [ 0.70713, 44.83225 ], [ 0.70735, 44.83229 ], [ 0.70769, 44.83231 ], [ 0.70806, 44.83229 ], [ 0.70825, 44.8323 ], [ 0.7084, 44.83231 ], [ 0.70871, 44.83243 ], [ 0.70901, 44.8325 ], [ 0.70931, 44.83252 ], [ 0.70994, 44.83262 ], [ 0.7105, 44.83268 ], [ 0.71093, 44.83265 ], [ 0.71131, 44.83262 ], [ 0.71157, 44.83261 ], [ 0.71198, 44.83261 ], [ 0.71223, 44.83261 ], [ 0.71273, 44.83259 ], [ 0.71328, 44.83253 ], [ 0.71379, 44.83249 ], [ 0.71452, 44.83247 ], [ 0.71483, 44.83244 ], [ 0.71497, 44.83244 ], [ 0.7159, 44.83244 ], [ 0.71651, 44.83242 ], [ 0.71724, 44.83247 ], [ 0.71756, 44.83254 ], [ 0.71801, 44.83254 ], [ 0.71868, 44.83262 ], [ 0.71933, 44.83273 ], [ 0.72016, 44.83289 ], [ 0.72087, 44.83309 ], [ 0.72168, 44.83333 ], [ 0.72236, 44.83346 ], [ 0.723, 44.83354 ], [ 0.72367, 44.83373 ], [ 0.72428, 44.83391 ], [ 0.72512, 44.83415 ], [ 0.72556, 44.8342 ], [ 0.72634, 44.83423 ], [ 0.72734, 44.8343 ], [ 0.72792, 44.83438 ], [ 0.72814, 44.83441 ], [ 0.72853, 44.8344 ], [ 0.72902, 44.83442 ], [ 0.72956, 44.83447 ], [ 0.72999, 44.83454 ], [ 0.73026, 44.83455 ], [ 0.73053, 44.83458 ], [ 0.73082, 44.83459 ], [ 0.73106, 44.8346 ], [ 0.73116, 44.8346 ], [ 0.73118, 44.8346 ], [ 0.7315, 44.83465 ], [ 0.73187, 44.83466 ], [ 0.73237, 44.83473 ], [ 0.7329, 44.83479 ], [ 0.73355, 44.83481 ], [ 0.73395, 44.83483 ], [ 0.73425, 44.83486 ], [ 0.73477, 44.83487 ], [ 0.7354, 44.8349 ], [ 0.73596, 44.83495 ], [ 0.73634, 44.835 ], [ 0.73671, 44.83506 ], [ 0.73727, 44.8352 ], [ 0.73779, 44.8353 ], [ 0.73793, 44.83532 ], [ 0.73829, 44.83539 ], [ 0.73851, 44.8354 ], [ 0.73889, 44.83543 ], [ 0.73904, 44.83547 ], [ 0.73953, 44.83551 ], [ 0.73996, 44.83558 ], [ 0.74032, 44.83556 ], [ 0.74072, 44.83557 ], [ 0.74097, 44.83562 ], [ 0.74127, 44.83569 ], [ 0.74149, 44.83572 ], [ 0.74213, 44.8358 ], [ 0.74316, 44.83592 ], [ 0.74412, 44.83605 ], [ 0.74449, 44.83608 ], [ 0.745, 44.83618 ], [ 0.74564, 44.83631 ], [ 0.7464, 44.83646 ], [ 0.74715, 44.83669 ], [ 0.7479, 44.83687 ], [ 0.74879, 44.83706 ], [ 0.74949, 44.83722 ], [ 0.74974, 44.83731 ], [ 0.74984, 44.83734 ], [ 0.75009, 44.83742 ], [ 0.75056, 44.83752 ], [ 0.751, 44.83767 ], [ 0.75137, 44.83782 ], [ 0.7515, 44.83791 ], [ 0.75192, 44.838 ], [ 0.75239, 44.83813 ], [ 0.7529, 44.83824 ], [ 0.75344, 44.83833 ], [ 0.754, 44.83844 ], [ 0.75439, 44.83853 ], [ 0.75473, 44.83855 ], [ 0.75514, 44.83857 ], [ 0.75546, 44.83865 ], [ 0.75576, 44.83873 ], [ 0.75604, 44.8388 ], [ 0.7563, 44.83889 ], [ 0.75659, 44.839 ], [ 0.75682, 44.83907 ], [ 0.75709, 44.83916 ], [ 0.75751, 44.83924 ], [ 0.75806, 44.83931 ], [ 0.7585, 44.8394 ], [ 0.75894, 44.83948 ], [ 0.75927, 44.83949 ], [ 0.75961, 44.83952 ], [ 0.75995, 44.83953 ], [ 0.76032, 44.83953 ], [ 0.7607, 44.8395 ], [ 0.761, 44.83947 ], [ 0.76127, 44.83943 ], [ 0.76186, 44.83926 ], [ 0.76211, 44.83916 ], [ 0.76234, 44.83906 ], [ 0.76259, 44.83898 ], [ 0.76283, 44.83898 ], [ 0.76305, 44.83895 ], [ 0.76327, 44.83888 ], [ 0.76353, 44.83879 ], [ 0.76383, 44.83873 ], [ 0.7642, 44.8387 ], [ 0.76457, 44.83869 ], [ 0.76492, 44.8387 ], [ 0.76522, 44.83869 ], [ 0.76551, 44.83872 ], [ 0.76587, 44.83876 ], [ 0.76632, 44.83882 ], [ 0.76671, 44.83887 ], [ 0.7671, 44.83892 ], [ 0.76739, 44.83896 ], [ 0.76764, 44.83896 ], [ 0.76795, 44.83901 ], [ 0.76837, 44.83909 ], [ 0.76879, 44.83914 ], [ 0.76912, 44.8392 ], [ 0.76943, 44.83928 ], [ 0.76978, 44.8394 ], [ 0.77008, 44.83949 ], [ 0.77038, 44.83959 ], [ 0.77067, 44.83968 ], [ 0.77097, 44.83982 ], [ 0.77123, 44.83991 ], [ 0.7716, 44.84003 ], [ 0.77194, 44.84015 ], [ 0.77226, 44.84027 ], [ 0.77264, 44.84038 ], [ 0.77296, 44.84047 ], [ 0.77329, 44.84054 ], [ 0.77359, 44.84061 ], [ 0.77385, 44.84071 ], [ 0.7742, 44.84084 ], [ 0.77449, 44.84092 ], [ 0.77477, 44.84102 ], [ 0.77498, 44.84111 ], [ 0.77517, 44.84119 ], [ 0.77544, 44.84124 ], [ 0.77568, 44.84129 ], [ 0.77602, 44.84135 ], [ 0.77638, 44.84143 ], [ 0.77679, 44.84154 ], [ 0.77718, 44.84161 ], [ 0.77771, 44.84176 ], [ 0.77846, 44.84196 ], [ 0.77902, 44.84215 ], [ 0.77953, 44.84223 ], [ 0.78011, 44.84232 ], [ 0.78058, 44.8424 ], [ 0.78097, 44.84247 ], [ 0.78164, 44.8426 ], [ 0.78209, 44.84266 ], [ 0.78248, 44.84276 ], [ 0.78282, 44.84284 ], [ 0.7831, 44.84291 ], [ 0.78341, 44.84298 ], [ 0.7837, 44.84306 ], [ 0.78419, 44.84317 ], [ 0.78446, 44.8432 ], [ 0.78482, 44.84326 ], [ 0.78524, 44.84334 ], [ 0.78559, 44.84346 ], [ 0.78588, 44.84354 ], [ 0.78624, 44.84368 ], [ 0.7866, 44.84381 ], [ 0.78712, 44.84399 ], [ 0.78754, 44.84414 ], [ 0.78792, 44.84428 ], [ 0.78822, 44.84444 ], [ 0.78859, 44.84468 ], [ 0.78908, 44.84493 ], [ 0.78916, 44.84497 ], [ 0.78966, 44.84521 ], [ 0.78974, 44.84525 ], [ 0.78992, 44.84533 ], [ 0.79016, 44.84544 ], [ 0.79031, 44.84555 ], [ 0.79048, 44.84566 ], [ 0.79071, 44.84577 ], [ 0.79092, 44.84588 ], [ 0.79118, 44.84602 ], [ 0.79153, 44.84617 ], [ 0.79188, 44.84633 ], [ 0.79217, 44.84651 ], [ 0.79249, 44.84666 ], [ 0.79278, 44.84679 ], [ 0.79308, 44.8469 ], [ 0.79332, 44.84704 ], [ 0.79353, 44.84717 ], [ 0.79358, 44.84719 ], [ 0.79394, 44.84737 ], [ 0.79423, 44.8475 ], [ 0.79439, 44.8477 ], [ 0.79451, 44.84781 ], [ 0.79565, 44.84845 ], [ 0.79628, 44.84871 ], [ 0.79703, 44.84899 ], [ 0.79767, 44.84928 ], [ 0.79824, 44.84956 ], [ 0.79875, 44.84978 ], [ 0.79947, 44.8501 ], [ 0.79983, 44.85033 ], [ 0.80021, 44.85052 ], [ 0.80055, 44.85068 ], [ 0.80123, 44.85112 ], [ 0.80193, 44.85156 ], [ 0.8023, 44.85194 ], [ 0.80263, 44.85236 ], [ 0.80295, 44.85297 ], [ 0.80306, 44.85333 ], [ 0.80311, 44.85358 ], [ 0.80303, 44.85405 ], [ 0.80308, 44.85429 ], [ 0.80313, 44.85439 ], [ 0.80324, 44.85443 ], [ 0.80331, 44.85444 ], [ 0.80319, 44.85458 ], [ 0.80299, 44.85496 ], [ 0.80287, 44.85517 ], [ 0.80284, 44.85521 ], [ 0.8027, 44.8554 ], [ 0.80275, 44.85552 ], [ 0.8027, 44.8557 ], [ 0.80267, 44.85583 ], [ 0.80243, 44.8563 ], [ 0.80234, 44.85651 ], [ 0.80226, 44.85661 ], [ 0.80218, 44.85692 ], [ 0.80195, 44.85737 ], [ 0.80193, 44.85768 ], [ 0.8017, 44.85814 ], [ 0.80137, 44.85869 ], [ 0.80125, 44.8589 ], [ 0.80098, 44.85961 ], [ 0.80088, 44.85981 ], [ 0.80073, 44.85983 ], [ 0.80049, 44.86043 ], [ 0.80029, 44.86077 ], [ 0.80013, 44.86108 ], [ 0.80001, 44.86131 ], [ 0.79974, 44.86175 ], [ 0.79981, 44.86235 ], [ 0.79965, 44.86272 ], [ 0.79964, 44.86275 ], [ 0.79962, 44.86275 ], [ 0.7996, 44.86275 ], [ 0.79956, 44.86276 ], [ 0.79951, 44.86276 ], [ 0.79943, 44.86277 ], [ 0.79945, 44.86282 ], [ 0.79945, 44.86302 ], [ 0.79947, 44.86315 ], [ 0.79948, 44.86327 ], [ 0.79946, 44.86337 ], [ 0.79922, 44.864 ], [ 0.79907, 44.86452 ], [ 0.79899, 44.8647 ], [ 0.7988, 44.8652 ], [ 0.79877, 44.86525 ], [ 0.79853, 44.86531 ], [ 0.79854, 44.86534 ], [ 0.7986, 44.86535 ], [ 0.7986, 44.86549 ], [ 0.79859, 44.86569 ], [ 0.79851, 44.86587 ], [ 0.79843, 44.86617 ], [ 0.79833, 44.86649 ], [ 0.7983, 44.86673 ], [ 0.79826, 44.867 ], [ 0.79818, 44.86729 ], [ 0.79811, 44.86765 ], [ 0.79807, 44.8678 ], [ 0.79805, 44.86787 ], [ 0.79799, 44.86807 ], [ 0.79798, 44.86809 ], [ 0.79793, 44.86838 ], [ 0.79787, 44.86865 ], [ 0.79781, 44.86899 ], [ 0.79768, 44.86944 ], [ 0.79762, 44.86969 ], [ 0.79742, 44.87033 ], [ 0.79738, 44.87057 ], [ 0.79734, 44.8708 ], [ 0.79729, 44.87111 ], [ 0.79728, 44.87117 ], [ 0.79716, 44.87218 ], [ 0.79707, 44.87346 ], [ 0.79707, 44.87412 ], [ 0.79708, 44.87417 ], [ 0.79709, 44.87451 ], [ 0.79723, 44.87539 ], [ 0.79741, 44.87617 ], [ 0.79742, 44.87624 ], [ 0.79747, 44.87649 ], [ 0.79761, 44.87704 ], [ 0.79795, 44.87803 ], [ 0.79831, 44.8791 ], [ 0.79871, 44.87996 ], [ 0.79923, 44.88081 ], [ 0.79999, 44.88175 ], [ 0.80061, 44.88241 ], [ 0.80124, 44.88302 ], [ 0.80212, 44.8837 ], [ 0.80352, 44.88439 ], [ 0.80386, 44.88454 ], [ 0.80423, 44.88468 ], [ 0.80467, 44.88483 ], [ 0.80512, 44.88498 ], [ 0.80553, 44.88513 ], [ 0.80605, 44.88532 ], [ 0.80667, 44.88548 ], [ 0.80726, 44.88562 ], [ 0.80787, 44.88577 ], [ 0.80855, 44.88589 ], [ 0.8092, 44.886 ], [ 0.80997, 44.88607 ], [ 0.81081, 44.88612 ], [ 0.81172, 44.8862 ], [ 0.81261, 44.88627 ], [ 0.81352, 44.88624 ], [ 0.81451, 44.88621 ], [ 0.81556, 44.88617 ], [ 0.81646, 44.88613 ], [ 0.81727, 44.88607 ], [ 0.81785, 44.886 ], [ 0.81834, 44.88593 ], [ 0.81878, 44.88587 ], [ 0.81881, 44.88586 ], [ 0.81886, 44.88585 ], [ 0.8192, 44.88582 ], [ 0.81959, 44.88574 ], [ 0.81995, 44.88565 ], [ 0.82055, 44.88543 ], [ 0.82082, 44.88533 ], [ 0.82106, 44.88523 ], [ 0.82117, 44.88518 ], [ 0.8214, 44.88502 ], [ 0.82181, 44.8848 ], [ 0.82222, 44.88451 ], [ 0.8226, 44.88419 ], [ 0.82288, 44.8839 ], [ 0.82318, 44.88361 ], [ 0.82347, 44.88332 ], [ 0.82366, 44.88306 ], [ 0.82391, 44.88273 ], [ 0.82411, 44.8825 ], [ 0.82429, 44.88225 ], [ 0.82445, 44.88203 ], [ 0.82462, 44.88179 ], [ 0.82474, 44.88158 ], [ 0.82487, 44.88139 ], [ 0.82496, 44.88119 ], [ 0.82506, 44.88098 ], [ 0.82509, 44.88094 ], [ 0.82516, 44.88074 ], [ 0.82519, 44.88053 ], [ 0.82518, 44.88036 ], [ 0.82517, 44.88026 ], [ 0.82513, 44.88027 ], [ 0.8251, 44.88037 ], [ 0.82511, 44.88056 ], [ 0.82504, 44.88072 ], [ 0.82502, 44.88074 ], [ 0.82493, 44.8808 ], [ 0.82485, 44.8807 ], [ 0.82479, 44.88048 ], [ 0.82473, 44.88025 ], [ 0.82465, 44.88001 ], [ 0.82456, 44.87983 ], [ 0.8245, 44.87962 ], [ 0.82449, 44.87938 ], [ 0.82445, 44.87922 ], [ 0.82443, 44.87915 ], [ 0.82443, 44.87909 ], [ 0.82442, 44.87905 ], [ 0.8244, 44.87894 ], [ 0.8244, 44.87876 ], [ 0.82442, 44.87871 ], [ 0.82443, 44.87859 ], [ 0.82445, 44.87839 ], [ 0.82444, 44.8782 ], [ 0.82435, 44.87799 ], [ 0.82421, 44.87782 ], [ 0.82409, 44.87765 ], [ 0.82394, 44.87748 ], [ 0.82383, 44.87728 ], [ 0.82379, 44.87703 ], [ 0.82375, 44.87677 ], [ 0.82371, 44.87661 ], [ 0.82367, 44.87641 ], [ 0.82361, 44.87621 ], [ 0.82357, 44.876 ], [ 0.82349, 44.87581 ], [ 0.82342, 44.8756 ], [ 0.82335, 44.87542 ], [ 0.82331, 44.87519 ], [ 0.82329, 44.87498 ], [ 0.82323, 44.87471 ], [ 0.82319, 44.8745 ], [ 0.82317, 44.87432 ], [ 0.82317, 44.87414 ], [ 0.82319, 44.87395 ], [ 0.82321, 44.87377 ], [ 0.82321, 44.8736 ], [ 0.82323, 44.87349 ], [ 0.82323, 44.87331 ], [ 0.82325, 44.87311 ], [ 0.82326, 44.8729 ], [ 0.82327, 44.87271 ], [ 0.82328, 44.87259 ], [ 0.82323, 44.87246 ], [ 0.82319, 44.87225 ], [ 0.82319, 44.87196 ], [ 0.82316, 44.87171 ], [ 0.82315, 44.87138 ], [ 0.82314, 44.87109 ], [ 0.82315, 44.87087 ], [ 0.82317, 44.87065 ], [ 0.82315, 44.87042 ], [ 0.82322, 44.86951 ], [ 0.8232, 44.86927 ], [ 0.82319, 44.86897 ], [ 0.82318, 44.86871 ], [ 0.82321, 44.86846 ], [ 0.82325, 44.86818 ], [ 0.82326, 44.86794 ], [ 0.8233, 44.86774 ], [ 0.82331, 44.86749 ], [ 0.82331, 44.86721 ], [ 0.8233, 44.86695 ], [ 0.8233, 44.86666 ], [ 0.82328, 44.86636 ], [ 0.82325, 44.86605 ], [ 0.82325, 44.86576 ], [ 0.82324, 44.86544 ], [ 0.82329, 44.86523 ], [ 0.82332, 44.86502 ], [ 0.82332, 44.86483 ], [ 0.82331, 44.86469 ], [ 0.82332, 44.86448 ], [ 0.82331, 44.86426 ], [ 0.82332, 44.86397 ], [ 0.82332, 44.86372 ], [ 0.82332, 44.86346 ], [ 0.82336, 44.86316 ], [ 0.8234, 44.86288 ], [ 0.82343, 44.86271 ], [ 0.82346, 44.86246 ], [ 0.8235, 44.86216 ], [ 0.82356, 44.86184 ], [ 0.82361, 44.86158 ], [ 0.82368, 44.86134 ], [ 0.82373, 44.86118 ], [ 0.82376, 44.86098 ], [ 0.82383, 44.86075 ], [ 0.82391, 44.86046 ], [ 0.82399, 44.86021 ], [ 0.82405, 44.86 ], [ 0.82425, 44.85952 ], [ 0.82441, 44.85927 ], [ 0.82453, 44.85902 ], [ 0.82468, 44.85877 ], [ 0.82491, 44.85854 ], [ 0.82523, 44.85805 ], [ 0.8255, 44.85775 ], [ 0.8258, 44.85742 ], [ 0.82616, 44.85712 ], [ 0.8266, 44.85673 ], [ 0.82759, 44.85597 ], [ 0.82854, 44.8553 ], [ 0.82927, 44.85497 ], [ 0.82938, 44.855 ], [ 0.82984, 44.85482 ], [ 0.83004, 44.8547 ], [ 0.83062, 44.85445 ], [ 0.83098, 44.85432 ], [ 0.83117, 44.85424 ], [ 0.83125, 44.85407 ], [ 0.83175, 44.85394 ], [ 0.83229, 44.85373 ], [ 0.83253, 44.85371 ], [ 0.83296, 44.85362 ], [ 0.83348, 44.85348 ], [ 0.83411, 44.85332 ], [ 0.83439, 44.85328 ], [ 0.83427, 44.85303 ], [ 0.83442, 44.85288 ], [ 0.83497, 44.85272 ], [ 0.83528, 44.85266 ], [ 0.83552, 44.85262 ], [ 0.83576, 44.85256 ], [ 0.83603, 44.85246 ], [ 0.83603, 44.85237 ], [ 0.83606, 44.85234 ], [ 0.83736, 44.852 ], [ 0.83869, 44.85169 ], [ 0.8393, 44.85156 ], [ 0.83927, 44.85172 ], [ 0.83939, 44.85202 ], [ 0.83981, 44.85194 ], [ 0.84069, 44.85179 ], [ 0.84078, 44.85177 ], [ 0.84066, 44.85143 ], [ 0.84081, 44.85139 ], [ 0.84164, 44.8513 ], [ 0.84265, 44.85108 ], [ 0.84372, 44.85106 ], [ 0.84459, 44.85094 ], [ 0.8456, 44.85092 ], [ 0.8463, 44.85095 ], [ 0.847, 44.85106 ], [ 0.84769, 44.85114 ], [ 0.84829, 44.85125 ], [ 0.84906, 44.85135 ], [ 0.84991, 44.8515 ], [ 0.85064, 44.85163 ], [ 0.85178, 44.85187 ], [ 0.8523, 44.85201 ], [ 0.85267, 44.85213 ], [ 0.85275, 44.85226 ], [ 0.85262, 44.85238 ], [ 0.85227, 44.85265 ], [ 0.85205, 44.85294 ], [ 0.85203, 44.85318 ], [ 0.85227, 44.85335 ], [ 0.85249, 44.85347 ], [ 0.85279, 44.8536 ], [ 0.85308, 44.85335 ], [ 0.8534, 44.85292 ], [ 0.85364, 44.85277 ], [ 0.85392, 44.85272 ], [ 0.85462, 44.85295 ], [ 0.85534, 44.85327 ], [ 0.85594, 44.85362 ], [ 0.85635, 44.8539 ], [ 0.85702, 44.85434 ], [ 0.85747, 44.85469 ], [ 0.85804, 44.85501 ], [ 0.85808, 44.85508 ], [ 0.8578, 44.85513 ], [ 0.85748, 44.85512 ], [ 0.85668, 44.85572 ], [ 0.85641, 44.85592 ], [ 0.85636, 44.85607 ], [ 0.85662, 44.85631 ], [ 0.857, 44.85656 ], [ 0.85722, 44.85657 ], [ 0.85778, 44.85689 ], [ 0.85786, 44.85709 ], [ 0.85807, 44.85721 ], [ 0.85848, 44.857 ], [ 0.85933, 44.85649 ], [ 0.85974, 44.85628 ], [ 0.86067, 44.85695 ], [ 0.86074, 44.85705 ], [ 0.86078, 44.85704 ], [ 0.86087, 44.857 ], [ 0.86114, 44.85727 ], [ 0.86212, 44.85816 ], [ 0.8623, 44.85837 ], [ 0.86251, 44.8586 ], [ 0.86261, 44.85874 ], [ 0.86278, 44.85895 ], [ 0.86301, 44.85925 ], [ 0.86324, 44.85965 ], [ 0.86342, 44.86 ], [ 0.86357, 44.86028 ], [ 0.86364, 44.86052 ], [ 0.86378, 44.86105 ], [ 0.86383, 44.86174 ], [ 0.86386, 44.86201 ], [ 0.86397, 44.86234 ], [ 0.86401, 44.86268 ], [ 0.86403, 44.86312 ], [ 0.86396, 44.86355 ], [ 0.86384, 44.86399 ], [ 0.86381, 44.86418 ], [ 0.86374, 44.86428 ], [ 0.8636, 44.86434 ], [ 0.86337, 44.86447 ], [ 0.86328, 44.86454 ], [ 0.86307, 44.8648 ], [ 0.86269, 44.86516 ], [ 0.86238, 44.86559 ], [ 0.86218, 44.86583 ], [ 0.86198, 44.8662 ], [ 0.86172, 44.86671 ], [ 0.86164, 44.86713 ], [ 0.86151, 44.86741 ], [ 0.8614, 44.86773 ], [ 0.86142, 44.86793 ], [ 0.86135, 44.86832 ], [ 0.86132, 44.86844 ], [ 0.86115, 44.86857 ], [ 0.86113, 44.86877 ], [ 0.86117, 44.8689 ], [ 0.86125, 44.86899 ], [ 0.86127, 44.86922 ], [ 0.86126, 44.86996 ], [ 0.86128, 44.87066 ], [ 0.86139, 44.87132 ], [ 0.86147, 44.87184 ], [ 0.86146, 44.87242 ], [ 0.86173, 44.87253 ], [ 0.8618, 44.87295 ], [ 0.86186, 44.87324 ], [ 0.86188, 44.87334 ], [ 0.86195, 44.87368 ], [ 0.86214, 44.87367 ], [ 0.86215, 44.87367 ], [ 0.86308, 44.87359 ], [ 0.86311, 44.87366 ], [ 0.86315, 44.87385 ], [ 0.8632, 44.8741 ], [ 0.8632, 44.87411 ], [ 0.86324, 44.87423 ], [ 0.86334, 44.87461 ], [ 0.86349, 44.87511 ], [ 0.86363, 44.8756 ], [ 0.86376, 44.87612 ], [ 0.86379, 44.87622 ], [ 0.86384, 44.87636 ], [ 0.86385, 44.87638 ], [ 0.86437, 44.87729 ], [ 0.86458, 44.87763 ], [ 0.86493, 44.87817 ], [ 0.86494, 44.87817 ], [ 0.86505, 44.87832 ], [ 0.86534, 44.8787 ], [ 0.86568, 44.87916 ], [ 0.86569, 44.87918 ], [ 0.86583, 44.87931 ], [ 0.86601, 44.87949 ], [ 0.86608, 44.87955 ], [ 0.86641, 44.87983 ], [ 0.86641, 44.87984 ], [ 0.86665, 44.88005 ], [ 0.8667, 44.88009 ], [ 0.86689, 44.88024 ], [ 0.86713, 44.8804 ], [ 0.86727, 44.8805 ], [ 0.86735, 44.88055 ], [ 0.86754, 44.88063 ], [ 0.86794, 44.88082 ], [ 0.86844, 44.88104 ], [ 0.8685, 44.88107 ], [ 0.86851, 44.88107 ], [ 0.86857, 44.8811 ], [ 0.86896, 44.88125 ], [ 0.86898, 44.88125 ], [ 0.86901, 44.88127 ], [ 0.86925, 44.88136 ], [ 0.86939, 44.8814 ], [ 0.8694, 44.88141 ], [ 0.86954, 44.88145 ], [ 0.86955, 44.88146 ], [ 0.86958, 44.88146 ], [ 0.86972, 44.8815 ], [ 0.8698, 44.88154 ], [ 0.86983, 44.88154 ], [ 0.87028, 44.88169 ], [ 0.87032, 44.88169 ], [ 0.87033, 44.8817 ], [ 0.87036, 44.8817 ], [ 0.87053, 44.88176 ], [ 0.87056, 44.88177 ], [ 0.87058, 44.88178 ], [ 0.87069, 44.88181 ], [ 0.87103, 44.88189 ], [ 0.87179, 44.88208 ], [ 0.87183, 44.88209 ], [ 0.87188, 44.88211 ], [ 0.87195, 44.88212 ], [ 0.87206, 44.88215 ], [ 0.8721, 44.88216 ], [ 0.87223, 44.88218 ], [ 0.87225, 44.88218 ], [ 0.87263, 44.88224 ], [ 0.87266, 44.88224 ], [ 0.87287, 44.88227 ], [ 0.8729, 44.88228 ], [ 0.87297, 44.88228 ], [ 0.87334, 44.88232 ], [ 0.87336, 44.88232 ], [ 0.87401, 44.88239 ], [ 0.87403, 44.8824 ], [ 0.87459, 44.88246 ], [ 0.87537, 44.88256 ], [ 0.87539, 44.88256 ], [ 0.87611, 44.88265 ], [ 0.87619, 44.88266 ], [ 0.87621, 44.88266 ], [ 0.87649, 44.88269 ], [ 0.8765, 44.88269 ], [ 0.87668, 44.88269 ], [ 0.87669, 44.88269 ], [ 0.87688, 44.88269 ], [ 0.8769, 44.88269 ], [ 0.8775, 44.88266 ], [ 0.87771, 44.88265 ], [ 0.87772, 44.88265 ], [ 0.87852, 44.88259 ], [ 0.87853, 44.88259 ], [ 0.87885, 44.88256 ], [ 0.87927, 44.88252 ], [ 0.87928, 44.88252 ], [ 0.87951, 44.88249 ], [ 0.88002, 44.88244 ], [ 0.88021, 44.88242 ], [ 0.8806, 44.8824 ], [ 0.88146, 44.88235 ], [ 0.88147, 44.88235 ], [ 0.88213, 44.8823 ], [ 0.88226, 44.88229 ], [ 0.88227, 44.88229 ], [ 0.88282, 44.88227 ], [ 0.88342, 44.88226 ], [ 0.88373, 44.88227 ], [ 0.88455, 44.88228 ], [ 0.88459, 44.88228 ], [ 0.88521, 44.88228 ], [ 0.88536, 44.88228 ], [ 0.88602, 44.88226 ], [ 0.88635, 44.88225 ], [ 0.88637, 44.88224 ], [ 0.88655, 44.88222 ], [ 0.88669, 44.88221 ], [ 0.88706, 44.88217 ], [ 0.88707, 44.88217 ], [ 0.88774, 44.88209 ], [ 0.88776, 44.88208 ], [ 0.88791, 44.88206 ], [ 0.88796, 44.88205 ], [ 0.88811, 44.88201 ], [ 0.88835, 44.88195 ], [ 0.88865, 44.88186 ], [ 0.88866, 44.88186 ], [ 0.88895, 44.88177 ], [ 0.88898, 44.88176 ], [ 0.88909, 44.88173 ], [ 0.88915, 44.88167 ], [ 0.88916, 44.88166 ], [ 0.88921, 44.88162 ], [ 0.88921, 44.8816 ], [ 0.8893, 44.88153 ], [ 0.88952, 44.88128 ], [ 0.88972, 44.88106 ], [ 0.88972, 44.88105 ], [ 0.88976, 44.88101 ], [ 0.88985, 44.88085 ], [ 0.89008, 44.88042 ], [ 0.8901, 44.88037 ], [ 0.89053, 44.87949 ], [ 0.8906, 44.87934 ], [ 0.89063, 44.87925 ], [ 0.89066, 44.87912 ], [ 0.89078, 44.87865 ], [ 0.89078, 44.87864 ], [ 0.89082, 44.87846 ], [ 0.89088, 44.87816 ], [ 0.89088, 44.87814 ], [ 0.8909, 44.87792 ], [ 0.8909, 44.8779 ], [ 0.89094, 44.87757 ], [ 0.89095, 44.87733 ], [ 0.89096, 44.87731 ], [ 0.89098, 44.87682 ], [ 0.89098, 44.87679 ], [ 0.89098, 44.87666 ], [ 0.89099, 44.87663 ], [ 0.89099, 44.87656 ], [ 0.89098, 44.87652 ], [ 0.89095, 44.87602 ], [ 0.89095, 44.87598 ], [ 0.89094, 44.87595 ], [ 0.89087, 44.87514 ], [ 0.89086, 44.8748 ], [ 0.89086, 44.87475 ], [ 0.89085, 44.87462 ], [ 0.89085, 44.87459 ], [ 0.89087, 44.87378 ], [ 0.89086, 44.87375 ], [ 0.89086, 44.87374 ], [ 0.89082, 44.87341 ], [ 0.89082, 44.87338 ], [ 0.89082, 44.87336 ], [ 0.8907, 44.87265 ], [ 0.89068, 44.87263 ], [ 0.89063, 44.87219 ], [ 0.89056, 44.87169 ], [ 0.89054, 44.87145 ], [ 0.89048, 44.87117 ], [ 0.89048, 44.87116 ], [ 0.8904, 44.87084 ], [ 0.89025, 44.87024 ], [ 0.89009, 44.8698 ], [ 0.88999, 44.86957 ], [ 0.88991, 44.86939 ], [ 0.88991, 44.86938 ], [ 0.88967, 44.86897 ], [ 0.88954, 44.86876 ], [ 0.88944, 44.86858 ], [ 0.88944, 44.86857 ], [ 0.88933, 44.86842 ], [ 0.88931, 44.86841 ], [ 0.8893, 44.8684 ], [ 0.88903, 44.86806 ], [ 0.88902, 44.86804 ], [ 0.88887, 44.86784 ], [ 0.88878, 44.86765 ], [ 0.88878, 44.86764 ], [ 0.88872, 44.86749 ], [ 0.88868, 44.86733 ], [ 0.88866, 44.86729 ], [ 0.88851, 44.86712 ], [ 0.8885, 44.86709 ], [ 0.88816, 44.86667 ], [ 0.88814, 44.86665 ], [ 0.8881, 44.8666 ], [ 0.88808, 44.86658 ], [ 0.88798, 44.86648 ], [ 0.88789, 44.86637 ], [ 0.88789, 44.86636 ], [ 0.8878, 44.86615 ], [ 0.88779, 44.86612 ], [ 0.88778, 44.8661 ], [ 0.88773, 44.86595 ], [ 0.88771, 44.86588 ], [ 0.88768, 44.8657 ], [ 0.88768, 44.86569 ], [ 0.88762, 44.86552 ], [ 0.88762, 44.86551 ], [ 0.88757, 44.86537 ], [ 0.88757, 44.86534 ], [ 0.88754, 44.86504 ], [ 0.88754, 44.86499 ], [ 0.88751, 44.86463 ], [ 0.88753, 44.86435 ], [ 0.88753, 44.8643 ], [ 0.88756, 44.86416 ], [ 0.88756, 44.86414 ], [ 0.88759, 44.864 ], [ 0.88759, 44.86397 ], [ 0.88762, 44.86384 ], [ 0.88765, 44.86378 ], [ 0.88766, 44.86373 ], [ 0.88776, 44.86347 ], [ 0.88777, 44.86344 ], [ 0.8878, 44.86337 ], [ 0.88781, 44.86333 ], [ 0.8879, 44.86307 ], [ 0.88791, 44.86304 ], [ 0.8881, 44.86244 ], [ 0.8881, 44.86243 ], [ 0.88812, 44.8624 ], [ 0.88817, 44.86223 ], [ 0.88817, 44.86219 ], [ 0.88819, 44.86215 ], [ 0.8882, 44.86212 ], [ 0.88826, 44.86184 ], [ 0.88826, 44.86181 ], [ 0.88827, 44.86173 ], [ 0.88827, 44.8617 ], [ 0.8883, 44.86154 ], [ 0.88832, 44.86151 ], [ 0.88833, 44.86139 ], [ 0.88833, 44.86136 ], [ 0.88837, 44.86117 ], [ 0.88839, 44.86114 ], [ 0.88843, 44.86094 ], [ 0.88843, 44.86092 ], [ 0.8885, 44.86064 ], [ 0.88852, 44.86061 ], [ 0.88857, 44.86033 ], [ 0.88859, 44.86031 ], [ 0.88859, 44.86028 ], [ 0.8886, 44.86024 ], [ 0.88861, 44.86023 ], [ 0.88862, 44.8602 ], [ 0.88868, 44.86004 ], [ 0.88868, 44.86002 ], [ 0.88874, 44.85988 ], [ 0.88874, 44.85986 ], [ 0.88878, 44.85979 ], [ 0.88878, 44.85977 ], [ 0.88882, 44.85966 ], [ 0.88883, 44.85965 ], [ 0.8889, 44.85946 ], [ 0.88898, 44.85928 ], [ 0.88899, 44.85926 ], [ 0.88911, 44.85899 ], [ 0.88911, 44.85898 ], [ 0.88922, 44.85876 ], [ 0.88922, 44.85875 ], [ 0.88944, 44.85829 ], [ 0.88944, 44.85828 ], [ 0.88953, 44.8581 ], [ 0.88957, 44.85803 ], [ 0.88977, 44.85768 ], [ 0.88978, 44.85766 ], [ 0.88978, 44.85765 ], [ 0.88991, 44.85745 ], [ 0.88991, 44.85744 ], [ 0.88995, 44.85738 ], [ 0.88997, 44.85738 ], [ 0.89007, 44.85719 ], [ 0.89023, 44.85698 ], [ 0.89023, 44.85698 ], [ 0.89028, 44.85691 ], [ 0.8908, 44.85702 ], [ 0.89081, 44.85702 ], [ 0.89133, 44.85693 ], [ 0.89153, 44.85664 ], [ 0.89173, 44.85629 ], [ 0.89197, 44.85587 ], [ 0.89214, 44.85551 ], [ 0.89245, 44.85527 ], [ 0.89276, 44.85516 ], [ 0.89309, 44.85494 ], [ 0.89336, 44.85492 ], [ 0.89359, 44.85479 ], [ 0.8941, 44.85464 ], [ 0.89452, 44.85449 ], [ 0.89546, 44.8544 ], [ 0.89552, 44.85447 ], [ 0.8956, 44.85467 ], [ 0.8958, 44.8548 ], [ 0.89591, 44.85494 ], [ 0.89609, 44.85499 ], [ 0.89621, 44.85498 ], [ 0.89642, 44.85488 ], [ 0.89671, 44.85485 ], [ 0.89682, 44.85461 ], [ 0.89669, 44.8545 ], [ 0.89658, 44.85434 ], [ 0.89674, 44.85422 ], [ 0.89698, 44.85422 ], [ 0.89708, 44.85432 ], [ 0.89727, 44.85436 ], [ 0.89751, 44.85436 ], [ 0.89768, 44.85436 ], [ 0.89776, 44.85448 ], [ 0.89763, 44.85454 ], [ 0.89731, 44.85454 ], [ 0.8972, 44.85479 ], [ 0.89726, 44.855 ], [ 0.89738, 44.85527 ], [ 0.89744, 44.85526 ], [ 0.89747, 44.85526 ], [ 0.89748, 44.85525 ], [ 0.89756, 44.85524 ], [ 0.89765, 44.8552 ], [ 0.89759, 44.85507 ], [ 0.89759, 44.85489 ], [ 0.89779, 44.85478 ], [ 0.89799, 44.85464 ], [ 0.89825, 44.85452 ], [ 0.89857, 44.85441 ], [ 0.89882, 44.85442 ], [ 0.8989, 44.85457 ], [ 0.89899, 44.85485 ], [ 0.89891, 44.85531 ], [ 0.89893, 44.8555 ], [ 0.89893, 44.8555 ], [ 0.89894, 44.8555 ], [ 0.8991, 44.85545 ], [ 0.89916, 44.85535 ], [ 0.89916, 44.85512 ], [ 0.89914, 44.85491 ], [ 0.89913, 44.85465 ], [ 0.89914, 44.85438 ], [ 0.89908, 44.85426 ], [ 0.89928, 44.85436 ], [ 0.89928, 44.85508 ], [ 0.89929, 44.85548 ], [ 0.8993, 44.85547 ], [ 0.89939, 44.85537 ], [ 0.89943, 44.85534 ], [ 0.89952, 44.85529 ], [ 0.89953, 44.85527 ], [ 0.89954, 44.85527 ], [ 0.89957, 44.85525 ], [ 0.8996, 44.85524 ], [ 0.8996, 44.85524 ], [ 0.89961, 44.85524 ], [ 0.89962, 44.85523 ], [ 0.89963, 44.85523 ], [ 0.89975, 44.85517 ], [ 0.8999, 44.8551 ], [ 0.89992, 44.8551 ], [ 0.89983, 44.855 ], [ 0.89979, 44.85491 ], [ 0.89978, 44.85477 ], [ 0.89983, 44.85463 ], [ 0.89992, 44.85453 ], [ 0.90002, 44.85452 ], [ 0.90017, 44.85452 ], [ 0.9003, 44.85451 ], [ 0.90058, 44.85451 ], [ 0.90081, 44.85455 ], [ 0.9009, 44.85463 ], [ 0.90085, 44.85495 ], [ 0.90081, 44.85522 ], [ 0.90084, 44.85538 ], [ 0.90087, 44.8554 ], [ 0.90087, 44.8554 ], [ 0.90089, 44.85541 ], [ 0.90096, 44.85544 ], [ 0.90123, 44.85554 ], [ 0.90154, 44.85574 ], [ 0.90161, 44.85577 ], [ 0.90164, 44.85578 ], [ 0.90166, 44.85579 ], [ 0.90167, 44.85579 ], [ 0.90173, 44.85582 ], [ 0.90174, 44.85582 ], [ 0.90179, 44.85585 ], [ 0.90192, 44.8559 ], [ 0.90193, 44.8559 ], [ 0.90211, 44.85597 ], [ 0.90212, 44.85597 ], [ 0.90218, 44.856 ], [ 0.90231, 44.85602 ], [ 0.90251, 44.85608 ], [ 0.9027, 44.85611 ], [ 0.90285, 44.85616 ], [ 0.90285, 44.85616 ], [ 0.90364, 44.85619 ], [ 0.90386, 44.8562 ], [ 0.90388, 44.8562 ], [ 0.90395, 44.8562 ], [ 0.90402, 44.85621 ], [ 0.90412, 44.85621 ], [ 0.9041, 44.85614 ], [ 0.9045, 44.85613 ], [ 0.90456, 44.85606 ], [ 0.90452, 44.85595 ], [ 0.90457, 44.8559 ], [ 0.90476, 44.85604 ], [ 0.90487, 44.85611 ], [ 0.9049, 44.85611 ], [ 0.90508, 44.85609 ], [ 0.90528, 44.85606 ], [ 0.90509, 44.85596 ], [ 0.90483, 44.85584 ], [ 0.90478, 44.85582 ], [ 0.90479, 44.85576 ], [ 0.90537, 44.85599 ], [ 0.90544, 44.85605 ], [ 0.90619, 44.85596 ], [ 0.90622, 44.85596 ], [ 0.90643, 44.85594 ], [ 0.90646, 44.85595 ], [ 0.9065, 44.85594 ], [ 0.90652, 44.85594 ], [ 0.90651, 44.85548 ], [ 0.90874, 44.85562 ], [ 0.90918, 44.85562 ], [ 0.91162, 44.85583 ], [ 0.91211, 44.85587 ], [ 0.91214, 44.85587 ], [ 0.91321, 44.85593 ], [ 0.91324, 44.85594 ], [ 0.91456, 44.85598 ], [ 0.9146, 44.85598 ], [ 0.9152, 44.85598 ], [ 0.91592, 44.85597 ], [ 0.91609, 44.85594 ], [ 0.91615, 44.85593 ], [ 0.91648, 44.85586 ], [ 0.91653, 44.85585 ], [ 0.91683, 44.85576 ], [ 0.91686, 44.85576 ], [ 0.91688, 44.85575 ], [ 0.91723, 44.85562 ], [ 0.9181, 44.8552 ], [ 0.91828, 44.85566 ], [ 0.91828, 44.85567 ], [ 0.91828, 44.85567 ], [ 0.91829, 44.85585 ], [ 0.91831, 44.856 ], [ 0.91831, 44.85601 ], [ 0.91831, 44.85602 ], [ 0.9183, 44.85611 ], [ 0.91832, 44.85615 ], [ 0.91832, 44.85616 ], [ 0.91834, 44.85619 ], [ 0.91867, 44.85612 ], [ 0.91895, 44.85607 ], [ 0.91932, 44.85601 ], [ 0.91934, 44.856 ], [ 0.91942, 44.85599 ], [ 0.91943, 44.85598 ], [ 0.9196, 44.85588 ], [ 0.91963, 44.85586 ], [ 0.91977, 44.85578 ], [ 0.91997, 44.85566 ], [ 0.92082, 44.85552 ], [ 0.92142, 44.85548 ], [ 0.92222, 44.85533 ], [ 0.92263, 44.85525 ], [ 0.92273, 44.85526 ], [ 0.92278, 44.85517 ], [ 0.92274, 44.85506 ], [ 0.92295, 44.85493 ], [ 0.92332, 44.85475 ], [ 0.92374, 44.85462 ], [ 0.92425, 44.85436 ], [ 0.92454, 44.85426 ], [ 0.92518, 44.85381 ], [ 0.92545, 44.85343 ], [ 0.92542, 44.85327 ], [ 0.92537, 44.85314 ], [ 0.92561, 44.85271 ], [ 0.9257, 44.85217 ], [ 0.92522, 44.85238 ], [ 0.92508, 44.85258 ], [ 0.92478, 44.85319 ], [ 0.92442, 44.85342 ], [ 0.92412, 44.85385 ], [ 0.92386, 44.85397 ], [ 0.92204, 44.85445 ], [ 0.92088, 44.85481 ], [ 0.92036, 44.85501 ], [ 0.9202, 44.85516 ], [ 0.91996, 44.8553 ], [ 0.91963, 44.85551 ], [ 0.91953, 44.85547 ], [ 0.9196, 44.85522 ], [ 0.91974, 44.8549 ], [ 0.91969, 44.85477 ], [ 0.91988, 44.85473 ], [ 0.92019, 44.85445 ], [ 0.92063, 44.85407 ], [ 0.92117, 44.85366 ], [ 0.9215, 44.85334 ], [ 0.92182, 44.85308 ], [ 0.92205, 44.85287 ], [ 0.92237, 44.85255 ], [ 0.92276, 44.85214 ], [ 0.92304, 44.852 ], [ 0.92322, 44.85185 ], [ 0.92346, 44.8516 ], [ 0.92348, 44.85141 ], [ 0.92374, 44.85117 ], [ 0.92399, 44.85095 ], [ 0.92418, 44.85075 ], [ 0.92438, 44.85055 ], [ 0.92457, 44.85036 ], [ 0.92489, 44.85009 ], [ 0.92513, 44.84992 ], [ 0.92541, 44.84963 ], [ 0.92575, 44.84933 ], [ 0.92603, 44.84899 ], [ 0.92618, 44.84872 ], [ 0.926, 44.84867 ], [ 0.92572, 44.84861 ], [ 0.92559, 44.84855 ], [ 0.92589, 44.84822 ], [ 0.92616, 44.84789 ], [ 0.92639, 44.84759 ], [ 0.92641, 44.84757 ], [ 0.92666, 44.84732 ], [ 0.92688, 44.84719 ], [ 0.92704, 44.84719 ], [ 0.92723, 44.84704 ], [ 0.92782, 44.84621 ], [ 0.92839, 44.8455 ], [ 0.92896, 44.84498 ], [ 0.92918, 44.84463 ], [ 0.92937, 44.84442 ], [ 0.92953, 44.84427 ], [ 0.92985, 44.84394 ], [ 0.92993, 44.84385 ], [ 0.92999, 44.84394 ], [ 0.92987, 44.84417 ], [ 0.92965, 44.84443 ], [ 0.92966, 44.84469 ], [ 0.92991, 44.84461 ], [ 0.93014, 44.84464 ], [ 0.93036, 44.84462 ], [ 0.93065, 44.84443 ], [ 0.9311, 44.84414 ], [ 0.93156, 44.84389 ], [ 0.93193, 44.84353 ], [ 0.93209, 44.84348 ], [ 0.93276, 44.84368 ], [ 0.93316, 44.84385 ], [ 0.93362, 44.84398 ], [ 0.93382, 44.84409 ], [ 0.93415, 44.84417 ], [ 0.93447, 44.84431 ], [ 0.93463, 44.84449 ], [ 0.9348, 44.84457 ], [ 0.93528, 44.84454 ], [ 0.93558, 44.84462 ], [ 0.9354, 44.84478 ], [ 0.93529, 44.84495 ], [ 0.93566, 44.84485 ], [ 0.93582, 44.84495 ], [ 0.93592, 44.84501 ], [ 0.93514, 44.84581 ], [ 0.93486, 44.84609 ], [ 0.93476, 44.84631 ], [ 0.93494, 44.84645 ], [ 0.93528, 44.84647 ], [ 0.93543, 44.84636 ], [ 0.93607, 44.84575 ], [ 0.93678, 44.8451 ], [ 0.93706, 44.84484 ], [ 0.93722, 44.84478 ], [ 0.9375, 44.8448 ], [ 0.93784, 44.8447 ], [ 0.93823, 44.84468 ], [ 0.9388, 44.84465 ], [ 0.93909, 44.84465 ], [ 0.93918, 44.84471 ], [ 0.93934, 44.84449 ], [ 0.93923, 44.84387 ], [ 0.93892, 44.8439 ], [ 0.93881, 44.84392 ], [ 0.93839, 44.84394 ], [ 0.93823, 44.84394 ], [ 0.938, 44.84393 ], [ 0.93797, 44.84393 ], [ 0.93783, 44.84391 ], [ 0.93735, 44.84386 ], [ 0.93722, 44.84384 ], [ 0.93688, 44.84379 ], [ 0.93635, 44.8437 ], [ 0.93623, 44.84367 ], [ 0.936, 44.8436 ], [ 0.93551, 44.84347 ], [ 0.93473, 44.84321 ], [ 0.93458, 44.84316 ], [ 0.93379, 44.84289 ], [ 0.93292, 44.84264 ], [ 0.93286, 44.84262 ], [ 0.93252, 44.84253 ], [ 0.93206, 44.8424 ], [ 0.93255, 44.84182 ], [ 0.93255, 44.84181 ], [ 0.93256, 44.84181 ], [ 0.93259, 44.84177 ], [ 0.9328, 44.84153 ], [ 0.9328, 44.84152 ], [ 0.93294, 44.84137 ], [ 0.93294, 44.84136 ], [ 0.93297, 44.84136 ], [ 0.93297, 44.84135 ], [ 0.933, 44.84134 ], [ 0.9332, 44.8413 ], [ 0.93364, 44.84119 ], [ 0.93365, 44.84119 ], [ 0.93411, 44.84108 ], [ 0.93451, 44.84098 ], [ 0.93452, 44.84098 ], [ 0.93453, 44.84097 ], [ 0.93454, 44.84096 ], [ 0.93454, 44.84095 ], [ 0.93454, 44.84094 ], [ 0.93455, 44.84093 ], [ 0.93453, 44.84093 ], [ 0.93452, 44.84092 ], [ 0.93451, 44.84091 ], [ 0.93426, 44.84089 ], [ 0.93424, 44.84089 ], [ 0.9337, 44.84085 ], [ 0.93369, 44.84085 ], [ 0.93354, 44.84084 ], [ 0.93327, 44.84082 ], [ 0.93326, 44.84082 ], [ 0.93306, 44.8408 ], [ 0.93299, 44.84079 ], [ 0.93298, 44.84079 ], [ 0.93297, 44.84079 ], [ 0.93297, 44.84079 ], [ 0.93296, 44.84079 ], [ 0.93296, 44.84078 ], [ 0.93297, 44.84078 ], [ 0.9331, 44.84072 ], [ 0.9331, 44.84072 ], [ 0.9335, 44.84057 ], [ 0.93356, 44.84055 ], [ 0.93356, 44.84054 ], [ 0.93357, 44.84053 ], [ 0.93359, 44.84051 ], [ 0.93361, 44.8405 ], [ 0.93362, 44.84047 ], [ 0.93361, 44.84029 ], [ 0.93361, 44.84027 ], [ 0.9336, 44.84025 ], [ 0.93359, 44.84024 ], [ 0.93358, 44.84023 ], [ 0.93355, 44.84022 ], [ 0.93354, 44.84022 ], [ 0.9335, 44.84021 ], [ 0.9335, 44.8402 ], [ 0.93348, 44.8402 ], [ 0.93346, 44.8402 ], [ 0.93345, 44.8402 ], [ 0.93339, 44.8402 ], [ 0.93329, 44.84021 ], [ 0.93322, 44.84022 ], [ 0.93307, 44.84025 ], [ 0.93301, 44.84026 ], [ 0.93292, 44.84026 ], [ 0.93266, 44.8403 ], [ 0.93265, 44.8403 ], [ 0.93264, 44.8403 ], [ 0.93263, 44.8403 ], [ 0.93286, 44.84023 ], [ 0.93289, 44.84022 ], [ 0.93311, 44.84015 ], [ 0.93312, 44.84014 ], [ 0.93314, 44.84014 ], [ 0.93314, 44.84013 ], [ 0.93314, 44.84012 ], [ 0.93337, 44.84005 ], [ 0.93363, 44.83998 ], [ 0.93372, 44.83994 ], [ 0.93411, 44.8398 ], [ 0.93412, 44.8398 ], [ 0.93437, 44.83971 ], [ 0.93445, 44.83969 ], [ 0.93469, 44.8396 ], [ 0.9347, 44.8396 ], [ 0.93473, 44.83958 ], [ 0.93474, 44.83959 ], [ 0.93476, 44.83959 ], [ 0.93478, 44.83959 ], [ 0.9349, 44.83955 ], [ 0.93491, 44.83955 ], [ 0.93502, 44.83952 ], [ 0.93504, 44.83952 ], [ 0.93519, 44.83946 ], [ 0.9352, 44.83946 ], [ 0.93528, 44.83945 ], [ 0.93529, 44.83944 ], [ 0.93532, 44.83944 ], [ 0.93534, 44.83944 ], [ 0.93535, 44.83943 ], [ 0.93539, 44.83943 ], [ 0.9354, 44.83943 ], [ 0.93552, 44.83942 ], [ 0.93553, 44.83942 ], [ 0.93561, 44.83942 ], [ 0.93567, 44.83942 ], [ 0.93568, 44.83942 ], [ 0.9357, 44.83942 ], [ 0.93571, 44.83942 ], [ 0.93572, 44.83942 ], [ 0.93582, 44.83942 ], [ 0.93583, 44.83942 ], [ 0.93592, 44.83942 ], [ 0.93594, 44.83942 ], [ 0.936, 44.83943 ], [ 0.93606, 44.83943 ], [ 0.93607, 44.83943 ], [ 0.93611, 44.83944 ], [ 0.93611, 44.83943 ], [ 0.93614, 44.83941 ], [ 0.9361, 44.83933 ], [ 0.9356, 44.83933 ], [ 0.93524, 44.83935 ], [ 0.93481, 44.83944 ], [ 0.93436, 44.83962 ], [ 0.93408, 44.8397 ], [ 0.93406, 44.83971 ], [ 0.93387, 44.83979 ], [ 0.93367, 44.83995 ], [ 0.93358, 44.83997 ], [ 0.93323, 44.84005 ], [ 0.93295, 44.84012 ], [ 0.93253, 44.84027 ], [ 0.93206, 44.84063 ], [ 0.93142, 44.8411 ], [ 0.93101, 44.8414 ], [ 0.93056, 44.84166 ], [ 0.93034, 44.84181 ], [ 0.9301, 44.84204 ], [ 0.9296, 44.84256 ], [ 0.92908, 44.84306 ], [ 0.92874, 44.8434 ], [ 0.92856, 44.84363 ], [ 0.92861, 44.8437 ], [ 0.92845, 44.84385 ], [ 0.92822, 44.8441 ], [ 0.92791, 44.84439 ], [ 0.92764, 44.84468 ], [ 0.92736, 44.84495 ], [ 0.92708, 44.84524 ], [ 0.92674, 44.84551 ], [ 0.92648, 44.84577 ], [ 0.9263, 44.84599 ], [ 0.92624, 44.84605 ], [ 0.92607, 44.84627 ], [ 0.92591, 44.84646 ], [ 0.92572, 44.84677 ], [ 0.92551, 44.84705 ], [ 0.92529, 44.84731 ], [ 0.92527, 44.84734 ], [ 0.92503, 44.84756 ], [ 0.92483, 44.84778 ], [ 0.92457, 44.84806 ], [ 0.92437, 44.8483 ], [ 0.92434, 44.84835 ], [ 0.92402, 44.84873 ], [ 0.92363, 44.84907 ], [ 0.92319, 44.84945 ], [ 0.9228, 44.8498 ], [ 0.92241, 44.85015 ], [ 0.92204, 44.85059 ], [ 0.92174, 44.85083 ], [ 0.92139, 44.85109 ], [ 0.92113, 44.85128 ], [ 0.9209, 44.85143 ], [ 0.92076, 44.85158 ], [ 0.9205, 44.85175 ], [ 0.92027, 44.852 ], [ 0.92005, 44.85221 ], [ 0.91977, 44.85247 ], [ 0.91955, 44.85273 ], [ 0.91923, 44.8531 ], [ 0.91884, 44.85353 ], [ 0.91869, 44.85371 ], [ 0.91838, 44.85402 ], [ 0.91803, 44.85435 ], [ 0.9178, 44.85461 ], [ 0.91772, 44.85466 ], [ 0.91749, 44.85479 ], [ 0.91709, 44.85499 ], [ 0.9168, 44.85515 ], [ 0.91647, 44.8553 ], [ 0.91611, 44.8554 ], [ 0.91587, 44.85546 ], [ 0.91559, 44.8556 ], [ 0.91532, 44.85564 ], [ 0.9149, 44.85567 ], [ 0.91452, 44.85567 ], [ 0.91418, 44.85561 ], [ 0.91377, 44.85554 ], [ 0.91326, 44.85548 ], [ 0.91269, 44.8554 ], [ 0.91225, 44.85533 ], [ 0.9115, 44.85524 ], [ 0.91069, 44.85515 ], [ 0.90963, 44.85505 ], [ 0.909, 44.85501 ], [ 0.90866, 44.85503 ], [ 0.90797, 44.85497 ], [ 0.90771, 44.85494 ], [ 0.90753, 44.85497 ], [ 0.90705, 44.85488 ], [ 0.90702, 44.85486 ], [ 0.90703, 44.85481 ], [ 0.90692, 44.85481 ], [ 0.90674, 44.85477 ], [ 0.90661, 44.85474 ], [ 0.90639, 44.85468 ], [ 0.90619, 44.85467 ], [ 0.90589, 44.85459 ], [ 0.90552, 44.85454 ], [ 0.90521, 44.85445 ], [ 0.90497, 44.85441 ], [ 0.90465, 44.85427 ], [ 0.90393, 44.85404 ], [ 0.90325, 44.85384 ], [ 0.90252, 44.85358 ], [ 0.90176, 44.85332 ], [ 0.90108, 44.85311 ], [ 0.9004, 44.85293 ], [ 0.9, 44.85278 ], [ 0.89985, 44.85273 ], [ 0.89964, 44.85265 ], [ 0.89954, 44.85262 ], [ 0.89942, 44.8526 ], [ 0.89917, 44.85257 ], [ 0.8989, 44.8526 ], [ 0.89874, 44.85264 ], [ 0.8986, 44.85266 ], [ 0.89816, 44.8527 ], [ 0.89778, 44.85274 ], [ 0.89756, 44.85277 ], [ 0.89709, 44.85289 ], [ 0.89654, 44.853 ], [ 0.89573, 44.85315 ], [ 0.89522, 44.85323 ], [ 0.89439, 44.85338 ], [ 0.89385, 44.8535 ], [ 0.89326, 44.8536 ], [ 0.89279, 44.85372 ], [ 0.89211, 44.854 ], [ 0.89181, 44.85423 ], [ 0.89151, 44.85453 ], [ 0.89129, 44.85477 ], [ 0.89097, 44.85513 ], [ 0.89063, 44.85552 ], [ 0.8904, 44.85584 ], [ 0.89011, 44.85621 ], [ 0.88989, 44.85657 ], [ 0.88965, 44.85697 ], [ 0.88929, 44.85748 ], [ 0.88907, 44.85787 ], [ 0.88876, 44.85841 ], [ 0.88855, 44.85897 ], [ 0.88838, 44.85934 ], [ 0.88818, 44.85988 ], [ 0.88798, 44.86041 ], [ 0.8878, 44.86098 ], [ 0.88762, 44.86153 ], [ 0.88725, 44.86262 ], [ 0.88707, 44.86306 ], [ 0.88696, 44.86346 ], [ 0.8868, 44.86395 ], [ 0.88665, 44.86444 ], [ 0.88665, 44.86488 ], [ 0.88668, 44.86539 ], [ 0.88673, 44.86561 ], [ 0.88682, 44.86589 ], [ 0.887, 44.86631 ], [ 0.88718, 44.8666 ], [ 0.88733, 44.8668 ], [ 0.88745, 44.86698 ], [ 0.88735, 44.867 ], [ 0.88696, 44.86712 ], [ 0.88648, 44.86725 ], [ 0.88595, 44.86739 ], [ 0.88538, 44.86752 ], [ 0.88508, 44.86757 ], [ 0.88483, 44.8676 ], [ 0.88479, 44.86773 ], [ 0.88522, 44.86771 ], [ 0.88545, 44.86773 ], [ 0.88601, 44.86779 ], [ 0.88649, 44.86784 ], [ 0.88704, 44.86791 ], [ 0.88761, 44.86789 ], [ 0.88779, 44.86794 ], [ 0.88798, 44.8682 ], [ 0.88806, 44.8684 ], [ 0.88825, 44.86853 ], [ 0.88854, 44.86885 ], [ 0.88886, 44.86931 ], [ 0.88916, 44.86991 ], [ 0.88927, 44.87022 ], [ 0.88955, 44.87056 ], [ 0.88956, 44.87056 ], [ 0.88966, 44.87058 ], [ 0.88979, 44.87082 ], [ 0.88964, 44.87084 ], [ 0.88939, 44.87085 ], [ 0.88943, 44.87113 ], [ 0.88953, 44.87171 ], [ 0.88962, 44.87233 ], [ 0.88944, 44.87264 ], [ 0.88941, 44.87292 ], [ 0.88948, 44.87311 ], [ 0.88957, 44.87352 ], [ 0.88962, 44.87383 ], [ 0.88965, 44.87402 ], [ 0.8896, 44.87435 ], [ 0.88959, 44.87464 ], [ 0.88971, 44.87475 ], [ 0.88983, 44.87494 ], [ 0.88991, 44.87532 ], [ 0.89004, 44.87609 ], [ 0.89, 44.87687 ], [ 0.88996, 44.87704 ], [ 0.88989, 44.87728 ], [ 0.88956, 44.87832 ], [ 0.88961, 44.87848 ], [ 0.88983, 44.87855 ], [ 0.88996, 44.8786 ], [ 0.88994, 44.87893 ], [ 0.88978, 44.87932 ], [ 0.88951, 44.87925 ], [ 0.88941, 44.87922 ], [ 0.88909, 44.87915 ], [ 0.88895, 44.87947 ], [ 0.88928, 44.87958 ], [ 0.88954, 44.87967 ], [ 0.88955, 44.87978 ], [ 0.88945, 44.88014 ], [ 0.88916, 44.88056 ], [ 0.88906, 44.88078 ], [ 0.88912, 44.8808 ], [ 0.88902, 44.88087 ], [ 0.88871, 44.88078 ], [ 0.8883, 44.88065 ], [ 0.88799, 44.88056 ], [ 0.88777, 44.88048 ], [ 0.88765, 44.88043 ], [ 0.88724, 44.88024 ], [ 0.88688, 44.88012 ], [ 0.88687, 44.88023 ], [ 0.88717, 44.88046 ], [ 0.8873, 44.88056 ], [ 0.88746, 44.88069 ], [ 0.88752, 44.88086 ], [ 0.88757, 44.88107 ], [ 0.8876, 44.88137 ], [ 0.88743, 44.88145 ], [ 0.88715, 44.88151 ], [ 0.88663, 44.88157 ], [ 0.88607, 44.88166 ], [ 0.88559, 44.88165 ], [ 0.88519, 44.88161 ], [ 0.88451, 44.88159 ], [ 0.88361, 44.88154 ], [ 0.88311, 44.88156 ], [ 0.88262, 44.88158 ], [ 0.88182, 44.88164 ], [ 0.88093, 44.88172 ], [ 0.8798, 44.88183 ], [ 0.87906, 44.88187 ], [ 0.87832, 44.88199 ], [ 0.87766, 44.882 ], [ 0.87731, 44.88198 ], [ 0.87689, 44.88193 ], [ 0.87637, 44.8819 ], [ 0.87596, 44.88184 ], [ 0.87552, 44.8817 ], [ 0.87491, 44.88158 ], [ 0.87446, 44.88161 ], [ 0.87451, 44.88167 ], [ 0.87434, 44.88166 ], [ 0.87401, 44.88164 ], [ 0.87348, 44.88158 ], [ 0.87298, 44.88154 ], [ 0.8725, 44.88149 ], [ 0.87207, 44.88141 ], [ 0.87159, 44.88132 ], [ 0.87114, 44.88124 ], [ 0.87074, 44.88112 ], [ 0.87018, 44.88099 ], [ 0.86963, 44.88087 ], [ 0.8692, 44.88076 ], [ 0.86888, 44.88065 ], [ 0.86841, 44.88049 ], [ 0.86816, 44.88039 ], [ 0.86774, 44.8801 ], [ 0.86729, 44.87978 ], [ 0.86701, 44.87959 ], [ 0.86659, 44.87915 ], [ 0.86643, 44.87902 ], [ 0.86608, 44.8786 ], [ 0.86578, 44.87814 ], [ 0.8655, 44.8778 ], [ 0.86529, 44.8774 ], [ 0.86504, 44.8769 ], [ 0.86482, 44.87648 ], [ 0.86433, 44.87525 ], [ 0.8642, 44.87471 ], [ 0.86415, 44.87452 ], [ 0.86411, 44.87416 ], [ 0.86434, 44.87282 ], [ 0.86445, 44.87249 ], [ 0.86462, 44.8721 ], [ 0.86475, 44.87161 ], [ 0.86497, 44.87094 ], [ 0.86494, 44.87033 ], [ 0.86503, 44.86973 ], [ 0.86505, 44.86902 ], [ 0.86511, 44.86867 ], [ 0.86517, 44.8683 ], [ 0.86555, 44.86681 ], [ 0.86594, 44.86471 ], [ 0.86593, 44.86422 ], [ 0.86595, 44.86386 ], [ 0.86596, 44.86455 ], [ 0.86631, 44.8646 ], [ 0.86632, 44.86446 ], [ 0.86628, 44.86398 ], [ 0.86626, 44.86344 ], [ 0.86621, 44.8631 ], [ 0.86617, 44.8629 ], [ 0.86614, 44.86252 ], [ 0.86608, 44.86223 ], [ 0.86598, 44.86182 ], [ 0.8659, 44.86146 ], [ 0.86578, 44.86099 ], [ 0.86576, 44.86076 ], [ 0.86574, 44.86058 ], [ 0.86565, 44.86033 ], [ 0.86552, 44.86 ], [ 0.86546, 44.85986 ], [ 0.86532, 44.85949 ], [ 0.8652, 44.85926 ], [ 0.86506, 44.85903 ], [ 0.86495, 44.85885 ], [ 0.86479, 44.8586 ], [ 0.86459, 44.8583 ], [ 0.86439, 44.85806 ], [ 0.86421, 44.85787 ], [ 0.86407, 44.85775 ], [ 0.86393, 44.85763 ], [ 0.86392, 44.85751 ], [ 0.86382, 44.85731 ], [ 0.8636, 44.85699 ], [ 0.86335, 44.85671 ], [ 0.8633, 44.85651 ], [ 0.86313, 44.85631 ], [ 0.86297, 44.85607 ], [ 0.86274, 44.85579 ], [ 0.86233, 44.85549 ], [ 0.86212, 44.85524 ], [ 0.86193, 44.85496 ], [ 0.86149, 44.85468 ], [ 0.86129, 44.85444 ], [ 0.86104, 44.85412 ], [ 0.86063, 44.85385 ], [ 0.85965, 44.85331 ], [ 0.85865, 44.85256 ], [ 0.85816, 44.85214 ], [ 0.85871, 44.85212 ], [ 0.85911, 44.85162 ], [ 0.8591, 44.85116 ], [ 0.85887, 44.85094 ], [ 0.85834, 44.85082 ], [ 0.85773, 44.8511 ], [ 0.85718, 44.8513 ], [ 0.8568, 44.85162 ], [ 0.85671, 44.85169 ], [ 0.85661, 44.85189 ], [ 0.8566, 44.85203 ], [ 0.85652, 44.85199 ], [ 0.8555, 44.85153 ], [ 0.85436, 44.85115 ], [ 0.85331, 44.85083 ], [ 0.85218, 44.85054 ], [ 0.85105, 44.85033 ], [ 0.84955, 44.85001 ], [ 0.84844, 44.84985 ], [ 0.8469, 44.84978 ], [ 0.8457, 44.84968 ], [ 0.84385, 44.84973 ], [ 0.84302, 44.84981 ], [ 0.84236, 44.84987 ], [ 0.8409, 44.85004 ], [ 0.84007, 44.85018 ], [ 0.84006, 44.85018 ], [ 0.83968, 44.85025 ], [ 0.83954, 44.85028 ], [ 0.83916, 44.85037 ], [ 0.83914, 44.85037 ], [ 0.83848, 44.8505 ], [ 0.83708, 44.8508 ], [ 0.83611, 44.85095 ], [ 0.83468, 44.85122 ], [ 0.83335, 44.85149 ], [ 0.83224, 44.85186 ], [ 0.83124, 44.8523 ], [ 0.8301, 44.85278 ], [ 0.82905, 44.85322 ], [ 0.82806, 44.85378 ], [ 0.82725, 44.85425 ], [ 0.82618, 44.85502 ], [ 0.82514, 44.85575 ], [ 0.82412, 44.85673 ], [ 0.82388, 44.85699 ], [ 0.82346, 44.85749 ], [ 0.82301, 44.85808 ], [ 0.82266, 44.85868 ], [ 0.82229, 44.85947 ], [ 0.82194, 44.86026 ], [ 0.82172, 44.86085 ], [ 0.82161, 44.86138 ], [ 0.82148, 44.86205 ], [ 0.82139, 44.86281 ], [ 0.82132, 44.86332 ], [ 0.82131, 44.86353 ], [ 0.82133, 44.86365 ], [ 0.82137, 44.86374 ], [ 0.82146, 44.86389 ], [ 0.82141, 44.8641 ], [ 0.82134, 44.86435 ], [ 0.82131, 44.86455 ], [ 0.8213, 44.8648 ], [ 0.82125, 44.86511 ], [ 0.82125, 44.86544 ], [ 0.82122, 44.86574 ], [ 0.82123, 44.86604 ], [ 0.82128, 44.86634 ], [ 0.82129, 44.86664 ], [ 0.82128, 44.86693 ], [ 0.82123, 44.86722 ], [ 0.82116, 44.86757 ], [ 0.82109, 44.86788 ], [ 0.82104, 44.86817 ], [ 0.82101, 44.86841 ], [ 0.82104, 44.86866 ], [ 0.82105, 44.86897 ], [ 0.821, 44.86923 ], [ 0.82102, 44.86954 ], [ 0.82102, 44.86983 ], [ 0.82099, 44.8701 ], [ 0.82098, 44.8704 ], [ 0.82098, 44.87068 ], [ 0.82096, 44.87089 ], [ 0.82093, 44.87106 ], [ 0.82094, 44.87128 ], [ 0.82092, 44.87147 ], [ 0.82092, 44.87171 ], [ 0.82096, 44.87192 ], [ 0.82098, 44.8721 ], [ 0.82098, 44.87228 ], [ 0.82099, 44.87247 ], [ 0.82098, 44.87271 ], [ 0.82099, 44.87297 ], [ 0.82101, 44.87331 ], [ 0.82101, 44.87362 ], [ 0.821, 44.87392 ], [ 0.82102, 44.87413 ], [ 0.82105, 44.8744 ], [ 0.82106, 44.87449 ], [ 0.82108, 44.87478 ], [ 0.82113, 44.87499 ], [ 0.82114, 44.87521 ], [ 0.82115, 44.87548 ], [ 0.82118, 44.87573 ], [ 0.8212, 44.87598 ], [ 0.82123, 44.87615 ], [ 0.82126, 44.87639 ], [ 0.8213, 44.87689 ], [ 0.82134, 44.87834 ], [ 0.82137, 44.87921 ], [ 0.82136, 44.87958 ], [ 0.82133, 44.87995 ], [ 0.82129, 44.88023 ], [ 0.82129, 44.8803 ], [ 0.82124, 44.88047 ], [ 0.82119, 44.88067 ], [ 0.82117, 44.88095 ], [ 0.82109, 44.88127 ], [ 0.82101, 44.88161 ], [ 0.82089, 44.88194 ], [ 0.82079, 44.88212 ], [ 0.82072, 44.88218 ], [ 0.82062, 44.88238 ], [ 0.82049, 44.8826 ], [ 0.82025, 44.88291 ], [ 0.81992, 44.88316 ], [ 0.81975, 44.88319 ], [ 0.81966, 44.88325 ], [ 0.81947, 44.88337 ], [ 0.81922, 44.88351 ], [ 0.8192, 44.88361 ], [ 0.81908, 44.88375 ], [ 0.81886, 44.88389 ], [ 0.81874, 44.88397 ], [ 0.81858, 44.88398 ], [ 0.8185, 44.88396 ], [ 0.81822, 44.88404 ], [ 0.818, 44.88415 ], [ 0.81781, 44.88416 ], [ 0.8176, 44.88424 ], [ 0.81742, 44.88434 ], [ 0.81726, 44.8844 ], [ 0.817, 44.88443 ], [ 0.8167, 44.88447 ], [ 0.81651, 44.88457 ], [ 0.81623, 44.88465 ], [ 0.8159, 44.88467 ], [ 0.81563, 44.88473 ], [ 0.81542, 44.88479 ], [ 0.81525, 44.8848 ], [ 0.81503, 44.8848 ], [ 0.8148, 44.8848 ], [ 0.81458, 44.88483 ], [ 0.81421, 44.88484 ], [ 0.81367, 44.8848 ], [ 0.81319, 44.8848 ], [ 0.81159, 44.8847 ], [ 0.81054, 44.88464 ], [ 0.80972, 44.88456 ], [ 0.80889, 44.88442 ], [ 0.80846, 44.8843 ], [ 0.80837, 44.8842 ], [ 0.80846, 44.88418 ], [ 0.8087, 44.88418 ], [ 0.80886, 44.88406 ], [ 0.80887, 44.88405 ], [ 0.80886, 44.88389 ], [ 0.80863, 44.88377 ], [ 0.80834, 44.88366 ], [ 0.80811, 44.88364 ], [ 0.8079, 44.88375 ], [ 0.80775, 44.8839 ], [ 0.80772, 44.88391 ], [ 0.80771, 44.88404 ], [ 0.80745, 44.88404 ], [ 0.80719, 44.884 ], [ 0.80696, 44.88396 ], [ 0.80635, 44.88385 ], [ 0.80541, 44.88346 ], [ 0.80509, 44.88336 ], [ 0.80439, 44.88302 ], [ 0.80406, 44.88283 ], [ 0.80383, 44.88265 ], [ 0.80365, 44.88254 ], [ 0.80323, 44.88226 ], [ 0.80282, 44.8819 ], [ 0.80236, 44.88147 ], [ 0.80189, 44.881 ], [ 0.80152, 44.88043 ], [ 0.80128, 44.87999 ], [ 0.80093, 44.87929 ], [ 0.80065, 44.87864 ], [ 0.80042, 44.87797 ], [ 0.80022, 44.87726 ], [ 0.80009, 44.87667 ], [ 0.80002, 44.87608 ], [ 0.8, 44.8757 ], [ 0.79998, 44.87554 ], [ 0.80006, 44.87556 ], [ 0.80017, 44.87554 ], [ 0.80026, 44.87554 ], [ 0.80026, 44.87544 ], [ 0.80044, 44.87559 ], [ 0.80044, 44.8753 ], [ 0.80029, 44.87517 ], [ 0.80026, 44.87517 ], [ 0.80014, 44.87512 ], [ 0.80004, 44.87517 ], [ 0.79999, 44.87527 ], [ 0.79995, 44.87537 ], [ 0.79988, 44.87492 ], [ 0.79987, 44.87455 ], [ 0.79983, 44.8743 ], [ 0.79978, 44.87382 ], [ 0.79971, 44.87337 ], [ 0.79968, 44.87302 ], [ 0.79966, 44.87265 ], [ 0.7997, 44.87213 ], [ 0.79974, 44.8718 ], [ 0.79982, 44.87134 ], [ 0.7999, 44.87081 ], [ 0.80014, 44.86972 ], [ 0.8004, 44.8689 ], [ 0.80054, 44.86839 ], [ 0.8007, 44.86792 ], [ 0.80086, 44.86741 ], [ 0.80102, 44.86705 ], [ 0.80108, 44.86674 ], [ 0.80116, 44.86633 ], [ 0.80136, 44.86585 ], [ 0.80156, 44.86545 ], [ 0.80171, 44.86501 ], [ 0.80184, 44.86463 ], [ 0.80205, 44.86432 ], [ 0.80216, 44.86423 ], [ 0.8021, 44.86465 ], [ 0.80214, 44.86476 ], [ 0.80367, 44.86508 ], [ 0.80434, 44.86523 ], [ 0.80537, 44.86525 ], [ 0.80545, 44.86513 ], [ 0.804, 44.86497 ], [ 0.80402, 44.86484 ], [ 0.80412, 44.8643 ], [ 0.80429, 44.86433 ], [ 0.80562, 44.86445 ], [ 0.8059, 44.86447 ], [ 0.80601, 44.86431 ], [ 0.80611, 44.86396 ], [ 0.80448, 44.86381 ], [ 0.80456, 44.86321 ], [ 0.80475, 44.86295 ], [ 0.80438, 44.86289 ], [ 0.80421, 44.86297 ], [ 0.80417, 44.86287 ], [ 0.80428, 44.86268 ], [ 0.8043, 44.86263 ], [ 0.80425, 44.86262 ], [ 0.80429, 44.86252 ], [ 0.80435, 44.86253 ], [ 0.80448, 44.86232 ], [ 0.80482, 44.86244 ], [ 0.8049, 44.86281 ], [ 0.80506, 44.86286 ], [ 0.80512, 44.86265 ], [ 0.80553, 44.86241 ], [ 0.80584, 44.86195 ], [ 0.80623, 44.86041 ], [ 0.80631, 44.85967 ], [ 0.80629, 44.85919 ], [ 0.80616, 44.85891 ], [ 0.80605, 44.85873 ], [ 0.80605, 44.85849 ], [ 0.80615, 44.85807 ], [ 0.80643, 44.85777 ], [ 0.80659, 44.85739 ], [ 0.8068, 44.85697 ], [ 0.80687, 44.85667 ], [ 0.80689, 44.85614 ], [ 0.80696, 44.85585 ], [ 0.80705, 44.85551 ], [ 0.80719, 44.85524 ], [ 0.80744, 44.8551 ], [ 0.80751, 44.85505 ], [ 0.80713, 44.85486 ], [ 0.80688, 44.85475 ], [ 0.80644, 44.85485 ], [ 0.8063, 44.85495 ], [ 0.80638, 44.85479 ], [ 0.80646, 44.85466 ], [ 0.8065, 44.85447 ], [ 0.80645, 44.85404 ], [ 0.80645, 44.85386 ], [ 0.80637, 44.85345 ], [ 0.80631, 44.85335 ], [ 0.80624, 44.85321 ], [ 0.80613, 44.85308 ], [ 0.806, 44.85297 ], [ 0.80583, 44.85286 ], [ 0.80567, 44.85275 ], [ 0.80547, 44.85261 ], [ 0.80532, 44.8525 ], [ 0.80522, 44.85242 ], [ 0.80511, 44.85233 ], [ 0.80495, 44.85222 ], [ 0.80486, 44.85212 ], [ 0.80415, 44.85144 ], [ 0.80373, 44.85113 ], [ 0.80352, 44.85093 ], [ 0.80338, 44.85079 ], [ 0.80326, 44.85067 ], [ 0.80224, 44.85011 ], [ 0.80121, 44.84954 ], [ 0.80007, 44.84888 ], [ 0.79783, 44.84768 ], [ 0.79669, 44.84707 ], [ 0.79596, 44.84673 ], [ 0.79475, 44.84607 ], [ 0.79383, 44.84551 ], [ 0.79284, 44.84499 ], [ 0.79228, 44.84467 ], [ 0.79186, 44.8445 ], [ 0.79138, 44.84431 ], [ 0.79106, 44.84421 ], [ 0.79103, 44.84422 ], [ 0.79068, 44.84408 ], [ 0.79017, 44.84386 ], [ 0.7897, 44.84367 ], [ 0.78955, 44.8436 ], [ 0.78934, 44.84351 ], [ 0.78875, 44.84328 ], [ 0.78803, 44.84299 ], [ 0.78725, 44.84271 ], [ 0.78666, 44.8425 ], [ 0.78601, 44.84231 ], [ 0.78518, 44.8421 ], [ 0.7844, 44.84194 ], [ 0.78368, 44.84175 ], [ 0.78304, 44.84158 ], [ 0.78248, 44.84143 ], [ 0.78212, 44.8413 ], [ 0.78178, 44.84113 ], [ 0.78143, 44.84099 ], [ 0.78076, 44.84077 ], [ 0.78052, 44.84068 ], [ 0.78014, 44.84056 ], [ 0.77968, 44.84046 ], [ 0.77936, 44.84038 ], [ 0.77891, 44.84029 ], [ 0.77848, 44.84021 ], [ 0.77793, 44.84008 ], [ 0.77774, 44.84003 ], [ 0.77739, 44.83995 ], [ 0.77724, 44.83991 ], [ 0.77675, 44.83977 ], [ 0.77625, 44.83961 ], [ 0.77576, 44.83945 ], [ 0.77525, 44.83928 ], [ 0.77474, 44.83916 ], [ 0.77438, 44.83906 ], [ 0.77392, 44.83889 ], [ 0.77374, 44.83883 ], [ 0.77347, 44.83871 ], [ 0.77303, 44.83855 ], [ 0.77293, 44.83852 ], [ 0.77253, 44.83837 ], [ 0.77193, 44.83821 ], [ 0.77126, 44.83806 ], [ 0.77062, 44.83791 ], [ 0.77008, 44.8378 ], [ 0.76959, 44.83769 ], [ 0.76916, 44.8376 ], [ 0.76872, 44.83753 ], [ 0.76827, 44.83748 ], [ 0.76776, 44.83743 ], [ 0.76774, 44.83743 ], [ 0.7677, 44.83743 ], [ 0.76684, 44.83736 ], [ 0.76667, 44.8373 ], [ 0.76664, 44.83729 ], [ 0.7662, 44.83726 ], [ 0.76577, 44.83723 ], [ 0.76525, 44.83721 ], [ 0.76498, 44.83719 ], [ 0.76444, 44.83719 ], [ 0.76384, 44.83716 ], [ 0.76379, 44.83716 ], [ 0.76327, 44.83711 ], [ 0.76289, 44.83711 ], [ 0.76235, 44.83711 ], [ 0.76191, 44.8371 ], [ 0.76164, 44.83709 ], [ 0.76136, 44.83708 ], [ 0.76098, 44.83706 ], [ 0.76053, 44.83705 ], [ 0.76014, 44.83702 ], [ 0.75963, 44.83695 ], [ 0.75908, 44.83686 ], [ 0.75855, 44.83677 ], [ 0.75822, 44.83671 ], [ 0.75752, 44.83661 ], [ 0.75703, 44.83657 ], [ 0.75646, 44.83656 ], [ 0.75599, 44.83659 ], [ 0.75556, 44.83661 ], [ 0.75514, 44.83663 ], [ 0.75489, 44.83661 ], [ 0.75461, 44.83657 ], [ 0.75425, 44.83652 ], [ 0.75386, 44.83647 ], [ 0.75338, 44.83639 ], [ 0.75296, 44.83625 ], [ 0.75209, 44.83604 ], [ 0.75105, 44.83584 ], [ 0.75056, 44.83572 ], [ 0.74977, 44.83558 ], [ 0.74917, 44.83551 ], [ 0.7489, 44.83544 ], [ 0.74858, 44.83531 ], [ 0.74803, 44.83514 ], [ 0.74716, 44.83495 ], [ 0.7463, 44.83484 ], [ 0.74571, 44.83473 ], [ 0.74536, 44.83462 ], [ 0.7449, 44.83453 ], [ 0.74432, 44.83443 ], [ 0.74356, 44.83432 ], [ 0.743, 44.83424 ], [ 0.74211, 44.83411 ], [ 0.74196, 44.83411 ], [ 0.7418, 44.83415 ], [ 0.74163, 44.8342 ], [ 0.74154, 44.83421 ], [ 0.74144, 44.8342 ], [ 0.7412, 44.83416 ], [ 0.74092, 44.83401 ], [ 0.74078, 44.834 ], [ 0.74043, 44.83385 ], [ 0.74032, 44.83379 ], [ 0.74034, 44.83371 ], [ 0.73941, 44.83365 ], [ 0.73918, 44.83364 ], [ 0.73716, 44.83347 ], [ 0.73566, 44.83335 ], [ 0.73347, 44.8331 ], [ 0.73254, 44.83299 ], [ 0.73202, 44.83292 ], [ 0.7312, 44.83284 ], [ 0.72939, 44.83263 ], [ 0.72895, 44.83256 ], [ 0.72848, 44.83248 ], [ 0.72842, 44.83253 ], [ 0.72835, 44.83259 ], [ 0.72722, 44.83271 ], [ 0.72627, 44.83261 ], [ 0.72554, 44.83246 ], [ 0.72513, 44.83241 ], [ 0.72468, 44.83238 ], [ 0.72352, 44.8322 ], [ 0.72254, 44.83203 ], [ 0.72165, 44.83181 ], [ 0.72082, 44.83161 ], [ 0.71979, 44.83153 ], [ 0.71894, 44.8315 ], [ 0.71806, 44.83145 ], [ 0.71718, 44.83143 ], [ 0.71589, 44.83149 ], [ 0.71466, 44.8316 ], [ 0.71318, 44.83167 ], [ 0.71225, 44.83164 ], [ 0.71107, 44.83161 ], [ 0.71049, 44.83161 ], [ 0.70995, 44.83155 ], [ 0.70946, 44.83153 ], [ 0.709, 44.83151 ], [ 0.70881, 44.83145 ], [ 0.70865, 44.8314 ], [ 0.70844, 44.83139 ], [ 0.70832, 44.83142 ], [ 0.70814, 44.83145 ], [ 0.70583, 44.83129 ], [ 0.7053, 44.83127 ], [ 0.70477, 44.83122 ], [ 0.70448, 44.83123 ], [ 0.70422, 44.83123 ], [ 0.7041, 44.83124 ], [ 0.70393, 44.83128 ], [ 0.70352, 44.8314 ], [ 0.70341, 44.83147 ], [ 0.70332, 44.83154 ], [ 0.70325, 44.83155 ], [ 0.70312, 44.83154 ], [ 0.70296, 44.8315 ], [ 0.70297, 44.83141 ], [ 0.70287, 44.8314 ], [ 0.70275, 44.83139 ], [ 0.70273, 44.8315 ], [ 0.70267, 44.83154 ], [ 0.70259, 44.83162 ], [ 0.70242, 44.83161 ], [ 0.70219, 44.83157 ], [ 0.70192, 44.83161 ], [ 0.70169, 44.83165 ], [ 0.70123, 44.8318 ], [ 0.70061, 44.83198 ], [ 0.69975, 44.83225 ], [ 0.69953, 44.8323 ], [ 0.69872, 44.83249 ], [ 0.69767, 44.83267 ], [ 0.69657, 44.83289 ], [ 0.69586, 44.83295 ], [ 0.69507, 44.83307 ], [ 0.69413, 44.83322 ], [ 0.69322, 44.83339 ], [ 0.69227, 44.83349 ], [ 0.6913, 44.83362 ], [ 0.69046, 44.83379 ], [ 0.68993, 44.83398 ], [ 0.68938, 44.83413 ], [ 0.6888, 44.83419 ], [ 0.68805, 44.8343 ], [ 0.68722, 44.83441 ], [ 0.6869, 44.83448 ], [ 0.68639, 44.83457 ], [ 0.68576, 44.83466 ], [ 0.68518, 44.83477 ], [ 0.68454, 44.83486 ], [ 0.68401, 44.83495 ], [ 0.6834, 44.83509 ], [ 0.68279, 44.83521 ], [ 0.68245, 44.83528 ], [ 0.68207, 44.83533 ], [ 0.68162, 44.8354 ], [ 0.68129, 44.83545 ], [ 0.68102, 44.83554 ], [ 0.68072, 44.83563 ], [ 0.68042, 44.83568 ], [ 0.68016, 44.83574 ], [ 0.67987, 44.83586 ], [ 0.67945, 44.83601 ], [ 0.67898, 44.83618 ], [ 0.67861, 44.8363 ], [ 0.67821, 44.83654 ], [ 0.6778, 44.8367 ], [ 0.67732, 44.83686 ], [ 0.67684, 44.83702 ], [ 0.67633, 44.83714 ], [ 0.67577, 44.83729 ], [ 0.67496, 44.83746 ], [ 0.67437, 44.83758 ], [ 0.67386, 44.83765 ], [ 0.67344, 44.8377 ], [ 0.67304, 44.83779 ], [ 0.67278, 44.83786 ], [ 0.67251, 44.83798 ], [ 0.67215, 44.83811 ], [ 0.6718, 44.83823 ], [ 0.67158, 44.8383 ], [ 0.67134, 44.83839 ], [ 0.67115, 44.83841 ], [ 0.67094, 44.83842 ], [ 0.67075, 44.83848 ], [ 0.67039, 44.83861 ], [ 0.66981, 44.83883 ], [ 0.66928, 44.83903 ], [ 0.66889, 44.83913 ], [ 0.66862, 44.83915 ], [ 0.66839, 44.83917 ], [ 0.66819, 44.83926 ], [ 0.66788, 44.83941 ], [ 0.66756, 44.83953 ], [ 0.66724, 44.83964 ], [ 0.66696, 44.83975 ], [ 0.66672, 44.83982 ], [ 0.66645, 44.83987 ], [ 0.66607, 44.83991 ], [ 0.66568, 44.83992 ], [ 0.66516, 44.83993 ], [ 0.66475, 44.83998 ], [ 0.66435, 44.83999 ], [ 0.66389, 44.83998 ], [ 0.6633, 44.83996 ], [ 0.66281, 44.83993 ], [ 0.66247, 44.83988 ], [ 0.66233, 44.83983 ], [ 0.66222, 44.83973 ], [ 0.66209, 44.83964 ], [ 0.6619, 44.83963 ], [ 0.66149, 44.83967 ], [ 0.66113, 44.8397 ], [ 0.66073, 44.83967 ], [ 0.66018, 44.83963 ], [ 0.65974, 44.83962 ], [ 0.65943, 44.83963 ], [ 0.6592, 44.83966 ], [ 0.65901, 44.83965 ], [ 0.65884, 44.83962 ], [ 0.65861, 44.83958 ], [ 0.65837, 44.83955 ], [ 0.65818, 44.83957 ], [ 0.65787, 44.83961 ], [ 0.65755, 44.83966 ], [ 0.65711, 44.8397 ], [ 0.65655, 44.83973 ], [ 0.65598, 44.83978 ], [ 0.65532, 44.83987 ], [ 0.6548, 44.83994 ], [ 0.65424, 44.84 ], [ 0.65366, 44.84007 ], [ 0.65309, 44.84012 ], [ 0.65272, 44.84014 ], [ 0.65249, 44.84019 ], [ 0.65233, 44.84027 ], [ 0.65221, 44.84033 ], [ 0.65182, 44.84042 ], [ 0.65128, 44.84049 ], [ 0.65082, 44.84055 ], [ 0.65048, 44.84063 ], [ 0.65033, 44.84073 ], [ 0.65017, 44.84079 ], [ 0.64969, 44.84088 ], [ 0.64917, 44.84095 ], [ 0.64881, 44.84107 ], [ 0.64842, 44.84116 ], [ 0.64795, 44.84119 ], [ 0.64753, 44.84119 ], [ 0.64682, 44.84118 ], [ 0.64599, 44.84118 ], [ 0.64529, 44.84117 ], [ 0.64458, 44.84117 ], [ 0.64388, 44.84121 ], [ 0.64346, 44.84121 ], [ 0.64329, 44.84121 ], [ 0.64261, 44.84127 ], [ 0.64195, 44.84132 ], [ 0.64148, 44.84138 ], [ 0.64093, 44.84146 ], [ 0.64043, 44.84153 ], [ 0.63989, 44.84162 ], [ 0.63952, 44.8417 ], [ 0.63923, 44.84178 ], [ 0.639, 44.84181 ], [ 0.63872, 44.84189 ], [ 0.6383, 44.842 ], [ 0.63766, 44.84218 ], [ 0.63718, 44.84231 ], [ 0.63663, 44.84247 ], [ 0.63649, 44.84252 ], [ 0.63645, 44.84257 ], [ 0.63627, 44.8426 ], [ 0.63611, 44.84264 ], [ 0.63599, 44.84269 ], [ 0.63573, 44.84281 ], [ 0.6353, 44.84295 ], [ 0.63494, 44.84306 ], [ 0.63452, 44.84324 ], [ 0.63429, 44.84332 ], [ 0.63397, 44.84339 ], [ 0.63366, 44.84355 ], [ 0.63325, 44.84378 ], [ 0.63323, 44.8438 ], [ 0.63275, 44.84395 ], [ 0.63284, 44.84401 ], [ 0.63239, 44.84426 ], [ 0.63221, 44.84434 ], [ 0.63215, 44.84431 ], [ 0.632, 44.84447 ], [ 0.63169, 44.84478 ], [ 0.63132, 44.84505 ], [ 0.63099, 44.84533 ], [ 0.63033, 44.84583 ], [ 0.62996, 44.84593 ], [ 0.6292, 44.84626 ], [ 0.62876, 44.84639 ], [ 0.62838, 44.84649 ], [ 0.62807, 44.8465 ], [ 0.62794, 44.84653 ], [ 0.62751, 44.84663 ], [ 0.62724, 44.8468 ], [ 0.6269, 44.84685 ], [ 0.62668, 44.8468 ], [ 0.62597, 44.84696 ], [ 0.62584, 44.84699 ], [ 0.62549, 44.84706 ], [ 0.62504, 44.84715 ], [ 0.62471, 44.84718 ], [ 0.62403, 44.84724 ], [ 0.62319, 44.84728 ], [ 0.62265, 44.8473 ], [ 0.62198, 44.84735 ], [ 0.62129, 44.8474 ], [ 0.62062, 44.84747 ], [ 0.61995, 44.84754 ], [ 0.61954, 44.84759 ], [ 0.61924, 44.84761 ], [ 0.61744, 44.84787 ], [ 0.61663, 44.84799 ], [ 0.61631, 44.84803 ], [ 0.61553, 44.84815 ], [ 0.61474, 44.84831 ], [ 0.61402, 44.84848 ], [ 0.61364, 44.84855 ] ], [ [ 0.82437, 44.87983 ], [ 0.82452, 44.88004 ], [ 0.82445, 44.87993 ], [ 0.82437, 44.87983 ] ] ] ] } },
{ "type": "Feature", "properties": { "NOM": "Coteaux calcaires de la vallée de la Dordogne", "MODIF_GEO": "2014-09-25", "VALID_GEST": "2016-05-13" }, "geometry": { "type": "MultiPolygon", "coordinates": [ [ [ [ 0.69545, 44.83939 ], [ 0.69543, 44.83915 ], [ 0.69448, 44.83923 ], [ 0.69429, 44.83904 ], [ 0.69395, 44.83904 ], [ 0.69348, 44.8391 ], [ 0.69343, 44.83919 ], [ 0.69127, 44.83939 ], [ 0.69079, 44.83937 ], [ 0.69022, 44.83943 ], [ 0.68934, 44.83959 ], [ 0.68799, 44.8397 ], [ 0.68777, 44.83935 ], [ 0.68636, 44.8395 ], [ 0.68484, 44.83971 ], [ 0.68276, 44.83998 ], [ 0.6825, 44.84003 ], [ 0.68202, 44.8401 ], [ 0.68176, 44.8401 ], [ 0.68069, 44.84019 ], [ 0.68017, 44.84021 ], [ 0.68003, 44.84024 ], [ 0.67899, 44.84028 ], [ 0.67596, 44.84036 ], [ 0.67461, 44.84051 ], [ 0.67424, 44.84058 ], [ 0.67348, 44.84067 ], [ 0.67332, 44.8407 ], [ 0.67297, 44.84074 ], [ 0.67245, 44.8408 ], [ 0.67221, 44.84082 ], [ 0.67154, 44.84091 ], [ 0.67116, 44.84094 ], [ 0.67066, 44.84101 ], [ 0.66853, 44.84126 ], [ 0.66839, 44.8414 ], [ 0.66835, 44.84187 ], [ 0.66842, 44.84199 ], [ 0.66864, 44.84219 ], [ 0.66874, 44.84234 ], [ 0.66885, 44.84238 ], [ 0.6688, 44.84246 ], [ 0.66847, 44.8425 ], [ 0.66847, 44.84261 ], [ 0.66881, 44.84262 ], [ 0.66898, 44.84261 ], [ 0.66942, 44.84247 ], [ 0.67014, 44.84238 ], [ 0.67075, 44.84239 ], [ 0.67075, 44.84253 ], [ 0.67121, 44.84251 ], [ 0.67176, 44.84241 ], [ 0.67227, 44.84216 ], [ 0.67252, 44.84222 ], [ 0.67225, 44.8424 ], [ 0.67223, 44.84271 ], [ 0.67196, 44.84333 ], [ 0.67188, 44.84382 ], [ 0.67183, 44.84406 ], [ 0.67225, 44.84412 ], [ 0.67245, 44.84399 ], [ 0.6725, 44.84406 ], [ 0.67256, 44.84402 ], [ 0.67251, 44.84392 ], [ 0.67261, 44.84389 ], [ 0.6729, 44.84397 ], [ 0.67287, 44.8445 ], [ 0.67296, 44.84475 ], [ 0.67305, 44.84485 ], [ 0.67334, 44.84505 ], [ 0.67381, 44.84529 ], [ 0.67405, 44.84539 ], [ 0.67406, 44.84515 ], [ 0.67439, 44.84491 ], [ 0.6744, 44.84479 ], [ 0.67421, 44.84479 ], [ 0.6742, 44.84399 ], [ 0.67538, 44.84404 ], [ 0.67538, 44.84416 ], [ 0.6755, 44.84408 ], [ 0.67544, 44.84245 ], [ 0.67514, 44.84243 ], [ 0.67461, 44.84212 ], [ 0.67456, 44.84207 ], [ 0.67464, 44.84198 ], [ 0.67477, 44.84184 ], [ 0.67536, 44.84173 ], [ 0.67541, 44.84156 ], [ 0.67564, 44.84152 ], [ 0.67592, 44.84145 ], [ 0.67605, 44.84139 ], [ 0.67617, 44.84138 ], [ 0.67623, 44.84132 ], [ 0.67633, 44.84135 ], [ 0.67659, 44.84129 ], [ 0.67811, 44.84108 ], [ 0.67815, 44.84115 ], [ 0.67924, 44.84099 ], [ 0.67969, 44.84265 ], [ 0.67979, 44.84318 ], [ 0.68052, 44.84303 ], [ 0.68053, 44.84303 ], [ 0.68112, 44.84331 ], [ 0.68165, 44.84326 ], [ 0.68219, 44.84347 ], [ 0.68295, 44.84384 ], [ 0.68308, 44.84392 ], [ 0.68364, 44.84345 ], [ 0.68298, 44.84179 ], [ 0.6829, 44.84184 ], [ 0.6829, 44.84184 ], [ 0.68297, 44.84179 ], [ 0.68311, 44.84167 ], [ 0.68352, 44.84142 ], [ 0.68432, 44.84131 ], [ 0.68505, 44.84147 ], [ 0.68504, 44.84112 ], [ 0.68516, 44.84087 ], [ 0.68516, 44.84087 ], [ 0.68575, 44.84091 ], [ 0.68661, 44.84084 ], [ 0.68739, 44.84082 ], [ 0.68734, 44.84152 ], [ 0.68738, 44.84178 ], [ 0.68763, 44.84186 ], [ 0.68803, 44.84174 ], [ 0.68861, 44.84163 ], [ 0.68926, 44.84148 ], [ 0.6894, 44.84141 ], [ 0.68944, 44.84091 ], [ 0.68961, 44.84116 ], [ 0.68971, 44.84143 ], [ 0.68993, 44.84158 ], [ 0.69011, 44.8416 ], [ 0.69023, 44.84145 ], [ 0.69034, 44.84093 ], [ 0.69045, 44.8406 ], [ 0.6904, 44.8405 ], [ 0.69033, 44.84048 ], [ 0.69063, 44.84046 ], [ 0.69085, 44.84037 ], [ 0.69092, 44.84011 ], [ 0.69217, 44.84012 ], [ 0.69251, 44.83999 ], [ 0.69271, 44.83993 ], [ 0.69299, 44.83989 ], [ 0.69342, 44.83986 ], [ 0.69359, 44.83963 ], [ 0.69365, 44.83981 ], [ 0.69388, 44.83978 ], [ 0.69384, 44.83965 ], [ 0.69404, 44.83976 ], [ 0.69444, 44.83972 ], [ 0.69456, 44.83975 ], [ 0.69492, 44.83963 ], [ 0.6949, 44.83943 ], [ 0.69518, 44.83941 ], [ 0.6952, 44.83949 ], [ 0.69534, 44.83947 ], [ 0.69534, 44.83941 ], [ 0.69545, 44.83939 ] ] ], [ [ [ 0.72895, 44.83256 ], [ 0.72939, 44.83263 ], [ 0.7312, 44.83284 ], [ 0.73202, 44.83292 ], [ 0.73254, 44.83299 ], [ 0.73347, 44.8331 ], [ 0.73566, 44.83335 ], [ 0.73716, 44.83347 ], [ 0.73918, 44.83364 ], [ 0.73941, 44.83365 ], [ 0.74034, 44.83371 ], [ 0.74037, 44.83364 ], [ 0.74065, 44.83352 ], [ 0.74093, 44.83358 ], [ 0.74133, 44.83367 ], [ 0.74213, 44.8337 ], [ 0.74218, 44.83353 ], [ 0.7427, 44.83363 ], [ 0.74288, 44.83376 ], [ 0.74378, 44.83385 ], [ 0.74406, 44.8338 ], [ 0.74435, 44.83388 ], [ 0.74468, 44.83398 ], [ 0.74594, 44.83397 ], [ 0.74694, 44.83385 ], [ 0.7476, 44.83386 ], [ 0.74811, 44.83385 ], [ 0.74877, 44.83379 ], [ 0.74891, 44.83378 ], [ 0.74976, 44.83377 ], [ 0.75013, 44.83369 ], [ 0.75064, 44.83367 ], [ 0.7514, 44.83351 ], [ 0.75229, 44.83337 ], [ 0.7529, 44.83323 ], [ 0.75327, 44.83324 ], [ 0.75417, 44.83312 ], [ 0.75488, 44.83296 ], [ 0.75482, 44.83281 ], [ 0.75529, 44.83264 ], [ 0.75539, 44.83269 ], [ 0.75554, 44.83284 ], [ 0.75619, 44.83261 ], [ 0.75631, 44.83259 ], [ 0.75651, 44.83245 ], [ 0.7566, 44.83239 ], [ 0.75696, 44.83182 ], [ 0.75732, 44.83144 ], [ 0.75755, 44.83113 ], [ 0.75814, 44.83075 ], [ 0.75963, 44.83038 ], [ 0.76045, 44.83043 ], [ 0.7616, 44.83007 ], [ 0.76022, 44.83013 ], [ 0.75867, 44.83034 ], [ 0.75758, 44.83079 ], [ 0.75676, 44.83126 ], [ 0.75564, 44.83199 ], [ 0.75453, 44.8313 ], [ 0.75429, 44.83099 ], [ 0.75391, 44.83099 ], [ 0.75332, 44.83126 ], [ 0.75246, 44.83182 ], [ 0.75207, 44.83199 ], [ 0.75124, 44.83203 ], [ 0.75082, 44.8322 ], [ 0.75024, 44.83218 ], [ 0.74932, 44.83236 ], [ 0.74712, 44.8327 ], [ 0.74653, 44.83256 ], [ 0.74631, 44.83227 ], [ 0.74561, 44.83241 ], [ 0.74496, 44.83266 ], [ 0.74485, 44.83258 ], [ 0.74481, 44.83238 ], [ 0.74481, 44.83221 ], [ 0.74483, 44.83211 ], [ 0.74469, 44.83194 ], [ 0.74426, 44.83066 ], [ 0.74428, 44.82999 ], [ 0.74313, 44.83048 ], [ 0.74243, 44.83056 ], [ 0.74153, 44.83111 ], [ 0.74109, 44.83137 ], [ 0.74065, 44.8314 ], [ 0.7405, 44.83174 ], [ 0.74024, 44.83185 ], [ 0.73988, 44.83209 ], [ 0.73995, 44.83231 ], [ 0.73981, 44.83255 ], [ 0.73968, 44.83263 ], [ 0.73939, 44.83253 ], [ 0.73929, 44.83256 ], [ 0.73925, 44.83266 ], [ 0.73948, 44.83286 ], [ 0.73985, 44.83291 ], [ 0.74002, 44.833 ], [ 0.7399, 44.83301 ], [ 0.73952, 44.83298 ], [ 0.73941, 44.83291 ], [ 0.73913, 44.83288 ], [ 0.73895, 44.8328 ], [ 0.73861, 44.83275 ], [ 0.73863, 44.83293 ], [ 0.73839, 44.8329 ], [ 0.73715, 44.83279 ], [ 0.73703, 44.8327 ], [ 0.73678, 44.83262 ], [ 0.73639, 44.83265 ], [ 0.73598, 44.83254 ], [ 0.73591, 44.8325 ], [ 0.73613, 44.83236 ], [ 0.73614, 44.83218 ], [ 0.73596, 44.83212 ], [ 0.73508, 44.83207 ], [ 0.73526, 44.83154 ], [ 0.73348, 44.83146 ], [ 0.73313, 44.83147 ], [ 0.73296, 44.83158 ], [ 0.73279, 44.83185 ], [ 0.73275, 44.83193 ], [ 0.73252, 44.83225 ], [ 0.73246, 44.83204 ], [ 0.73256, 44.83194 ], [ 0.73256, 44.83178 ], [ 0.73255, 44.83153 ], [ 0.73265, 44.83145 ], [ 0.73288, 44.83132 ], [ 0.73286, 44.83111 ], [ 0.73278, 44.83104 ], [ 0.73252, 44.83105 ], [ 0.73235, 44.8311 ], [ 0.73218, 44.83134 ], [ 0.73184, 44.83167 ], [ 0.73169, 44.83163 ], [ 0.73146, 44.83163 ], [ 0.7311, 44.83165 ], [ 0.73083, 44.83164 ], [ 0.73072, 44.83157 ], [ 0.73034, 44.8315 ], [ 0.73023, 44.8315 ], [ 0.73007, 44.83137 ], [ 0.73009, 44.83118 ], [ 0.72982, 44.8308 ], [ 0.72975, 44.83048 ], [ 0.72953, 44.83033 ], [ 0.72908, 44.83043 ], [ 0.72911, 44.83071 ], [ 0.72885, 44.83076 ], [ 0.72881, 44.83064 ], [ 0.7288, 44.83034 ], [ 0.7284, 44.83051 ], [ 0.72823, 44.83098 ], [ 0.72821, 44.83132 ], [ 0.72822, 44.83221 ], [ 0.72838, 44.83234 ], [ 0.72895, 44.83256 ] ] ], [ [ [ 0.76552, 44.84767 ], [ 0.76542, 44.8476 ], [ 0.76517, 44.8474 ], [ 0.76476, 44.847 ], [ 0.76454, 44.84676 ], [ 0.76418, 44.84649 ], [ 0.76371, 44.84609 ], [ 0.76345, 44.84596 ], [ 0.76285, 44.84577 ], [ 0.76252, 44.84549 ], [ 0.76245, 44.84544 ], [ 0.76241, 44.84537 ], [ 0.76207, 44.8451 ], [ 0.76147, 44.84479 ], [ 0.76073, 44.84438 ], [ 0.76026, 44.84426 ], [ 0.75995, 44.84425 ], [ 0.75943, 44.84407 ], [ 0.75935, 44.84422 ], [ 0.75898, 44.84409 ], [ 0.75869, 44.84405 ], [ 0.75836, 44.84401 ], [ 0.75863, 44.84391 ], [ 0.75858, 44.84381 ], [ 0.75833, 44.84375 ], [ 0.75808, 44.8439 ], [ 0.75809, 44.8437 ], [ 0.75803, 44.84358 ], [ 0.75775, 44.84356 ], [ 0.7574, 44.84354 ], [ 0.7573, 44.84343 ], [ 0.75738, 44.84328 ], [ 0.75717, 44.84321 ], [ 0.75687, 44.84307 ], [ 0.75684, 44.84312 ], [ 0.75651, 44.84296 ], [ 0.75599, 44.84281 ], [ 0.75556, 44.84275 ], [ 0.75477, 44.84288 ], [ 0.75443, 44.8429 ], [ 0.75416, 44.84287 ], [ 0.75383, 44.84291 ], [ 0.75367, 44.84312 ], [ 0.75353, 44.84322 ], [ 0.75335, 44.8432 ], [ 0.7521, 44.84302 ], [ 0.75211, 44.84294 ], [ 0.7514, 44.84292 ], [ 0.75138, 44.84302 ], [ 0.75149, 44.8432 ], [ 0.75139, 44.84329 ], [ 0.75129, 44.84324 ], [ 0.75112, 44.84329 ], [ 0.75085, 44.84315 ], [ 0.75045, 44.84337 ], [ 0.75034, 44.84352 ], [ 0.75033, 44.84363 ], [ 0.75029, 44.84377 ], [ 0.75003, 44.84405 ], [ 0.74984, 44.84423 ], [ 0.74962, 44.84436 ], [ 0.74955, 44.84445 ], [ 0.74939, 44.84473 ], [ 0.74926, 44.84485 ], [ 0.74878, 44.84526 ], [ 0.74891, 44.84563 ], [ 0.74934, 44.84548 ], [ 0.74962, 44.84538 ], [ 0.75003, 44.84511 ], [ 0.75042, 44.84489 ], [ 0.75055, 44.84478 ], [ 0.75043, 44.84476 ], [ 0.75077, 44.84452 ], [ 0.75086, 44.84458 ], [ 0.75096, 44.84467 ], [ 0.75114, 44.84484 ], [ 0.75111, 44.84496 ], [ 0.75116, 44.84501 ], [ 0.75131, 44.84522 ], [ 0.75128, 44.8453 ], [ 0.7512, 44.84547 ], [ 0.75123, 44.84557 ], [ 0.75134, 44.84557 ], [ 0.75149, 44.84557 ], [ 0.75188, 44.8454 ], [ 0.75202, 44.8455 ], [ 0.75215, 44.84546 ], [ 0.75235, 44.84551 ], [ 0.75264, 44.84538 ], [ 0.75281, 44.84529 ], [ 0.75287, 44.84543 ], [ 0.75287, 44.84553 ], [ 0.75307, 44.84552 ], [ 0.7533, 44.84543 ], [ 0.75352, 44.84522 ], [ 0.75347, 44.84512 ], [ 0.75358, 44.84502 ], [ 0.75358, 44.84494 ], [ 0.75361, 44.84483 ], [ 0.75372, 44.84494 ], [ 0.75391, 44.84481 ], [ 0.75395, 44.84471 ], [ 0.75406, 44.8445 ], [ 0.75418, 44.84427 ], [ 0.75422, 44.8443 ], [ 0.75432, 44.84432 ], [ 0.75431, 44.84445 ], [ 0.75417, 44.84466 ], [ 0.75406, 44.8449 ], [ 0.75404, 44.845 ], [ 0.75424, 44.84526 ], [ 0.75466, 44.84548 ], [ 0.75455, 44.84518 ], [ 0.75451, 44.84497 ], [ 0.75458, 44.84484 ], [ 0.75456, 44.84464 ], [ 0.75456, 44.84452 ], [ 0.75471, 44.84433 ], [ 0.75482, 44.84413 ], [ 0.75508, 44.84407 ], [ 0.75529, 44.84407 ], [ 0.7554, 44.84394 ], [ 0.75568, 44.84398 ], [ 0.75614, 44.84415 ], [ 0.75645, 44.8441 ], [ 0.75761, 44.84446 ], [ 0.75785, 44.84476 ], [ 0.75845, 44.84512 ], [ 0.75853, 44.84523 ], [ 0.75855, 44.8457 ], [ 0.75852, 44.84592 ], [ 0.75836, 44.84613 ], [ 0.75827, 44.84638 ], [ 0.75849, 44.8465 ], [ 0.75892, 44.84652 ], [ 0.75899, 44.84673 ], [ 0.75913, 44.84672 ], [ 0.75916, 44.84643 ], [ 0.75923, 44.84642 ], [ 0.75926, 44.84624 ], [ 0.75944, 44.84619 ], [ 0.75965, 44.84625 ], [ 0.75965, 44.8464 ], [ 0.7595, 44.84657 ], [ 0.75966, 44.84668 ], [ 0.76029, 44.8468 ], [ 0.76049, 44.84678 ], [ 0.76122, 44.84629 ], [ 0.76123, 44.8462 ], [ 0.76117, 44.84604 ], [ 0.76153, 44.84604 ], [ 0.76165, 44.84601 ], [ 0.76175, 44.84605 ], [ 0.76165, 44.84616 ], [ 0.76199, 44.84628 ], [ 0.7621, 44.84638 ], [ 0.76251, 44.84659 ], [ 0.76274, 44.84665 ], [ 0.76316, 44.84684 ], [ 0.76349, 44.84698 ], [ 0.76411, 44.84776 ], [ 0.76495, 44.84789 ], [ 0.76537, 44.84783 ], [ 0.76552, 44.84767 ] ] ], [ [ [ 0.85968, 44.87332 ], [ 0.85969, 44.87334 ], [ 0.85969, 44.87336 ], [ 0.85969, 44.87336 ], [ 0.85971, 44.87337 ], [ 0.85971, 44.87339 ], [ 0.85975, 44.87348 ], [ 0.85979, 44.87357 ], [ 0.85979, 44.87358 ], [ 0.8598, 44.87358 ], [ 0.8598, 44.87359 ], [ 0.8598, 44.8736 ], [ 0.8598, 44.87361 ], [ 0.85984, 44.87367 ], [ 0.85984, 44.87368 ], [ 0.85985, 44.8737 ], [ 0.85986, 44.87369 ], [ 0.85987, 44.87369 ], [ 0.86001, 44.87368 ], [ 0.8601, 44.87365 ], [ 0.86026, 44.87364 ], [ 0.86028, 44.87363 ], [ 0.86029, 44.87366 ], [ 0.86031, 44.87367 ], [ 0.86032, 44.87371 ], [ 0.86033, 44.87374 ], [ 0.86037, 44.87374 ], [ 0.86039, 44.87374 ], [ 0.86051, 44.87374 ], [ 0.86054, 44.87374 ], [ 0.86063, 44.87373 ], [ 0.86067, 44.87373 ], [ 0.86068, 44.87373 ], [ 0.86071, 44.87372 ], [ 0.86073, 44.87372 ], [ 0.86077, 44.87372 ], [ 0.86079, 44.87372 ], [ 0.86086, 44.87372 ], [ 0.86087, 44.87372 ], [ 0.86089, 44.87372 ], [ 0.86106, 44.87371 ], [ 0.86108, 44.87371 ], [ 0.86118, 44.8737 ], [ 0.86119, 44.8737 ], [ 0.8612, 44.8737 ], [ 0.86122, 44.8737 ], [ 0.86153, 44.87369 ], [ 0.86155, 44.87369 ], [ 0.86156, 44.87369 ], [ 0.86157, 44.87369 ], [ 0.86162, 44.87368 ], [ 0.86163, 44.87368 ], [ 0.86165, 44.87368 ], [ 0.86172, 44.87368 ], [ 0.86174, 44.87368 ], [ 0.86184, 44.87367 ], [ 0.86185, 44.87367 ], [ 0.86186, 44.87367 ], [ 0.86189, 44.87368 ], [ 0.86191, 44.87368 ], [ 0.86195, 44.87368 ], [ 0.86188, 44.87334 ], [ 0.86186, 44.87324 ], [ 0.86177, 44.87295 ], [ 0.86093, 44.87189 ], [ 0.85958, 44.86889 ], [ 0.85877, 44.86686 ], [ 0.85761, 44.86746 ], [ 0.85827, 44.86937 ], [ 0.85914, 44.87179 ], [ 0.85968, 44.87332 ] ] ] ] } },
{ "type": "Feature", "properties": { "NOM": "Coteaux calcaires de la vallée de la Dordogne", "MODIF_GEO": "2014-09-25", "VALID_GEST": "2016-05-13" }, "geometry": { "type": "MultiPolygon", "coordinates": [ [ [ [ 0.79181, 44.89162 ], [ 0.79229, 44.89274 ], [ 0.79234, 44.89288 ], [ 0.7925, 44.89318 ], [ 0.7928, 44.89395 ], [ 0.79313, 44.89454 ], [ 0.79333, 44.89508 ], [ 0.7936, 44.89554 ], [ 0.79375, 44.89545 ], [ 0.79419, 44.89564 ], [ 0.79393, 44.89594 ], [ 0.79407, 44.8962 ], [ 0.79428, 44.8963 ], [ 0.79483, 44.89592 ], [ 0.7951, 44.89558 ], [ 0.79544, 44.89538 ], [ 0.79614, 44.89456 ], [ 0.79679, 44.89437 ], [ 0.79699, 44.8941 ], [ 0.79704, 44.89378 ], [ 0.79714, 44.89361 ], [ 0.79737, 44.89357 ], [ 0.79744, 44.89374 ], [ 0.79816, 44.89361 ], [ 0.79803, 44.89321 ], [ 0.79823, 44.89286 ], [ 0.79844, 44.89262 ], [ 0.79882, 44.8925 ], [ 0.79961, 44.89211 ], [ 0.80029, 44.8918 ], [ 0.80052, 44.89171 ], [ 0.80078, 44.89158 ], [ 0.80078, 44.89158 ], [ 0.80112, 44.89155 ], [ 0.80104, 44.89133 ], [ 0.80089, 44.89093 ], [ 0.80078, 44.89064 ], [ 0.8021, 44.88923 ], [ 0.80209, 44.88919 ], [ 0.80229, 44.88911 ], [ 0.80249, 44.88919 ], [ 0.80252, 44.88901 ], [ 0.80271, 44.8887 ], [ 0.80308, 44.88814 ], [ 0.80354, 44.88748 ], [ 0.80396, 44.88698 ], [ 0.80434, 44.88671 ], [ 0.80435, 44.88692 ], [ 0.80451, 44.88694 ], [ 0.80474, 44.88654 ], [ 0.80495, 44.88663 ], [ 0.80467, 44.88698 ], [ 0.80433, 44.8872 ], [ 0.8043, 44.88753 ], [ 0.80395, 44.88779 ], [ 0.80403, 44.88807 ], [ 0.80416, 44.88824 ], [ 0.80422, 44.88828 ], [ 0.80441, 44.88826 ], [ 0.80443, 44.88814 ], [ 0.80457, 44.88821 ], [ 0.8049, 44.88827 ], [ 0.805, 44.88824 ], [ 0.80503, 44.88811 ], [ 0.80484, 44.88759 ], [ 0.80518, 44.88745 ], [ 0.80511, 44.8877 ], [ 0.80525, 44.88772 ], [ 0.80528, 44.88778 ], [ 0.80541, 44.88767 ], [ 0.80557, 44.88764 ], [ 0.80564, 44.8875 ], [ 0.80546, 44.88749 ], [ 0.80578, 44.88697 ], [ 0.80609, 44.88662 ], [ 0.80671, 44.88674 ], [ 0.80652, 44.88714 ], [ 0.80704, 44.88731 ], [ 0.80688, 44.88777 ], [ 0.80671, 44.88779 ], [ 0.8067, 44.888 ], [ 0.80681, 44.88817 ], [ 0.80671, 44.8884 ], [ 0.80637, 44.88908 ], [ 0.80615, 44.88961 ], [ 0.80587, 44.89016 ], [ 0.80595, 44.89012 ], [ 0.80608, 44.89039 ], [ 0.80659, 44.89057 ], [ 0.8068, 44.89078 ], [ 0.80783, 44.89071 ], [ 0.80827, 44.89075 ], [ 0.80828, 44.89036 ], [ 0.80838, 44.8899 ], [ 0.80891, 44.88954 ], [ 0.80939, 44.88924 ], [ 0.8097, 44.88931 ], [ 0.81011, 44.88952 ], [ 0.81037, 44.88954 ], [ 0.8106, 44.88947 ], [ 0.81084, 44.88933 ], [ 0.81141, 44.88914 ], [ 0.81187, 44.88916 ], [ 0.8123, 44.88898 ], [ 0.8129, 44.88856 ], [ 0.8136, 44.88877 ], [ 0.81398, 44.88866 ], [ 0.8149, 44.88811 ], [ 0.81529, 44.88799 ], [ 0.81589, 44.88808 ], [ 0.81654, 44.88867 ], [ 0.81672, 44.88891 ], [ 0.81708, 44.8889 ], [ 0.81744, 44.88854 ], [ 0.81753, 44.88794 ], [ 0.81852, 44.88798 ], [ 0.81852, 44.88798 ], [ 0.81874, 44.88798 ], [ 0.81893, 44.88793 ], [ 0.81915, 44.88796 ], [ 0.81953, 44.88793 ], [ 0.81976, 44.88793 ], [ 0.81987, 44.88798 ], [ 0.82013, 44.88794 ], [ 0.82057, 44.8879 ], [ 0.82072, 44.88789 ], [ 0.82221, 44.88754 ], [ 0.82243, 44.88749 ], [ 0.8226, 44.88746 ], [ 0.82285, 44.88747 ], [ 0.82325, 44.88747 ], [ 0.82362, 44.88734 ], [ 0.82397, 44.88727 ], [ 0.82438, 44.88716 ], [ 0.82471, 44.88709 ], [ 0.82501, 44.88697 ], [ 0.8253, 44.88683 ], [ 0.8253, 44.88683 ], [ 0.82583, 44.88673 ], [ 0.82666, 44.88641 ], [ 0.82704, 44.88628 ], [ 0.82724, 44.88621 ], [ 0.82765, 44.88608 ], [ 0.82873, 44.88545 ], [ 0.82943, 44.88496 ], [ 0.82956, 44.88486 ], [ 0.82973, 44.88486 ], [ 0.82989, 44.88488 ], [ 0.82999, 44.88499 ], [ 0.83009, 44.88506 ], [ 0.83015, 44.88509 ], [ 0.83161, 44.8854 ], [ 0.83194, 44.88545 ], [ 0.83224, 44.8855 ], [ 0.83226, 44.88545 ], [ 0.83252, 44.88547 ], [ 0.83274, 44.88532 ], [ 0.83282, 44.88501 ], [ 0.83278, 44.88477 ], [ 0.83278, 44.88477 ], [ 0.83257, 44.88468 ], [ 0.83261, 44.8845 ], [ 0.83268, 44.88445 ], [ 0.83269, 44.88424 ], [ 0.83323, 44.88314 ], [ 0.83323, 44.88314 ], [ 0.8331, 44.88285 ], [ 0.833, 44.88269 ], [ 0.83255, 44.88245 ], [ 0.83231, 44.88256 ], [ 0.83207, 44.88253 ], [ 0.83194, 44.8822 ], [ 0.83156, 44.88211 ], [ 0.83136, 44.88218 ], [ 0.83114, 44.88216 ], [ 0.83105, 44.88214 ], [ 0.83094, 44.8823 ], [ 0.83077, 44.88228 ], [ 0.83065, 44.88226 ], [ 0.83056, 44.88223 ], [ 0.8304, 44.88235 ], [ 0.83033, 44.88243 ], [ 0.83025, 44.88248 ], [ 0.83011, 44.88243 ], [ 0.82987, 44.88257 ], [ 0.82957, 44.88272 ], [ 0.82938, 44.88283 ], [ 0.82921, 44.88299 ], [ 0.82935, 44.88304 ], [ 0.82917, 44.88309 ], [ 0.82909, 44.88314 ], [ 0.82923, 44.88329 ], [ 0.82906, 44.88344 ], [ 0.82891, 44.88345 ], [ 0.82874, 44.88357 ], [ 0.82854, 44.88378 ], [ 0.82812, 44.88399 ], [ 0.82816, 44.88387 ], [ 0.828, 44.88387 ], [ 0.8278, 44.88403 ], [ 0.82775, 44.88394 ], [ 0.8275, 44.88399 ], [ 0.82742, 44.88408 ], [ 0.82732, 44.88422 ], [ 0.82713, 44.88423 ], [ 0.82616, 44.88472 ], [ 0.82613, 44.88508 ], [ 0.82601, 44.88511 ], [ 0.82574, 44.88494 ], [ 0.82515, 44.88512 ], [ 0.82488, 44.88537 ], [ 0.8245, 44.88549 ], [ 0.82407, 44.88568 ], [ 0.82341, 44.88588 ], [ 0.82337, 44.88604 ], [ 0.82324, 44.88618 ], [ 0.82296, 44.88609 ], [ 0.82261, 44.88617 ], [ 0.82254, 44.88612 ], [ 0.82155, 44.88636 ], [ 0.82093, 44.88652 ], [ 0.82063, 44.88656 ], [ 0.8206, 44.88648 ], [ 0.82023, 44.88651 ], [ 0.82013, 44.88646 ], [ 0.82014, 44.88642 ], [ 0.8203, 44.88629 ], [ 0.8204, 44.88622 ], [ 0.82072, 44.88607 ], [ 0.82095, 44.88603 ], [ 0.82105, 44.88582 ], [ 0.82076, 44.88582 ], [ 0.82022, 44.88593 ], [ 0.82024, 44.88585 ], [ 0.82065, 44.88568 ], [ 0.82065, 44.88551 ], [ 0.82052, 44.88553 ], [ 0.81985, 44.88579 ], [ 0.81906, 44.88591 ], [ 0.81886, 44.88585 ], [ 0.81881, 44.88586 ], [ 0.81878, 44.88587 ], [ 0.81843, 44.88601 ], [ 0.81791, 44.88609 ], [ 0.81729, 44.8862 ], [ 0.81659, 44.88622 ], [ 0.81571, 44.88625 ], [ 0.81462, 44.88632 ], [ 0.81355, 44.88637 ], [ 0.81268, 44.88637 ], [ 0.81188, 44.88634 ], [ 0.81048, 44.88618 ], [ 0.80991, 44.88618 ], [ 0.8092, 44.88607 ], [ 0.80873, 44.886 ], [ 0.80806, 44.88587 ], [ 0.80738, 44.88581 ], [ 0.80685, 44.88558 ], [ 0.80644, 44.88549 ], [ 0.80473, 44.88498 ], [ 0.80448, 44.88488 ], [ 0.80388, 44.8847 ], [ 0.80352, 44.88452 ], [ 0.80339, 44.88445 ], [ 0.80316, 44.88435 ], [ 0.80299, 44.88427 ], [ 0.80246, 44.88395 ], [ 0.80187, 44.88361 ], [ 0.80097, 44.88288 ], [ 0.80011, 44.88206 ], [ 0.80009, 44.88209 ], [ 0.79928, 44.88126 ], [ 0.79917, 44.88105 ], [ 0.79907, 44.88088 ], [ 0.79911, 44.88069 ], [ 0.79899, 44.8807 ], [ 0.79888, 44.88055 ], [ 0.7988, 44.88037 ], [ 0.79869, 44.88023 ], [ 0.79855, 44.88011 ], [ 0.79821, 44.87913 ], [ 0.79803, 44.87841 ], [ 0.7977, 44.87741 ], [ 0.79755, 44.87727 ], [ 0.79743, 44.87706 ], [ 0.7975, 44.87696 ], [ 0.79747, 44.87649 ], [ 0.79742, 44.87624 ], [ 0.79741, 44.87617 ], [ 0.79734, 44.87604 ], [ 0.79727, 44.876 ], [ 0.79732, 44.87584 ], [ 0.79718, 44.87561 ], [ 0.7972, 44.87545 ], [ 0.79705, 44.87542 ], [ 0.79706, 44.87502 ], [ 0.79698, 44.8748 ], [ 0.79708, 44.87417 ], [ 0.79707, 44.87412 ], [ 0.79687, 44.87406 ], [ 0.79691, 44.87388 ], [ 0.79704, 44.87374 ], [ 0.79699, 44.87311 ], [ 0.79699, 44.87298 ], [ 0.79695, 44.87291 ], [ 0.7971, 44.87227 ], [ 0.79703, 44.87202 ], [ 0.79715, 44.87169 ], [ 0.79721, 44.87125 ], [ 0.79728, 44.87117 ], [ 0.79729, 44.87111 ], [ 0.79723, 44.87098 ], [ 0.79728, 44.87088 ], [ 0.79734, 44.8708 ], [ 0.79738, 44.87057 ], [ 0.79739, 44.87055 ], [ 0.79731, 44.87051 ], [ 0.79738, 44.87022 ], [ 0.7975, 44.86992 ], [ 0.7976, 44.86949 ], [ 0.79776, 44.86901 ], [ 0.79772, 44.86896 ], [ 0.79772, 44.86886 ], [ 0.79787, 44.86865 ], [ 0.79793, 44.86838 ], [ 0.79789, 44.86823 ], [ 0.79798, 44.86809 ], [ 0.79799, 44.86807 ], [ 0.79805, 44.86787 ], [ 0.79802, 44.86782 ], [ 0.79807, 44.8678 ], [ 0.79811, 44.86765 ], [ 0.79814, 44.86747 ], [ 0.79813, 44.86733 ], [ 0.79783, 44.86722 ], [ 0.79796, 44.86687 ], [ 0.7979, 44.86674 ], [ 0.79778, 44.86677 ], [ 0.79778, 44.86637 ], [ 0.79762, 44.86608 ], [ 0.79753, 44.86579 ], [ 0.79702, 44.86545 ], [ 0.79676, 44.8653 ], [ 0.79676, 44.8653 ], [ 0.79654, 44.86481 ], [ 0.79633, 44.86477 ], [ 0.79618, 44.86458 ], [ 0.79556, 44.86444 ], [ 0.7951, 44.86459 ], [ 0.79443, 44.86492 ], [ 0.79389, 44.86532 ], [ 0.79329, 44.86588 ], [ 0.79309, 44.86617 ], [ 0.79284, 44.8665 ], [ 0.79209, 44.86664 ], [ 0.79154, 44.86704 ], [ 0.79054, 44.86784 ], [ 0.78968, 44.86866 ], [ 0.78938, 44.86953 ], [ 0.78879, 44.87023 ], [ 0.788, 44.87105 ], [ 0.78766, 44.87195 ], [ 0.78778, 44.87246 ], [ 0.78815, 44.87321 ], [ 0.78823, 44.87322 ], [ 0.78872, 44.87366 ], [ 0.78899, 44.87408 ], [ 0.78925, 44.87475 ], [ 0.78941, 44.87527 ], [ 0.78945, 44.87553 ], [ 0.78986, 44.87583 ], [ 0.79079, 44.87608 ], [ 0.79145, 44.87621 ], [ 0.79211, 44.87657 ], [ 0.79254, 44.87731 ], [ 0.79284, 44.87799 ], [ 0.79336, 44.878 ], [ 0.79354, 44.87693 ], [ 0.79362, 44.8758 ], [ 0.79331, 44.87483 ], [ 0.79319, 44.87409 ], [ 0.79534, 44.87668 ], [ 0.79599, 44.8777 ], [ 0.79628, 44.87912 ], [ 0.79675, 44.87942 ], [ 0.79718, 44.8804 ], [ 0.79727, 44.88071 ], [ 0.79743, 44.88078 ], [ 0.7976, 44.88115 ], [ 0.79783, 44.88146 ], [ 0.79789, 44.88165 ], [ 0.79795, 44.8817 ], [ 0.7981, 44.88195 ], [ 0.79805, 44.88186 ], [ 0.79812, 44.88215 ], [ 0.79802, 44.88247 ], [ 0.79786, 44.88272 ], [ 0.79758, 44.88292 ], [ 0.79773, 44.88299 ], [ 0.79713, 44.88334 ], [ 0.79565, 44.88386 ], [ 0.79606, 44.88429 ], [ 0.79603, 44.8848 ], [ 0.7963, 44.88503 ], [ 0.79676, 44.88508 ], [ 0.79666, 44.88551 ], [ 0.79634, 44.88607 ], [ 0.7957, 44.88663 ], [ 0.79581, 44.88676 ], [ 0.79652, 44.88734 ], [ 0.79701, 44.88733 ], [ 0.79749, 44.8875 ], [ 0.79789, 44.88795 ], [ 0.79772, 44.88822 ], [ 0.79751, 44.8882 ], [ 0.79744, 44.88827 ], [ 0.79724, 44.88829 ], [ 0.7968, 44.88825 ], [ 0.79668, 44.88829 ], [ 0.79672, 44.88833 ], [ 0.79693, 44.88851 ], [ 0.79719, 44.88897 ], [ 0.79658, 44.88921 ], [ 0.79663, 44.88932 ], [ 0.79666, 44.88945 ], [ 0.79647, 44.88963 ], [ 0.79632, 44.88985 ], [ 0.79583, 44.89012 ], [ 0.79537, 44.89044 ], [ 0.79496, 44.89065 ], [ 0.79445, 44.89103 ], [ 0.7942, 44.89145 ], [ 0.7924, 44.89133 ], [ 0.79243, 44.89135 ], [ 0.79249, 44.89157 ], [ 0.79232, 44.89169 ], [ 0.79213, 44.89165 ], [ 0.79206, 44.8917 ], [ 0.79181, 44.89162 ] ] ] ] } }
]
}
