{
"type": "FeatureCollection",
"crs": { "type": "name", "properties": { "name": "urn:ogc:def:crs:OGC:1.3:CRS84" } },
"name": "Zone archéologique",
"color": "#1D1D1B",
"active": "false",
"interactive": "false",
"description": "Site répertorié au titre de la protection archéologique",

"features": [
{ "type": "Feature", "properties": { "prot_comm_": "MONPAZIER", "prot_mode": "zone de saisine (décret 2004 - 490)", "prot_objet": "Bastide médiévale de Monpazier", "code_insee": 24280 }, "geometry": { "type": "MultiPolygon", "coordinates": [ [ [ [ 0.89599, 44.67841 ], [ 0.89262, 44.678 ], [ 0.89214, 44.68276 ], [ 0.89609, 44.68311 ], [ 0.89687, 44.67855 ], [ 0.89599, 44.67841 ] ] ] ] } },
{ "type": "Feature", "properties": { "prot_comm_": "LE BUISSON-DE-CADOUIN", "prot_mode": "délimitation de seuil (décret 2002-89)", "prot_objet": "Vallée du Belingou, plateau de Cussac : grotte ornée paléolithique, multiples sites préhistoriques et historiques", "code_insee": 24068 }, "geometry": { "type": "MultiPolygon", "coordinates": [ [ [ [ 0.83262, 44.85253 ], [ 0.83576, 44.8517 ], [ 0.84072, 44.85072 ], [ 0.84516, 44.85037 ], [ 0.8491, 44.85071 ], [ 0.85229, 44.85116 ], [ 0.85327, 44.85147 ], [ 0.85347, 44.85013 ], [ 0.85319, 44.84825 ], [ 0.85311, 44.84796 ], [ 0.85416, 44.84712 ], [ 0.85498, 44.84582 ], [ 0.8564, 44.84497 ], [ 0.85845, 44.84505 ], [ 0.86166, 44.84451 ], [ 0.86341, 44.84366 ], [ 0.86482, 44.84309 ], [ 0.86944, 44.84228 ], [ 0.87522, 44.84107 ], [ 0.87711, 44.84104 ], [ 0.87936, 44.83984 ], [ 0.87821, 44.83696 ], [ 0.87833, 44.83532 ], [ 0.87795, 44.83403 ], [ 0.8776, 44.83198 ], [ 0.8777, 44.83128 ], [ 0.87548, 44.82833 ], [ 0.87363, 44.82656 ], [ 0.87226, 44.82584 ], [ 0.87253, 44.82461 ], [ 0.87192, 44.82309 ], [ 0.86958, 44.82148 ], [ 0.86778, 44.82122 ], [ 0.86817, 44.81883 ], [ 0.86655, 44.81822 ], [ 0.86563, 44.81836 ], [ 0.86354, 44.81707 ], [ 0.86201, 44.81577 ], [ 0.86067, 44.81394 ], [ 0.8586, 44.81426 ], [ 0.8567, 44.81482 ], [ 0.85579, 44.81527 ], [ 0.85414, 44.81537 ], [ 0.85231, 44.81634 ], [ 0.85154, 44.81767 ], [ 0.85097, 44.81749 ], [ 0.85014, 44.81772 ], [ 0.84805, 44.81897 ], [ 0.84829, 44.81944 ], [ 0.848, 44.82107 ], [ 0.84743, 44.82404 ], [ 0.84797, 44.8251 ], [ 0.84763, 44.82545 ], [ 0.848, 44.82709 ], [ 0.8469, 44.82848 ], [ 0.84541, 44.82887 ], [ 0.84467, 44.82897 ], [ 0.84374, 44.82972 ], [ 0.84304, 44.83141 ], [ 0.8423, 44.83163 ], [ 0.84154, 44.83244 ], [ 0.83847, 44.83333 ], [ 0.83723, 44.83361 ], [ 0.83706, 44.8339 ], [ 0.83604, 44.83517 ], [ 0.83439, 44.83555 ], [ 0.83395, 44.83672 ], [ 0.83263, 44.83705 ], [ 0.83209, 44.83868 ], [ 0.83049, 44.84012 ], [ 0.83023, 44.84076 ], [ 0.82766, 44.84148 ], [ 0.82968, 44.84274 ], [ 0.83034, 44.84269 ], [ 0.8316, 44.84451 ], [ 0.83052, 44.84514 ], [ 0.83317, 44.84722 ], [ 0.83092, 44.84836 ], [ 0.82965, 44.84992 ], [ 0.83094, 44.85099 ], [ 0.83262, 44.85253 ] ] ] ] } },
{ "type": "Feature", "properties": { "prot_comm_": "LE BUISSON-DE-CADOUIN", "prot_mode": "délimitation de seuil (décret 2002-89)", "prot_objet": "Cadouin : abbaye et bourg abbatial", "code_insee": 24068 }, "geometry": { "type": "MultiPolygon", "coordinates": [ [ [ [ 0.87519, 44.81188 ], [ 0.87519, 44.81135 ], [ 0.87495, 44.81094 ], [ 0.8747, 44.81082 ], [ 0.87399, 44.81081 ], [ 0.8736, 44.81093 ], [ 0.87261, 44.81141 ], [ 0.87235, 44.81161 ], [ 0.87248, 44.81173 ], [ 0.87221, 44.81179 ], [ 0.87221, 44.81222 ], [ 0.87339, 44.81235 ], [ 0.87417, 44.8122 ], [ 0.87496, 44.81201 ], [ 0.87519, 44.81188 ] ] ] ] } },
{ "type": "Feature", "properties": { "prot_comm_": "LE BUISSON-DE-CADOUIN", "prot_mode": "délimitation de seuil (décret 2002-89)", "prot_objet": "la Bouygue, la Seguinie, la butte de Bouillaguet : nécropole du Haut-Moyen Age, vestiges médiévaux potentiels", "code_insee": 24068 }, "geometry": { "type": "MultiPolygon", "coordinates": [ [ [ [ 0.88935, 44.85548 ], [ 0.8907, 44.85563 ], [ 0.89223, 44.85386 ], [ 0.89289, 44.85364 ], [ 0.89457, 44.85332 ], [ 0.89607, 44.85319 ], [ 0.89688, 44.85286 ], [ 0.89918, 44.85248 ], [ 0.89954, 44.85114 ], [ 0.89822, 44.84998 ], [ 0.89716, 44.8503 ], [ 0.89647, 44.85019 ], [ 0.89545, 44.85041 ], [ 0.89486, 44.84929 ], [ 0.89428, 44.84931 ], [ 0.89374, 44.84897 ], [ 0.89342, 44.84886 ], [ 0.89386, 44.84837 ], [ 0.89494, 44.84766 ], [ 0.89628, 44.84646 ], [ 0.89615, 44.84589 ], [ 0.89587, 44.84527 ], [ 0.89389, 44.84452 ], [ 0.8925, 44.84365 ], [ 0.89194, 44.84416 ], [ 0.89129, 44.84389 ], [ 0.88907, 44.84386 ], [ 0.88893, 44.84363 ], [ 0.88838, 44.8439 ], [ 0.88776, 44.84408 ], [ 0.88699, 44.84422 ], [ 0.88635, 44.84507 ], [ 0.8862, 44.84543 ], [ 0.88674, 44.84699 ], [ 0.88756, 44.84757 ], [ 0.88834, 44.84838 ], [ 0.89215, 44.84861 ], [ 0.89229, 44.84897 ], [ 0.8916, 44.85034 ], [ 0.89185, 44.85042 ], [ 0.8926, 44.85087 ], [ 0.89241, 44.85117 ], [ 0.89166, 44.85194 ], [ 0.89147, 44.8524 ], [ 0.89113, 44.85284 ], [ 0.89072, 44.85309 ], [ 0.88935, 44.85548 ] ] ] ] } },
{ "type": "Feature", "properties": { "prot_comm_": "LE BUISSON-DE-CADOUIN", "prot_mode": "délimitation de seuil (décret 2002-89)", "prot_objet": "Cabans : villa gallo-romaine et son extension, ancien édifice paroissial", "code_insee": 24068 }, "geometry": { "type": "MultiPolygon", "coordinates": [ [ [ [ 0.9197, 44.85484 ], [ 0.92285, 44.852 ], [ 0.92411, 44.8507 ], [ 0.92555, 44.84887 ], [ 0.92448, 44.84826 ], [ 0.9229, 44.84727 ], [ 0.92259, 44.84724 ], [ 0.92162, 44.84547 ], [ 0.91827, 44.84647 ], [ 0.91655, 44.84684 ], [ 0.91682, 44.84705 ], [ 0.91453, 44.84776 ], [ 0.91497, 44.84837 ], [ 0.91349, 44.84882 ], [ 0.91386, 44.84932 ], [ 0.91462, 44.84985 ], [ 0.91408, 44.85029 ], [ 0.91459, 44.85095 ], [ 0.91562, 44.85293 ], [ 0.91548, 44.85292 ], [ 0.91478, 44.85326 ], [ 0.91606, 44.85375 ], [ 0.91636, 44.85418 ], [ 0.91604, 44.85452 ], [ 0.91677, 44.85468 ], [ 0.91737, 44.85456 ], [ 0.91793, 44.85442 ], [ 0.9197, 44.85484 ] ] ] ] } },
{ "type": "Feature", "properties": { "prot_comm_": "LE BUISSON-DE-CADOUIN", "prot_mode": "délimitation de seuil (décret 2002-89)", "prot_objet": "Salle : ancienne église paroissiale", "code_insee": 24068 }, "geometry": { "type": "MultiPolygon", "coordinates": [ [ [ [ 0.86236, 44.77812 ], [ 0.86264, 44.77798 ], [ 0.86294, 44.77791 ], [ 0.86348, 44.77781 ], [ 0.8634, 44.77691 ], [ 0.8625, 44.77701 ], [ 0.8625, 44.77744 ], [ 0.86236, 44.77812 ] ] ] ] } },
{ "type": "Feature", "properties": { "prot_comm_": "LE BUISSON-DE-CADOUIN", "prot_mode": "délimitation de seuil (décret 2002-89)", "prot_objet": "le Cayre : sépulture collective du Néolithique", "code_insee": 24068 }, "geometry": { "type": "MultiPolygon", "coordinates": [ [ [ [ 0.91566, 44.82722 ], [ 0.91628, 44.82824 ], [ 0.91637, 44.8286 ], [ 0.91695, 44.82916 ], [ 0.9172, 44.82907 ], [ 0.91885, 44.82844 ], [ 0.91895, 44.82777 ], [ 0.91844, 44.8271 ], [ 0.91761, 44.8265 ], [ 0.9174, 44.82658 ], [ 0.91727, 44.82645 ], [ 0.9169, 44.8267 ], [ 0.91566, 44.82722 ] ] ] ] } },
{ "type": "Feature", "properties": { "prot_comm_": "LE BUISSON-DE-CADOUIN", "prot_mode": "délimitation de seuil (décret 2002-89)", "prot_objet": "le Roussel : motte castrale d'origine médiévale", "code_insee": 24068 }, "geometry": { "type": "MultiPolygon", "coordinates": [ [ [ [ 0.89812, 44.84552 ], [ 0.89894, 44.84508 ], [ 0.89802, 44.84428 ], [ 0.89794, 44.84454 ], [ 0.8975, 44.84462 ], [ 0.8974, 44.84471 ], [ 0.89694, 44.8447 ], [ 0.89667, 44.84489 ], [ 0.89685, 44.84517 ], [ 0.89727, 44.84544 ], [ 0.89812, 44.84552 ] ] ] ] } },
{ "type": "Feature", "properties": { "prot_comm_": "LE BUISSON-DE-CADOUIN", "prot_mode": "délimitation de seuil (décret 2002-89)", "prot_objet": "château de la Tour : château d'origine médiévale", "code_insee": 24068 }, "geometry": { "type": "MultiPolygon", "coordinates": [ [ [ [ 0.91398, 44.84538 ], [ 0.91548, 44.84504 ], [ 0.91543, 44.84491 ], [ 0.91538, 44.84465 ], [ 0.91519, 44.84427 ], [ 0.91489, 44.84398 ], [ 0.91453, 44.84406 ], [ 0.91361, 44.84441 ], [ 0.91398, 44.84538 ] ] ] ] } },
{ "type": "Feature", "properties": { "prot_comm_": "LE BUISSON-DE-CADOUIN", "prot_mode": "délimitation de seuil (décret 2002-89)", "prot_objet": "Paleyrac, la Mothe, les Fargues : ancienne église paroissiale, motte castrale présumée, activité métallurgique", "code_insee": 24068 }, "geometry": { "type": "MultiPolygon", "coordinates": [ [ [ [ 0.93039, 44.82592 ], [ 0.9325, 44.82576 ], [ 0.93252, 44.82587 ], [ 0.93147, 44.82866 ], [ 0.93129, 44.82899 ], [ 0.93128, 44.82944 ], [ 0.93413, 44.82926 ], [ 0.93433, 44.82928 ], [ 0.93612, 44.82876 ], [ 0.93641, 44.82817 ], [ 0.93624, 44.82777 ], [ 0.93621, 44.82648 ], [ 0.93657, 44.8252 ], [ 0.93613, 44.82503 ], [ 0.93619, 44.82477 ], [ 0.93525, 44.82445 ], [ 0.93437, 44.82441 ], [ 0.93369, 44.82434 ], [ 0.93331, 44.82413 ], [ 0.93318, 44.82392 ], [ 0.9325, 44.82294 ], [ 0.93196, 44.82256 ], [ 0.9314, 44.8229 ], [ 0.93168, 44.8233 ], [ 0.9316, 44.82377 ], [ 0.92998, 44.82436 ], [ 0.93039, 44.82592 ] ] ] ] } },
{ "type": "Feature", "properties": { "prot_comm_": "LE BUISSON-DE-CADOUIN", "prot_mode": "délimitation de seuil (décret 2002-89)", "prot_objet": "La Sauvetat : ancienne église paroissiale, chef-lieu d'une sauveté médiévale", "code_insee": 24068 }, "geometry": { "type": "MultiPolygon", "coordinates": [ [ [ [ 0.89459, 44.79226 ], [ 0.89462, 44.79214 ], [ 0.89478, 44.79197 ], [ 0.89495, 44.79193 ], [ 0.89512, 44.79196 ], [ 0.8949, 44.79148 ], [ 0.89379, 44.79119 ], [ 0.89383, 44.7908 ], [ 0.89348, 44.79112 ], [ 0.89314, 44.79154 ], [ 0.89328, 44.79213 ], [ 0.89338, 44.79222 ], [ 0.89459, 44.79226 ] ] ] ] } },
{ "type": "Feature", "properties": { "prot_comm_": "MOLIERES", "prot_mode": "zone de saisine (décret 2004 - 490)", "prot_objet": "Le Bourg : vestiges médiévaux (bastide, maisons, église, château forrt).", "code_insee": 24273 }, "geometry": { "type": "MultiPolygon", "coordinates": [ [ [ [ 0.82372, 44.81207 ], [ 0.82492, 44.81181 ], [ 0.82568, 44.81173 ], [ 0.82586, 44.81153 ], [ 0.8258, 44.81129 ], [ 0.82555, 44.811 ], [ 0.82524, 44.81091 ], [ 0.82509, 44.8106 ], [ 0.82569, 44.81042 ], [ 0.82517, 44.80962 ], [ 0.82499, 44.80963 ], [ 0.82443, 44.80894 ], [ 0.82217, 44.80977 ], [ 0.82267, 44.81034 ], [ 0.82325, 44.81113 ], [ 0.82372, 44.81207 ] ] ] ] } },
{ "type": "Feature", "properties": { "prot_comm_": "MOLIERES", "prot_mode": "zone de saisine (décret 2004 - 490)", "prot_objet": "Saint-Jean : vestiges médiévaux (église disparue et cimetière).", "code_insee": 24273 }, "geometry": { "type": "MultiPolygon", "coordinates": [ [ [ [ 0.82489, 44.81405 ], [ 0.82722, 44.81399 ], [ 0.82745, 44.81387 ], [ 0.8279, 44.81339 ], [ 0.82896, 44.81317 ], [ 0.82828, 44.81225 ], [ 0.82584, 44.81255 ], [ 0.8239, 44.81251 ], [ 0.82418, 44.81379 ], [ 0.82489, 44.81405 ] ] ] ] } },
{ "type": "Feature", "properties": { "prot_comm_": "VERGT-DE-BIRON", "prot_mode": "zone de saisine (décret 2004 - 490)", "prot_objet": "Eglise Saint-Jean de Bertis : église, cimetière, Moyen-Age.", "code_insee": 24572 }, "geometry": { "type": "MultiPolygon", "coordinates": [ [ [ [ 0.84142, 44.60332 ], [ 0.84173, 44.60312 ], [ 0.84172, 44.6028 ], [ 0.84087, 44.60272 ], [ 0.84075, 44.60323 ], [ 0.84142, 44.60332 ] ] ] ] } },
{ "type": "Feature", "properties": { "prot_comm_": "VERGT-DE-BIRON", "prot_mode": "zone de saisine (décret 2004 - 490)", "prot_objet": "Le Bourg, l'Eglise : vestiges médiévaux : église, cimetière, souterrain.", "code_insee": 24572 }, "geometry": { "type": "MultiPolygon", "coordinates": [ [ [ [ 0.84171, 44.63243 ], [ 0.84201, 44.63245 ], [ 0.84209, 44.63218 ], [ 0.84221, 44.63194 ], [ 0.84223, 44.63174 ], [ 0.84085, 44.6317 ], [ 0.84085, 44.63199 ], [ 0.84091, 44.63222 ], [ 0.84097, 44.63236 ], [ 0.84171, 44.63243 ] ] ] ] } },
{ "type": "Feature", "properties": { "prot_comm_": "VERGT-DE-BIRON", "prot_mode": "zone de saisine (décret 2004 - 490)", "prot_objet": "Egllise Saint-Cernin : vestiges médiévaux, église et cimetière.", "code_insee": 24572 }, "geometry": { "type": "MultiPolygon", "coordinates": [ [ [ [ 0.8607, 44.64828 ], [ 0.86206, 44.64684 ], [ 0.86073, 44.6463 ], [ 0.8593, 44.64756 ], [ 0.8607, 44.64828 ] ] ] ] } },
{ "type": "Feature", "properties": { "prot_comm_": "VERGT-DE-BIRON", "prot_mode": "zone de saisine (décret 2004 - 490)", "prot_objet": "Point du Jour : dolmen néolithique.", "code_insee": 24572 }, "geometry": { "type": "MultiPolygon", "coordinates": [ [ [ [ 0.8381, 44.65099 ], [ 0.83807, 44.65067 ], [ 0.83803, 44.65012 ], [ 0.83824, 44.64976 ], [ 0.83693, 44.64962 ], [ 0.83668, 44.65087 ], [ 0.8381, 44.65099 ] ] ] ] } },
{ "type": "Feature", "properties": { "prot_comm_": "SAINT-AVIT-RIVIERE", "prot_mode": "zone de saisine (décret 2004 - 490)", "prot_objet": "La Mouthe : motte castrale médiévale.", "code_insee": 24378 }, "geometry": { "type": "MultiPolygon", "coordinates": [ [ [ [ 0.88896, 44.74157 ], [ 0.89005, 44.74149 ], [ 0.891, 44.74149 ], [ 0.89142, 44.74135 ], [ 0.89144, 44.74066 ], [ 0.89144, 44.74032 ], [ 0.89206, 44.74023 ], [ 0.89194, 44.7395 ], [ 0.89232, 44.73897 ], [ 0.89267, 44.73824 ], [ 0.88857, 44.73819 ], [ 0.88866, 44.73874 ], [ 0.88852, 44.73934 ], [ 0.88867, 44.7401 ], [ 0.88916, 44.74113 ], [ 0.88896, 44.74157 ] ] ] ] } },
{ "type": "Feature", "properties": { "prot_comm_": "SAINT-AVIT-RIVIERE", "prot_mode": "zone de saisine (décret 2004 - 490)", "prot_objet": "La Plane : occupation paléolithique supérieur, art mobilier (Vénus de Monpazier).", "code_insee": 24378 }, "geometry": { "type": "MultiPolygon", "coordinates": [ [ [ [ 0.92288, 44.74251 ], [ 0.92594, 44.74139 ], [ 0.92378, 44.73852 ], [ 0.92099, 44.73958 ], [ 0.92136, 44.74012 ], [ 0.92143, 44.74047 ], [ 0.92155, 44.74071 ], [ 0.92174, 44.74152 ], [ 0.92205, 44.74178 ], [ 0.92288, 44.74251 ] ] ] ] } },
{ "type": "Feature", "properties": { "prot_comm_": "SAINT-AVIT-RIVIERE", "prot_mode": "zone de saisine (décret 2004 - 490)", "prot_objet": "Campeymac : occupation du paélolithique supérieur.", "code_insee": 24378 }, "geometry": { "type": "MultiPolygon", "coordinates": [ [ [ [ 0.90569, 44.74488 ], [ 0.90707, 44.74476 ], [ 0.90811, 44.74456 ], [ 0.908, 44.74272 ], [ 0.9057, 44.74269 ], [ 0.90594, 44.74416 ], [ 0.90569, 44.74488 ] ] ] ] } },
{ "type": "Feature", "properties": { "prot_comm_": "PONTOURS", "prot_mode": "zone de saisine (décret 2004 - 490)", "prot_objet": "Pontours : occupations antique (villa) et médiévale (église, chapelle, cimetières , village, gué, pécheries).", "code_insee": 24334 }, "geometry": { "type": "MultiPolygon", "coordinates": [ [ [ [ 0.75147, 44.83582 ], [ 0.75108, 44.8367 ], [ 0.75265, 44.83704 ], [ 0.75575, 44.8375 ], [ 0.75973, 44.8379 ], [ 0.76259, 44.83794 ], [ 0.76567, 44.83788 ], [ 0.76866, 44.83815 ], [ 0.77143, 44.83887 ], [ 0.77361, 44.83945 ], [ 0.7763, 44.84032 ], [ 0.77775, 44.84073 ], [ 0.77832, 44.83992 ], [ 0.77872, 44.8396 ], [ 0.77889, 44.83935 ], [ 0.77913, 44.83872 ], [ 0.77851, 44.83857 ], [ 0.77712, 44.83833 ], [ 0.77483, 44.83777 ], [ 0.77371, 44.83721 ], [ 0.77225, 44.83657 ], [ 0.7713, 44.83607 ], [ 0.77063, 44.8357 ], [ 0.76999, 44.83529 ], [ 0.76876, 44.83477 ], [ 0.76735, 44.83423 ], [ 0.76655, 44.83389 ], [ 0.76516, 44.83359 ], [ 0.7637, 44.8336 ], [ 0.76256, 44.83353 ], [ 0.76176, 44.83336 ], [ 0.76048, 44.83314 ], [ 0.75981, 44.83302 ], [ 0.75855, 44.83295 ], [ 0.75759, 44.83246 ], [ 0.75673, 44.83268 ], [ 0.75603, 44.83405 ], [ 0.75494, 44.83446 ], [ 0.75441, 44.83451 ], [ 0.75372, 44.83482 ], [ 0.75212, 44.83529 ], [ 0.75147, 44.83582 ] ] ] ] } },
{ "type": "Feature", "properties": { "prot_comm_": "PONTOURS", "prot_mode": "zone de saisine (décret 2004 - 490)", "prot_objet": "Pontours Haut : site topographique sensible ; occupations préhistoriques.", "code_insee": 24334 }, "geometry": { "type": "MultiPolygon", "coordinates": [ [ [ [ 0.77918, 44.83865 ], [ 0.77969, 44.83815 ], [ 0.77902, 44.8379 ], [ 0.77742, 44.83747 ], [ 0.77715, 44.83742 ], [ 0.77563, 44.83713 ], [ 0.77486, 44.83687 ], [ 0.77496, 44.83668 ], [ 0.77472, 44.83659 ], [ 0.77444, 44.83658 ], [ 0.77407, 44.83645 ], [ 0.7728, 44.83588 ], [ 0.77206, 44.83544 ], [ 0.77172, 44.83513 ], [ 0.77209, 44.83484 ], [ 0.77227, 44.83445 ], [ 0.77257, 44.83428 ], [ 0.77253, 44.83357 ], [ 0.77175, 44.83345 ], [ 0.77121, 44.83346 ], [ 0.77101, 44.83361 ], [ 0.77061, 44.83354 ], [ 0.7699, 44.83241 ], [ 0.76903, 44.83224 ], [ 0.76868, 44.83221 ], [ 0.76872, 44.83245 ], [ 0.76855, 44.83273 ], [ 0.76819, 44.83302 ], [ 0.76785, 44.83313 ], [ 0.76745, 44.83337 ], [ 0.76714, 44.83332 ], [ 0.76669, 44.83324 ], [ 0.76594, 44.8331 ], [ 0.76547, 44.83306 ], [ 0.76489, 44.83294 ], [ 0.76363, 44.83278 ], [ 0.76264, 44.83269 ], [ 0.76174, 44.83266 ], [ 0.76116, 44.83259 ], [ 0.75974, 44.83229 ], [ 0.75968, 44.83211 ], [ 0.76009, 44.83179 ], [ 0.7607, 44.83143 ], [ 0.75991, 44.83082 ], [ 0.75898, 44.83109 ], [ 0.75828, 44.83144 ], [ 0.75798, 44.83193 ], [ 0.75778, 44.83207 ], [ 0.75756, 44.83222 ], [ 0.75754, 44.8324 ], [ 0.75862, 44.83293 ], [ 0.75916, 44.83295 ], [ 0.75966, 44.83297 ], [ 0.76009, 44.83302 ], [ 0.76166, 44.83329 ], [ 0.76277, 44.83351 ], [ 0.76362, 44.83356 ], [ 0.76511, 44.83356 ], [ 0.76575, 44.83365 ], [ 0.76669, 44.8339 ], [ 0.76825, 44.83454 ], [ 0.77009, 44.8353 ], [ 0.77193, 44.83639 ], [ 0.77412, 44.83737 ], [ 0.77486, 44.83774 ], [ 0.77686, 44.83821 ], [ 0.77918, 44.83865 ] ] ] ] } },
{ "type": "Feature", "properties": { "prot_comm_": "NAUSSANNES", "prot_mode": "zone de saisine (décret 2004 - 490)", "prot_objet": "Le Cimetière, Vieille Eglise Saint-Pierre : église (détruite), cimetière, Moyen-Age.", "code_insee": 24307 }, "geometry": { "type": "MultiPolygon", "coordinates": [ [ [ [ 0.72222, 44.75516 ], [ 0.72271, 44.75513 ], [ 0.72267, 44.75476 ], [ 0.72216, 44.75478 ], [ 0.72222, 44.75516 ] ] ] ] } },
{ "type": "Feature", "properties": { "prot_comm_": "NAUSSANNES", "prot_mode": "zone de saisine (décret 2004 - 490)", "prot_objet": "Le Bourg : église Saint-Jean-Baptiste, cimetière, Moyen-Age.", "code_insee": 24307 }, "geometry": { "type": "MultiPolygon", "coordinates": [ [ [ [ 0.7267, 44.75536 ], [ 0.72739, 44.75533 ], [ 0.7273, 44.75473 ], [ 0.72684, 44.75481 ], [ 0.7266, 44.75494 ], [ 0.72649, 44.7553 ], [ 0.7267, 44.75536 ] ] ] ] } },
{ "type": "Feature", "properties": { "prot_comm_": "PONTOURS", "prot_mode": "zone de saisine (décret 2004 - 490)", "prot_objet": "Lamothe : motte castrale, Moyen-Age.", "code_insee": 24334 }, "geometry": { "type": "MultiPolygon", "coordinates": [ [ [ [ 0.75995, 44.82489 ], [ 0.75998, 44.82475 ], [ 0.76002, 44.82451 ], [ 0.76004, 44.82433 ], [ 0.76002, 44.82416 ], [ 0.75996, 44.82398 ], [ 0.75979, 44.82381 ], [ 0.75959, 44.82382 ], [ 0.75935, 44.8241 ], [ 0.7592, 44.82431 ], [ 0.75914, 44.82469 ], [ 0.7591, 44.82504 ], [ 0.75918, 44.82516 ], [ 0.75951, 44.82538 ], [ 0.75973, 44.82543 ], [ 0.75982, 44.82527 ], [ 0.75995, 44.82489 ] ] ] ] } },
{ "type": "Feature", "properties": { "prot_comm_": "MOLIERES", "prot_mode": "zone de saisine (décret 2004 - 490)", "prot_objet": "Sigognac : maison forte médiévale, cluzeau,  chapelle disparue (?), occupation néolithique (?).", "code_insee": 24273 }, "geometry": { "type": "MultiPolygon", "coordinates": [ [ [ [ 0.80456, 44.82255 ], [ 0.80561, 44.82285 ], [ 0.80627, 44.82317 ], [ 0.80667, 44.82327 ], [ 0.80704, 44.82201 ], [ 0.80665, 44.82193 ], [ 0.8066, 44.8212 ], [ 0.80641, 44.82087 ], [ 0.80572, 44.82157 ], [ 0.80527, 44.82144 ], [ 0.80486, 44.82203 ], [ 0.80456, 44.82255 ] ] ] ] } },
{ "type": "Feature", "properties": { "prot_comm_": "MOLIERES", "prot_mode": "zone de saisine (décret 2004 - 490)", "prot_objet": "Aillac : prieuré médiéval (chapelle, cimetière, bâtiments annexes, etc) fontaines anciennes.", "code_insee": 24273 }, "geometry": { "type": "MultiPolygon", "coordinates": [ [ [ [ 0.83489, 44.83528 ], [ 0.83535, 44.83529 ], [ 0.83559, 44.83521 ], [ 0.83587, 44.83513 ], [ 0.83596, 44.8351 ], [ 0.83614, 44.83503 ], [ 0.83627, 44.83487 ], [ 0.83642, 44.83458 ], [ 0.83661, 44.83442 ], [ 0.83692, 44.83413 ], [ 0.83725, 44.8338 ], [ 0.83737, 44.83367 ], [ 0.83742, 44.83358 ], [ 0.83799, 44.83347 ], [ 0.83862, 44.83331 ], [ 0.83881, 44.83322 ], [ 0.83867, 44.8331 ], [ 0.83854, 44.83301 ], [ 0.83833, 44.83304 ], [ 0.83795, 44.83316 ], [ 0.83726, 44.83346 ], [ 0.83707, 44.83354 ], [ 0.8369, 44.83348 ], [ 0.83662, 44.83343 ], [ 0.83641, 44.83331 ], [ 0.83627, 44.83314 ], [ 0.83618, 44.83295 ], [ 0.83615, 44.83274 ], [ 0.83561, 44.83319 ], [ 0.83406, 44.83468 ], [ 0.83489, 44.83528 ] ] ] ] } },
{ "type": "Feature", "properties": { "prot_comm_": "NOJALS-ET-CLOTTE", "prot_mode": "zone de saisine (décret 2004 - 490)", "prot_objet": "Peyrelevade, Allée Couverte du Blanc : allée couverte, Protohistoire.", "code_insee": 24028 }, "geometry": { "type": "MultiPolygon", "coordinates": [ [ [ [ 0.75295, 44.73953 ], [ 0.75407, 44.73949 ], [ 0.75391, 44.7391 ], [ 0.75374, 44.73886 ], [ 0.75284, 44.73891 ], [ 0.75295, 44.73953 ] ] ] ] } },
{ "type": "Feature", "properties": { "prot_comm_": "NOJALS-ET-CLOTTE", "prot_mode": "zone de saisine (décret 2004 - 490)", "prot_objet": "Clotte : église, cimetière, Moyen-Age.", "code_insee": 24028 }, "geometry": { "type": "MultiPolygon", "coordinates": [ [ [ [ 0.77048, 44.71566 ], [ 0.77132, 44.71576 ], [ 0.77149, 44.71535 ], [ 0.77104, 44.71539 ], [ 0.77092, 44.71539 ], [ 0.77052, 44.71535 ], [ 0.77048, 44.71566 ] ] ] ] } },
{ "type": "Feature", "properties": { "prot_comm_": "NOJALS-ET-CLOTTE", "prot_mode": "zone de saisine (décret 2004 - 490)", "prot_objet": "Gleyze d'Als : église, Moyen-Age; maison, pigeonnier, période moderne.", "code_insee": 24028 }, "geometry": { "type": "MultiPolygon", "coordinates": [ [ [ [ 0.78034, 44.73047 ], [ 0.78172, 44.73045 ], [ 0.78173, 44.72863 ], [ 0.78177, 44.72695 ], [ 0.78101, 44.72696 ], [ 0.77994, 44.72714 ], [ 0.77915, 44.72735 ], [ 0.77867, 44.72756 ], [ 0.7784, 44.72799 ], [ 0.77826, 44.72844 ], [ 0.77825, 44.72891 ], [ 0.77858, 44.72955 ], [ 0.7791, 44.73044 ], [ 0.78034, 44.73047 ] ] ] ] } },
{ "type": "Feature", "properties": { "prot_comm_": "SAINTE-SABINE-BORN", "prot_mode": "zone de saisine (décret 2004 - 490)", "prot_objet": "La Moute : motte castrale, Moyen-Age.", "code_insee": 24028 }, "geometry": { "type": "MultiPolygon", "coordinates": [ [ [ [ 0.73294, 44.71043 ], [ 0.73302, 44.71046 ], [ 0.73314, 44.71045 ], [ 0.73324, 44.71039 ], [ 0.73345, 44.71026 ], [ 0.73358, 44.71022 ], [ 0.73368, 44.71016 ], [ 0.7337, 44.71004 ], [ 0.73369, 44.70977 ], [ 0.73308, 44.70938 ], [ 0.7329, 44.70963 ], [ 0.73251, 44.71005 ], [ 0.73294, 44.71043 ] ] ] ] } },
{ "type": "Feature", "properties": { "prot_comm_": "SAINTE-SABINE-BORN", "prot_mode": "zone de saisine (décret 2004 - 490)", "prot_objet": "Saint-Germain : église, cimetière, Moyen-Age.", "code_insee": 24028 }, "geometry": { "type": "MultiPolygon", "coordinates": [ [ [ [ 0.73048, 44.6927 ], [ 0.72968, 44.69251 ], [ 0.72969, 44.69346 ], [ 0.73045, 44.69332 ], [ 0.73048, 44.6927 ] ] ] ] } },
{ "type": "Feature", "properties": { "prot_comm_": "SAINTE-SABINE-BORN", "prot_mode": "zone de saisine (décret 2004 - 490)", "prot_objet": "Born des Champs : Eglise Saint-Christophe, cimetière, Moyen-Age.", "code_insee": 24028 }, "geometry": { "type": "MultiPolygon", "coordinates": [ [ [ [ 0.71121, 44.6857 ], [ 0.71198, 44.6853 ], [ 0.71162, 44.68492 ], [ 0.71142, 44.68499 ], [ 0.71126, 44.68501 ], [ 0.71117, 44.68509 ], [ 0.71084, 44.6854 ], [ 0.71121, 44.6857 ] ] ] ] } },
{ "type": "Feature", "properties": { "prot_comm_": "SAINTE-SABINE-BORN", "prot_mode": "zone de saisine (décret 2004 - 490)", "prot_objet": "Le Bel : église, cimetière, Moyen-Age.", "code_insee": 24028 }, "geometry": { "type": "MultiPolygon", "coordinates": [ [ [ [ 0.71325, 44.70332 ], [ 0.71377, 44.7035 ], [ 0.71417, 44.70291 ], [ 0.71367, 44.70271 ], [ 0.71325, 44.70332 ] ] ] ] } },
{ "type": "Feature", "properties": { "prot_comm_": "SAINTE-SABINE-BORN", "prot_mode": "zone de saisine (décret 2004 - 490)", "prot_objet": "Les Jeammots : souterrain refuge, Moyen-Age.", "code_insee": 24028 }, "geometry": { "type": "MultiPolygon", "coordinates": [ [ [ [ 0.75933, 44.6889 ], [ 0.76045, 44.68882 ], [ 0.76222, 44.68851 ], [ 0.7621, 44.68799 ], [ 0.76186, 44.6869 ], [ 0.76002, 44.68705 ], [ 0.75933, 44.6889 ] ] ] ] } },
{ "type": "Feature", "properties": { "prot_comm_": "SAINTE-SABINE-BORN", "prot_mode": "zone de saisine (décret 2004 - 490)", "prot_objet": "Sainte-Sabine : église, cimetière, Moyen-Age.", "code_insee": 24028 }, "geometry": { "type": "MultiPolygon", "coordinates": [ [ [ [ 0.7513, 44.69368 ], [ 0.7522, 44.69394 ], [ 0.7522, 44.69348 ], [ 0.75224, 44.69306 ], [ 0.75214, 44.69276 ], [ 0.75189, 44.69259 ], [ 0.75131, 44.69305 ], [ 0.75116, 44.69324 ], [ 0.74991, 44.69358 ], [ 0.75014, 44.69416 ], [ 0.7513, 44.69368 ] ] ] ] } },
{ "type": "Feature", "properties": { "prot_comm_": "NAUSSANNES", "prot_mode": "zone de saisine (décret 2004 - 490)", "prot_objet": "Le Pic : église (détruite), cimetière, Moyen-Age.", "code_insee": 24307 }, "geometry": { "type": "MultiPolygon", "coordinates": [ [ [ [ 0.70839, 44.74057 ], [ 0.71033, 44.73992 ], [ 0.71028, 44.73957 ], [ 0.71018, 44.73915 ], [ 0.7101, 44.7389 ], [ 0.70997, 44.73861 ], [ 0.70769, 44.73947 ], [ 0.70839, 44.74057 ] ] ] ] } },
{ "type": "Feature", "properties": { "prot_comm_": "NAUSSANNES", "prot_mode": "zone de saisine (décret 2004 - 490)", "prot_objet": "Capy : nécropole, Haut-Moyen-Age.", "code_insee": 24307 }, "geometry": { "type": "MultiPolygon", "coordinates": [ [ [ [ 0.74604, 44.76525 ], [ 0.74629, 44.76519 ], [ 0.74651, 44.76509 ], [ 0.74662, 44.76502 ], [ 0.74673, 44.76491 ], [ 0.74644, 44.76432 ], [ 0.7463, 44.76408 ], [ 0.7461, 44.76377 ], [ 0.74585, 44.76345 ], [ 0.74551, 44.76305 ], [ 0.74528, 44.76268 ], [ 0.7451, 44.76242 ], [ 0.74494, 44.76237 ], [ 0.74468, 44.76239 ], [ 0.74225, 44.76285 ], [ 0.74146, 44.76308 ], [ 0.74132, 44.76316 ], [ 0.74127, 44.76324 ], [ 0.74122, 44.76335 ], [ 0.7412, 44.76352 ], [ 0.74122, 44.7636 ], [ 0.74127, 44.76366 ], [ 0.74136, 44.76371 ], [ 0.74149, 44.76377 ], [ 0.74159, 44.76379 ], [ 0.74186, 44.76383 ], [ 0.74218, 44.76387 ], [ 0.74237, 44.76393 ], [ 0.74254, 44.76405 ], [ 0.74286, 44.76438 ], [ 0.74301, 44.76449 ], [ 0.74322, 44.7646 ], [ 0.74337, 44.76477 ], [ 0.74355, 44.76505 ], [ 0.74365, 44.76516 ], [ 0.74381, 44.76522 ], [ 0.74427, 44.76531 ], [ 0.74453, 44.76535 ], [ 0.74474, 44.76536 ], [ 0.74499, 44.76537 ], [ 0.74518, 44.76536 ], [ 0.74531, 44.76534 ], [ 0.74554, 44.76529 ], [ 0.74585, 44.76527 ], [ 0.74604, 44.76525 ] ] ] ] } },
{ "type": "Feature", "properties": { "prot_comm_": "NOJALS-ET-CLOTTE", "prot_mode": "zone de saisine (décret 2004 - 490)", "prot_objet": "Nojals : église, cimetière, Moyen-Age.", "code_insee": 24028 }, "geometry": { "type": "MultiPolygon", "coordinates": [ [ [ [ 0.75876, 44.72486 ], [ 0.75962, 44.72488 ], [ 0.75962, 44.7245 ], [ 0.75912, 44.72437 ], [ 0.7585, 44.7243 ], [ 0.75849, 44.72458 ], [ 0.75859, 44.72458 ], [ 0.75858, 44.72469 ], [ 0.75876, 44.7247 ], [ 0.75876, 44.72486 ] ] ] ] } },
{ "type": "Feature", "properties": { "prot_comm_": "SAINTE-SABINE-BORN", "prot_mode": "zone de saisine (décret 2004 - 490)", "prot_objet": "Cugnac : dolmen, occupation castrale médiévale", "code_insee": 24028 }, "geometry": { "type": "MultiPolygon", "coordinates": [ [ [ [ 0.71321, 44.71775 ], [ 0.71335, 44.71805 ], [ 0.71342, 44.71813 ], [ 0.71347, 44.71816 ], [ 0.71353, 44.71814 ], [ 0.71349, 44.71803 ], [ 0.71349, 44.71792 ], [ 0.71352, 44.7178 ], [ 0.71358, 44.71765 ], [ 0.71371, 44.71746 ], [ 0.7138, 44.71734 ], [ 0.71399, 44.71721 ], [ 0.7142, 44.71714 ], [ 0.71439, 44.71711 ], [ 0.71503, 44.71712 ], [ 0.71532, 44.71712 ], [ 0.71549, 44.7171 ], [ 0.71562, 44.71708 ], [ 0.71574, 44.71705 ], [ 0.71589, 44.71699 ], [ 0.71611, 44.71688 ], [ 0.71691, 44.71632 ], [ 0.71726, 44.71603 ], [ 0.71774, 44.71558 ], [ 0.718, 44.71534 ], [ 0.7183, 44.71517 ], [ 0.71847, 44.71509 ], [ 0.71893, 44.71499 ], [ 0.7196, 44.71482 ], [ 0.72005, 44.71469 ], [ 0.72044, 44.71453 ], [ 0.71888, 44.71179 ], [ 0.71843, 44.7117 ], [ 0.71786, 44.71158 ], [ 0.71744, 44.71157 ], [ 0.71704, 44.7116 ], [ 0.71654, 44.71174 ], [ 0.71599, 44.71197 ], [ 0.71543, 44.71226 ], [ 0.71483, 44.71271 ], [ 0.71461, 44.71297 ], [ 0.71444, 44.71316 ], [ 0.7142, 44.71337 ], [ 0.71406, 44.7135 ], [ 0.71378, 44.71379 ], [ 0.71357, 44.71408 ], [ 0.7134, 44.71425 ], [ 0.71318, 44.71441 ], [ 0.71297, 44.71445 ], [ 0.71274, 44.71444 ], [ 0.71245, 44.71439 ], [ 0.71208, 44.7143 ], [ 0.71171, 44.71422 ], [ 0.71152, 44.71421 ], [ 0.71123, 44.71435 ], [ 0.71119, 44.71447 ], [ 0.71137, 44.71468 ], [ 0.71168, 44.71498 ], [ 0.71204, 44.71541 ], [ 0.71269, 44.71649 ], [ 0.7129, 44.71682 ], [ 0.71321, 44.71775 ] ] ] ] } }
]
}
