{
"type": "FeatureCollection",
"crs": { "type": "name", "properties": { "name": "urn:ogc:def:crs:OGC:1.3:CRS84" } },
"name": "Monument inscrit ou classé",
"color": "#8B0E13",
"active": "true",
"interactive":"true",
"description": "Protection des monuments historiques loi du 31 décembre 1913",

"features": [
{ "type": "Feature", "properties": { "NOM": null, "TYPOLOGIE": null, "IMMEUBLE": "EGLISE", "PROTECTION": "Classé" }, "geometry": { "type": "Point", "coordinates": [ 0.81624, 44.77447 ] } },
{ "type": "Feature", "properties": { "NOM": null, "TYPOLOGIE": null, "IMMEUBLE": "PORTE DE LUZIER", "PROTECTION": "Inscrit" }, "geometry": { "type": "Point", "coordinates": [ 0.76689, 44.76899 ] } },
{ "type": "Feature", "properties": { "NOM": null, "TYPOLOGIE": null, "IMMEUBLE": "EGLISE DE SALLES", "PROTECTION": "Inscrit" }, "geometry": { "type": "Point", "coordinates": [ 0.86273, 44.77745 ] } },
{ "type": "Feature", "properties": { "NOM": null, "TYPOLOGIE": null, "IMMEUBLE": "EGLISE", "PROTECTION": "Classé" }, "geometry": { "type": "Point", "coordinates": [ 0.83151, 44.73993 ] } },
{ "type": "Feature", "properties": { "NOM": null, "TYPOLOGIE": null, "IMMEUBLE": "MAISON A EMPILAGE ET GRANGE LES JOUANDIS", "PROTECTION": "Classé" }, "geometry": { "type": "Point", "coordinates": [ 0.71237, 44.67982 ] } },
{ "type": "Feature", "properties": { "NOM": null, "TYPOLOGIE": null, "IMMEUBLE": "MAISON PARCELLE 580 (113)", "PROTECTION": "Partiellement Classé" }, "geometry": { "type": "Point", "coordinates": [ 0.89404, 44.68015 ] } },
{ "type": "Feature", "properties": { "NOM": null, "TYPOLOGIE": null, "IMMEUBLE": "PORTE NORD RUE NOTRE DAME", "PROTECTION": "Inscrit" }, "geometry": { "type": "Point", "coordinates": [ 0.89438, 44.68213 ] } },
{ "type": "Feature", "properties": { "NOM": null, "TYPOLOGIE": null, "IMMEUBLE": "EGLISE SAINT CHRISTOPHE", "PROTECTION": "Inscrit" }, "geometry": { "type": "Point", "coordinates": [ 0.85938, 44.74603 ] } },
{ "type": "Feature", "properties": { "NOM": null, "TYPOLOGIE": null, "IMMEUBLE": "MAISON DU CHAPITRE", "PROTECTION": "Inscrit" }, "geometry": { "type": "Point", "coordinates": [ 0.89437, 44.68098 ] } },
{ "type": "Feature", "properties": { "NOM": null, "TYPOLOGIE": null, "IMMEUBLE": "MAISON DU 16ème", "PROTECTION": "Inscrit" }, "geometry": { "type": "Point", "coordinates": [ 0.86579, 44.74907 ] } },
{ "type": "Feature", "properties": { "NOM": null, "TYPOLOGIE": null, "IMMEUBLE": "ALLEE COUVERTE DU BLANC NOJALS & CLOTTES", "PROTECTION": "Classé" }, "geometry": { "type": "Point", "coordinates": [ 0.75332, 44.73935 ] } },
{ "type": "Feature", "properties": { "NOM": null, "TYPOLOGIE": null, "IMMEUBLE": "CHATEAU DE SAINT GERMAIN", "PROTECTION": "Partiellement Inscrit" }, "geometry": { "type": "Point", "coordinates": [ 0.86306, 44.66054 ] } },
{ "type": "Feature", "properties": { "NOM": null, "TYPOLOGIE": null, "IMMEUBLE": "CHATEAU", "PROTECTION": "Inscrit" }, "geometry": { "type": "Point", "coordinates": [ 0.8293, 44.73886 ] } },
{ "type": "Feature", "properties": { "NOM": null, "TYPOLOGIE": null, "IMMEUBLE": "CHATEAU DE LUZIER", "PROTECTION": "Inscrit" }, "geometry": { "type": "Point", "coordinates": [ 0.75036, 44.77263 ] } },
{ "type": "Feature", "properties": { "NOM": null, "TYPOLOGIE": null, "IMMEUBLE": "JARDINS DU CHATEAU", "PROTECTION": "Classé" }, "geometry": { "type": "Point", "coordinates": [ 0.87563, 44.63238 ] } },
{ "type": "Feature", "properties": { "NOM": null, "TYPOLOGIE": null, "IMMEUBLE": "EGLISE", "PROTECTION": "Partiellement Inscrit" }, "geometry": { "type": "Point", "coordinates": [ 0.88309, 44.75221 ] } },
{ "type": "Feature", "properties": { "NOM": null, "TYPOLOGIE": null, "IMMEUBLE": "HALLE", "PROTECTION": "Inscrit" }, "geometry": { "type": "Point", "coordinates": [ 0.86617, 44.75034 ] } },
{ "type": "Feature", "properties": { "NOM": null, "TYPOLOGIE": null, "IMMEUBLE": "DOLMEN", "PROTECTION": "Classé" }, "geometry": { "type": "Point", "coordinates": [ 0.81037, 44.72265 ] } },
{ "type": "Feature", "properties": { "NOM": null, "TYPOLOGIE": null, "IMMEUBLE": "EGLISE NOTRE DAME", "PROTECTION": "Classé" }, "geometry": { "type": "Point", "coordinates": [ 0.8736, 44.63029 ] } },
{ "type": "Feature", "properties": { "NOM": null, "TYPOLOGIE": null, "IMMEUBLE": "CHATEAU", "PROTECTION": "Partiellement Inscrit" }, "geometry": { "type": "Point", "coordinates": [ 0.8885, 44.69548 ] } },
{ "type": "Feature", "properties": { "NOM": null, "TYPOLOGIE": null, "IMMEUBLE": "PORTE NORD RUE SAINT JACQUES", "PROTECTION": "Inscrit" }, "geometry": { "type": "Point", "coordinates": [ 0.89376, 44.68208 ] } },
{ "type": "Feature", "properties": { "NOM": null, "TYPOLOGIE": null, "IMMEUBLE": "EGLISE", "PROTECTION": "Inscrit" }, "geometry": { "type": "Point", "coordinates": [ 0.88385, 44.69767 ] } },
{ "type": "Feature", "properties": { "NOM": null, "TYPOLOGIE": null, "IMMEUBLE": "CHATEAU", "PROTECTION": "Classé" }, "geometry": { "type": "Point", "coordinates": [ 0.87233, 44.63226 ] } },
{ "type": "Feature", "properties": { "NOM": null, "TYPOLOGIE": null, "IMMEUBLE": "PORTE SUD RUE SAINT JACQUES", "PROTECTION": "Inscrit" }, "geometry": { "type": "Point", "coordinates": [ 0.89425, 44.67863 ] } },
{ "type": "Feature", "properties": { "NOM": null, "TYPOLOGIE": null, "IMMEUBLE": "EGLISE", "PROTECTION": "Inscrit" }, "geometry": { "type": "Point", "coordinates": [ 0.87019, 44.71845 ] } },
{ "type": "Feature", "properties": { "NOM": null, "TYPOLOGIE": null, "IMMEUBLE": "TOUR DES REMPARTS", "PROTECTION": "Inscrit" }, "geometry": { "type": "Point", "coordinates": [ 0.89612, 44.67999 ] } },
{ "type": "Feature", "properties": { "NOM": null, "TYPOLOGIE": null, "IMMEUBLE": "EGLISE", "PROTECTION": "Classé" }, "geometry": { "type": "Point", "coordinates": [ 0.76799, 44.76923 ] } },
{ "type": "Feature", "properties": { "NOM": null, "TYPOLOGIE": null, "IMMEUBLE": "MAISON DITE DU \"PRIEUR\"", "PROTECTION": "Classé" }, "geometry": { "type": "Point", "coordinates": [ 0.83112, 44.73981 ] } },
{ "type": "Feature", "properties": { "NOM": null, "TYPOLOGIE": null, "IMMEUBLE": "HALLE ET SOL DE LA PLACE", "PROTECTION": "Classé" }, "geometry": { "type": "Point", "coordinates": [ 0.89434, 44.68014 ] } },
{ "type": "Feature", "properties": { "NOM": null, "TYPOLOGIE": null, "IMMEUBLE": "GISEMENT DE COMBE CAPELLE", "PROTECTION": "Classé" }, "geometry": { "type": "Point", "coordinates": [ 0.85017, 44.75269 ] } },
{ "type": "Feature", "properties": { "NOM": null, "TYPOLOGIE": null, "IMMEUBLE": "VESTIGES ANCIENNE ABBAYE", "PROTECTION": "Classé" }, "geometry": { "type": "Point", "coordinates": [ 0.81617, 44.77413 ] } },
{ "type": "Feature", "properties": { "NOM": null, "TYPOLOGIE": null, "IMMEUBLE": "EGLISE", "PROTECTION": "Inscrit" }, "geometry": { "type": "Point", "coordinates": [ 0.93158, 44.72386 ] } },
{ "type": "Feature", "properties": { "NOM": null, "TYPOLOGIE": null, "IMMEUBLE": "MAISON A EMPILAGE SAINT GERMAIN", "PROTECTION": "Classé" }, "geometry": { "type": "Point", "coordinates": [ 0.73358, 44.69127 ] } },
{ "type": "Feature", "properties": { "NOM": null, "TYPOLOGIE": null, "IMMEUBLE": "CHATEAU DE MONTFERRAND", "PROTECTION": "Inscrit" }, "geometry": { "type": "Point", "coordinates": [ 0.8647, 44.74927 ] } },
{ "type": "Feature", "properties": { "NOM": null, "TYPOLOGIE": null, "IMMEUBLE": "EGLISE", "PROTECTION": "Classé" }, "geometry": { "type": "Point", "coordinates": [ 0.89492, 44.68056 ] } },
{ "type": "Feature", "properties": { "NOM": null, "TYPOLOGIE": null, "IMMEUBLE": "TOUR DE BANNES", "PROTECTION": "Partiellement Inscrit" }, "geometry": { "type": "Point", "coordinates": [ 0.76663, 44.76976 ] } },
{ "type": "Feature", "properties": { "NOM": null, "TYPOLOGIE": null, "IMMEUBLE": "MAISONS DE BEAUMONT", "PROTECTION": "Partiellement Inscrit" }, "geometry": { "type": "Point", "coordinates": [ 0.7668, 44.76939 ] } },
{ "type": "Feature", "properties": { "NOM": null, "TYPOLOGIE": null, "IMMEUBLE": "MAISON PARCELLE 166", "PROTECTION": "Partiellement Inscrit" }, "geometry": { "type": "Point", "coordinates": [ 0.76742, 44.76885 ] } },
{ "type": "Feature", "properties": { "NOM": null, "TYPOLOGIE": null, "IMMEUBLE": "MAISON PARCELLE 166", "PROTECTION": "Partiellement Inscrit" }, "geometry": { "type": "Point", "coordinates": [ 0.76725, 44.76909 ] } },
{ "type": "Feature", "properties": { "NOM": null, "TYPOLOGIE": null, "IMMEUBLE": "CHATEAU DE CLERANS", "PROTECTION": "Inscrit" }, "geometry": { "type": "Point", "coordinates": [ 0.66674, 44.86271 ] } },
{ "type": "Feature", "properties": { "NOM": null, "TYPOLOGIE": null, "IMMEUBLE": "CHATEAU DE LA POUJADE", "PROTECTION": "Inscrit" }, "geometry": { "type": "Point", "coordinates": [ 0.9449, 44.81961 ] } },
{ "type": "Feature", "properties": { "NOM": null, "TYPOLOGIE": null, "IMMEUBLE": "CHATEAU (TOUR CIRCULAIRE)", "PROTECTION": "Inscrit" }, "geometry": { "type": "Point", "coordinates": [ 0.72879, 44.80384 ] } },
{ "type": "Feature", "properties": { "NOM": null, "TYPOLOGIE": null, "IMMEUBLE": "GROTTE DE LA CAVAILLE", "PROTECTION": "Inscrit" }, "geometry": { "type": "Point", "coordinates": [ 0.71866, 44.81041 ] } },
{ "type": "Feature", "properties": { "NOM": null, "TYPOLOGIE": null, "IMMEUBLE": "EGLISE", "PROTECTION": "Partiellement Classé" }, "geometry": { "type": "Point", "coordinates": [ 0.64581, 44.89741 ] } },
{ "type": "Feature", "properties": { "NOM": null, "TYPOLOGIE": null, "IMMEUBLE": "BATIMENTS  CONVENTUELS", "PROTECTION": "Classé" }, "geometry": { "type": "Point", "coordinates": [ 0.87374, 44.81127 ] } },
{ "type": "Feature", "properties": { "NOM": null, "TYPOLOGIE": null, "IMMEUBLE": "EGLISE DE CADOUIN", "PROTECTION": "Classé" }, "geometry": { "type": "Point", "coordinates": [ 0.87383, 44.8117 ] } },
{ "type": "Feature", "properties": { "NOM": null, "TYPOLOGIE": null, "IMMEUBLE": "DEPENDANCES COUR ET MUR D'ENCEINTE DU CH", "PROTECTION": "Inscrit" }, "geometry": { "type": "Point", "coordinates": [ 0.6743, 44.8186 ] } },
{ "type": "Feature", "properties": { "NOM": null, "TYPOLOGIE": null, "IMMEUBLE": "CHATEAU DE GENTHIAL", "PROTECTION": "Inscrit" }, "geometry": { "type": "Point", "coordinates": [ 0.66156, 44.88809 ] } },
{ "type": "Feature", "properties": { "NOM": null, "TYPOLOGIE": null, "IMMEUBLE": "LE PETIT ETENDOIR", "PROTECTION": "Inscrit" }, "geometry": { "type": "Point", "coordinates": [ 0.70169, 44.82989 ] } },
{ "type": "Feature", "properties": { "NOM": null, "TYPOLOGIE": null, "IMMEUBLE": "HALLE DE CADOUIN", "PROTECTION": "Classé" }, "geometry": { "type": "Point", "coordinates": [ 0.87325, 44.81147 ] } },
{ "type": "Feature", "properties": { "NOM": null, "TYPOLOGIE": null, "IMMEUBLE": "BATIMENT FACE AU MANOIR", "PROTECTION": "Inscrit" }, "geometry": { "type": "Point", "coordinates": [ 0.70182, 44.83026 ] } },
{ "type": "Feature", "properties": { "NOM": null, "TYPOLOGIE": null, "IMMEUBLE": "EGLISE DE CAUSE", "PROTECTION": "Partiellement Inscrit" }, "geometry": { "type": "Point", "coordinates": [ 0.67552, 44.86642 ] } },
{ "type": "Feature", "properties": { "NOM": null, "TYPOLOGIE": null, "IMMEUBLE": "ETENDOIR DE LA ROUZIQUE", "PROTECTION": "Inscrit" }, "geometry": { "type": "Point", "coordinates": [ 0.7026, 44.82988 ] } },
{ "type": "Feature", "properties": { "NOM": null, "TYPOLOGIE": null, "IMMEUBLE": "RUINES DU CHATEAU FORT", "PROTECTION": "Inscrit" }, "geometry": { "type": "Point", "coordinates": [ 0.82516, 44.81142 ] } },
{ "type": "Feature", "properties": { "NOM": null, "TYPOLOGIE": null, "IMMEUBLE": "ECLUSE DE MAUZAC", "PROTECTION": "Inscrit" }, "geometry": { "type": "Point", "coordinates": [ 0.79957, 44.8625 ] } },
{ "type": "Feature", "properties": { "NOM": null, "TYPOLOGIE": null, "IMMEUBLE": "EGLISE", "PROTECTION": "Classé" }, "geometry": { "type": "Point", "coordinates": [ 0.83097, 44.8759 ] } },
{ "type": "Feature", "properties": { "NOM": null, "TYPOLOGIE": null, "IMMEUBLE": "CHATEAU", "PROTECTION": "Inscrit" }, "geometry": { "type": "Point", "coordinates": [ 0.69001, 44.85246 ] } },
{ "type": "Feature", "properties": { "NOM": null, "TYPOLOGIE": null, "IMMEUBLE": "MANOIR DE LA BOURGONIE", "PROTECTION": "Partiellement Inscrit" }, "geometry": { "type": "Point", "coordinates": [ 0.92614, 44.83781 ] } },
{ "type": "Feature", "properties": { "NOM": null, "TYPOLOGIE": null, "IMMEUBLE": "FOUR A PAIN", "PROTECTION": "Inscrit" }, "geometry": { "type": "Point", "coordinates": [ 0.9468, 44.81291 ] } },
{ "type": "Feature", "properties": { "NOM": null, "TYPOLOGIE": null, "IMMEUBLE": "RUINES DU CHATEAU DE LONGAS", "PROTECTION": "Inscrit" }, "geometry": { "type": "Point", "coordinates": [ 0.76177, 44.9335 ] } },
{ "type": "Feature", "properties": { "NOM": null, "TYPOLOGIE": null, "IMMEUBLE": "EGLISE DE CABANS", "PROTECTION": "Inscrit" }, "geometry": { "type": "Point", "coordinates": [ 0.92113, 44.85009 ] } },
{ "type": "Feature", "properties": { "NOM": null, "TYPOLOGIE": null, "IMMEUBLE": "GISEMENT DE LA GRAVETTE", "PROTECTION": "Classé" }, "geometry": { "type": "Point", "coordinates": [ 0.73227, 44.80432 ] } },
{ "type": "Feature", "properties": { "NOM": null, "TYPOLOGIE": null, "IMMEUBLE": "CHATEAU DE GARRAUBE", "PROTECTION": "Partiellement Inscrit" }, "geometry": { "type": "Point", "coordinates": [ 0.64888, 44.86589 ] } },
{ "type": "Feature", "properties": { "NOM": null, "TYPOLOGIE": null, "IMMEUBLE": "AQUEDUC DU PORT DE LANQUAIS", "PROTECTION": "Inscrit" }, "geometry": { "type": "Point", "coordinates": [ 0.67344, 44.83942 ] } },
{ "type": "Feature", "properties": { "NOM": null, "TYPOLOGIE": null, "IMMEUBLE": "ANCIENNE EGLISE SAINT HILAIRE", "PROTECTION": "Inscrit" }, "geometry": { "type": "Point", "coordinates": [ 0.82866, 44.87461 ] } },
{ "type": "Feature", "properties": { "NOM": null, "TYPOLOGIE": null, "IMMEUBLE": "MANOIR DE SAUTET", "PROTECTION": "Inscrit" }, "geometry": { "type": "Point", "coordinates": [ 0.8144, 44.79853 ] } },
{ "type": "Feature", "properties": { "NOM": null, "TYPOLOGIE": null, "IMMEUBLE": "BASSIN DE STATIONNEMENT", "PROTECTION": "Inscrit" }, "geometry": { "type": "Point", "coordinates": [ 0.64903, 44.8426 ] } },
{ "type": "Feature", "properties": { "NOM": null, "TYPOLOGIE": null, "IMMEUBLE": "MAISON DITE DES CONTREMAITRES", "PROTECTION": "Inscrit" }, "geometry": { "type": "Point", "coordinates": [ 0.70149, 44.82886 ] } },
{ "type": "Feature", "properties": { "NOM": null, "TYPOLOGIE": null, "IMMEUBLE": "EGLISE", "PROTECTION": "Inscrit" }, "geometry": { "type": "Point", "coordinates": [ 0.82419, 44.81011 ] } },
{ "type": "Feature", "properties": { "NOM": null, "TYPOLOGIE": null, "IMMEUBLE": "MAISON A ARCADES DU 14?me", "PROTECTION": "Classé" }, "geometry": { "type": "Point", "coordinates": [ 0.82442, 44.81088 ] } },
{ "type": "Feature", "properties": { "NOM": null, "TYPOLOGIE": null, "IMMEUBLE": "PORTE DE L`ANCIENNE ABBAYE DE CADOUIN", "PROTECTION": "Inscrit" }, "geometry": { "type": "Point", "coordinates": [ 0.87271, 44.81177 ] } },
{ "type": "Feature", "properties": { "NOM": null, "TYPOLOGIE": null, "IMMEUBLE": "EGLISE SAINTE COLOMBE", "PROTECTION": "Inscrit" }, "geometry": { "type": "Point", "coordinates": [ 0.73686, 44.87373 ] } },
{ "type": "Feature", "properties": { "NOM": null, "TYPOLOGIE": null, "IMMEUBLE": "MOULINS DE MERLE ET MANOIR SOUS LE ROC", "PROTECTION": "Inscrit" }, "geometry": { "type": "Point", "coordinates": [ 0.70216, 44.83012 ] } },
{ "type": "Feature", "properties": { "NOM": null, "TYPOLOGIE": null, "IMMEUBLE": "CHATEAU DE MONTBRUN", "PROTECTION": "Inscrit" }, "geometry": { "type": "Point", "coordinates": [ 0.6406, 44.82508 ] } },
{ "type": "Feature", "properties": { "NOM": null, "TYPOLOGIE": null, "IMMEUBLE": "CHATEAU DE LA RUE", "PROTECTION": "Inscrit" }, "geometry": { "type": "Point", "coordinates": [ 0.77825, 44.85487 ] } },
{ "type": "Feature", "properties": { "NOM": null, "TYPOLOGIE": null, "IMMEUBLE": "GISEMENT DES JEAN-BLANCS", "PROTECTION": "Classé" }, "geometry": { "type": "Point", "coordinates": [ 0.74605, 44.79916 ] } },
{ "type": "Feature", "properties": { "NOM": null, "TYPOLOGIE": null, "IMMEUBLE": "CHATEAU DE LAROQUE", "PROTECTION": "Inscrit" }, "geometry": { "type": "Point", "coordinates": [ 0.6702, 44.82737 ] } },
{ "type": "Feature", "properties": { "NOM": null, "TYPOLOGIE": null, "IMMEUBLE": "ECLUSE DE LA BORIE-BASSE", "PROTECTION": "Inscrit" }, "geometry": { "type": "Point", "coordinates": [ 0.68014, 44.83747 ] } },
{ "type": "Feature", "properties": { "NOM": null, "TYPOLOGIE": null, "IMMEUBLE": "EGLISE", "PROTECTION": "Inscrit" }, "geometry": { "type": "Point", "coordinates": [ 0.69017, 44.85292 ] } },
{ "type": "Feature", "properties": { "NOM": null, "TYPOLOGIE": null, "IMMEUBLE": "PORTE DITE ROMAINE", "PROTECTION": "Inscrit" }, "geometry": { "type": "Point", "coordinates": [ 0.7365, 44.83604 ] } },
{ "type": "Feature", "properties": { "NOM": null, "TYPOLOGIE": null, "IMMEUBLE": "MOULIN DE LA ROUZIQUE", "PROTECTION": "Inscrit" }, "geometry": { "type": "Point", "coordinates": [ 0.70207, 44.82955 ] } },
{ "type": "Feature", "properties": { "NOM": null, "TYPOLOGIE": null, "IMMEUBLE": "ECLUSE ET BASSIN DE CHARGEMENT", "PROTECTION": "Inscrit" }, "geometry": { "type": "Point", "coordinates": [ 0.73976, 44.83806 ] } },
{ "type": "Feature", "properties": { "NOM": null, "TYPOLOGIE": null, "IMMEUBLE": "CHAPELLE SAINT-FRONT DE COLUBRI", "PROTECTION": "Inscrit" }, "geometry": { "type": "Point", "coordinates": [ 0.74016, 44.83305 ] } },
{ "type": "Feature", "properties": { "NOM": null, "TYPOLOGIE": null, "IMMEUBLE": "GISEMENT SOLUTREEN DU MALPAS", "PROTECTION": "Classé" }, "geometry": { "type": "Point", "coordinates": [ 0.75775, 44.79713 ] } },
{ "type": "Feature", "properties": { "NOM": null, "TYPOLOGIE": null, "IMMEUBLE": "MOULIN DES GUILLANDOUX", "PROTECTION": "Inscrit" }, "geometry": { "type": "Point", "coordinates": [ 0.70204, 44.8286 ] } },
{ "type": "Feature", "properties": { "NOM": null, "TYPOLOGIE": null, "IMMEUBLE": "EGLISE", "PROTECTION": "Inscrit" }, "geometry": { "type": "Point", "coordinates": [ 0.94703, 44.81293 ] } },
{ "type": "Feature", "properties": { "NOM": null, "TYPOLOGIE": null, "IMMEUBLE": "MOULIN DE LARROQUE", "PROTECTION": "Inscrit" }, "geometry": { "type": "Point", "coordinates": [ 0.70574, 44.8269 ] } },
{ "type": "Feature", "properties": { "NOM": null, "TYPOLOGIE": null, "IMMEUBLE": "PONT-CANAL ET MUR ENCAISSEMENT", "PROTECTION": "Inscrit" }, "geometry": { "type": "Point", "coordinates": [ 0.65289, 44.84155 ] } },
{ "type": "Feature", "properties": { "NOM": null, "TYPOLOGIE": null, "IMMEUBLE": "CLOITRE", "PROTECTION": "Classé" }, "geometry": { "type": "Point", "coordinates": [ 0.87373, 44.81148 ] } },
{ "type": "Feature", "properties": { "NOM": null, "TYPOLOGIE": null, "IMMEUBLE": "CHATEAU DE LA BOURLIE", "PROTECTION": "Inscrit" }, "geometry": { "type": "Point", "coordinates": [ 0.94912, 44.80332 ] } },
{ "type": "Feature", "properties": { "NOM": null, "TYPOLOGIE": null, "IMMEUBLE": "CHATEAU DE BANNES", "PROTECTION": "Inscrit" }, "geometry": { "type": "Point", "coordinates": [ 0.74893, 44.79496 ] } },
{ "type": "Feature", "properties": { "NOM": null, "TYPOLOGIE": null, "IMMEUBLE": "AQUEDUC ET PONT DEVERSOIR DE LA TUILIERE", "PROTECTION": "Inscrit" }, "geometry": { "type": "Point", "coordinates": [ 0.77968, 44.84437 ] } },
{ "type": "Feature", "properties": { "NOM": null, "TYPOLOGIE": null, "IMMEUBLE": "MAISON JARDEL", "PROTECTION": "Inscrit" }, "geometry": { "type": "Point", "coordinates": [ 0.7016, 44.82958 ] } },
{ "type": "Feature", "properties": { "NOM": null, "TYPOLOGIE": null, "IMMEUBLE": "CHATEAU DE LAFFINOUX", "PROTECTION": "Inscrit" }, "geometry": { "type": "Point", "coordinates": [ 0.74081, 44.87334 ] } },
{ "type": "Feature", "properties": { "NOM": null, "TYPOLOGIE": null, "IMMEUBLE": "GROTTE DE CUSSAC", "PROTECTION": "Classé" }, "geometry": { "type": "Point", "coordinates": [ 0.84975, 44.82906 ] } },
{ "type": "Feature", "properties": { "NOM": null, "TYPOLOGIE": null, "IMMEUBLE": "CHATEAU ET ALLEE D`ORMEAUX", "PROTECTION": "Classé" }, "geometry": { "type": "Point", "coordinates": [ 0.67358, 44.82078 ] } },
{ "type": "Feature", "properties": { "NOM": null, "TYPOLOGIE": null, "IMMEUBLE": "EGLISE", "PROTECTION": "Inscrit" }, "geometry": { "type": "Point", "coordinates": [ 0.74549, 44.89841 ] } },
{ "type": "Feature", "properties": { "NOM": null, "TYPOLOGIE": null, "IMMEUBLE": "EGLISE", "PROTECTION": "Inscrit" }, "geometry": { "type": "Point", "coordinates": [ 0.72142, 44.89532 ] } },
{ "type": "Feature", "properties": { "NOM": null, "TYPOLOGIE": null, "IMMEUBLE": "BASSIN DE RADOUB", "PROTECTION": "Inscrit" }, "geometry": { "type": "Point", "coordinates": [ 0.63431, 44.84675 ] } }
]
}
