{
"type": "FeatureCollection",
"crs": { "type": "name", "properties": { "name": "urn:ogc:def:crs:OGC:1.3:CRS84" } },
"name": "PPRI",
"color": "#A1DAF8",
"active": "false",
"interactive": "false",
"description": "Un Plan de Prévention des Risques, ou PPR, est une servitude d'utilité publique de droit français",

"features": [
{ "type": "Feature", "properties": { "commune": "Sous bassin Caudeau", "nom": "Zone rouge", "nomrisque": "Inondation", "IDCAUE_EPC": 21 }, "geometry": { "type": "MultiPolygon", "coordinates": [ [ [ [ 0.62836, 44.9272 ], [ 0.62854, 44.92707 ], [ 0.62863, 44.92698 ], [ 0.62873, 44.92686 ], [ 0.6288, 44.92677 ], [ 0.6288, 44.92674 ], [ 0.62882, 44.92669 ], [ 0.62892, 44.9266 ], [ 0.62905, 44.92649 ], [ 0.62911, 44.92641 ], [ 0.6292, 44.92633 ], [ 0.62927, 44.92621 ], [ 0.62931, 44.92612 ], [ 0.62936, 44.92607 ], [ 0.6294, 44.92602 ], [ 0.62943, 44.92599 ], [ 0.6295, 44.92594 ], [ 0.62959, 44.92592 ], [ 0.62961, 44.92589 ], [ 0.62961, 44.92584 ], [ 0.62962, 44.92582 ], [ 0.62965, 44.92581 ], [ 0.62965, 44.92578 ], [ 0.62966, 44.92576 ], [ 0.62971, 44.92572 ], [ 0.62978, 44.92562 ], [ 0.62985, 44.92555 ], [ 0.62991, 44.92549 ], [ 0.62998, 44.92545 ], [ 0.63011, 44.92538 ], [ 0.6302, 44.92532 ], [ 0.63026, 44.92525 ], [ 0.63027, 44.92521 ], [ 0.63031, 44.92517 ], [ 0.6304, 44.92511 ], [ 0.63043, 44.9251 ], [ 0.63049, 44.92502 ], [ 0.63055, 44.92495 ], [ 0.6306, 44.92491 ], [ 0.63065, 44.92486 ], [ 0.63078, 44.92474 ], [ 0.63085, 44.92467 ], [ 0.63089, 44.92463 ], [ 0.63085, 44.92458 ], [ 0.63083, 44.92451 ], [ 0.63084, 44.92444 ], [ 0.63084, 44.92437 ], [ 0.6308, 44.9243 ], [ 0.63073, 44.92427 ], [ 0.63069, 44.92424 ], [ 0.6307, 44.92421 ], [ 0.63075, 44.92416 ], [ 0.63082, 44.92409 ], [ 0.63089, 44.92399 ], [ 0.63095, 44.92382 ], [ 0.63098, 44.9237 ], [ 0.63099, 44.92362 ], [ 0.63102, 44.92353 ], [ 0.63103, 44.92344 ], [ 0.63097, 44.92337 ], [ 0.63086, 44.92332 ], [ 0.63063, 44.92323 ], [ 0.63055, 44.92321 ], [ 0.63027, 44.92323 ], [ 0.63005, 44.92327 ], [ 0.63005, 44.92324 ], [ 0.63017, 44.92322 ], [ 0.63032, 44.9232 ], [ 0.63036, 44.92318 ], [ 0.6304, 44.92314 ], [ 0.63041, 44.92307 ], [ 0.63038, 44.92304 ], [ 0.63035, 44.92296 ], [ 0.63037, 44.92293 ], [ 0.63036, 44.92287 ], [ 0.6304, 44.92279 ], [ 0.63043, 44.92271 ], [ 0.63044, 44.92261 ], [ 0.63046, 44.92253 ], [ 0.63056, 44.9224 ], [ 0.63064, 44.92233 ], [ 0.63067, 44.92227 ], [ 0.63068, 44.92223 ], [ 0.63065, 44.92215 ], [ 0.63065, 44.92206 ], [ 0.6306, 44.92194 ], [ 0.63053, 44.9218 ], [ 0.63046, 44.92167 ], [ 0.6304, 44.92157 ], [ 0.63034, 44.92148 ], [ 0.63031, 44.92141 ], [ 0.63028, 44.92133 ], [ 0.63022, 44.92127 ], [ 0.63016, 44.92118 ], [ 0.6301, 44.92113 ], [ 0.63, 44.92113 ], [ 0.62993, 44.92111 ], [ 0.62986, 44.92111 ], [ 0.62972, 44.9212 ], [ 0.62956, 44.92129 ], [ 0.62941, 44.92133 ], [ 0.6291, 44.92137 ], [ 0.62886, 44.9214 ], [ 0.62883, 44.92141 ], [ 0.62883, 44.92141 ], [ 0.62885, 44.92153 ], [ 0.62885, 44.92158 ], [ 0.62887, 44.92167 ], [ 0.6289, 44.92176 ], [ 0.62893, 44.9219 ], [ 0.62894, 44.92193 ], [ 0.62895, 44.92198 ], [ 0.62896, 44.92204 ], [ 0.62896, 44.92214 ], [ 0.62896, 44.92216 ], [ 0.62898, 44.92225 ], [ 0.62902, 44.92239 ], [ 0.62903, 44.92244 ], [ 0.62905, 44.9225 ], [ 0.62911, 44.92273 ], [ 0.62912, 44.92275 ], [ 0.62913, 44.92285 ], [ 0.62913, 44.92285 ], [ 0.62913, 44.92292 ], [ 0.62912, 44.92298 ], [ 0.62911, 44.92301 ], [ 0.62911, 44.92306 ], [ 0.62911, 44.92309 ], [ 0.62916, 44.92321 ], [ 0.62916, 44.92322 ], [ 0.62919, 44.92332 ], [ 0.62921, 44.92341 ], [ 0.62925, 44.92352 ], [ 0.62929, 44.92369 ], [ 0.62935, 44.92388 ], [ 0.62935, 44.9239 ], [ 0.6294, 44.92418 ], [ 0.6294, 44.9242 ], [ 0.62945, 44.92446 ], [ 0.62945, 44.92448 ], [ 0.62947, 44.92451 ], [ 0.62954, 44.92457 ], [ 0.62956, 44.92461 ], [ 0.62956, 44.92463 ], [ 0.62956, 44.92464 ], [ 0.62954, 44.92467 ], [ 0.62948, 44.92469 ], [ 0.6294, 44.9247 ], [ 0.62938, 44.92472 ], [ 0.62936, 44.92472 ], [ 0.62934, 44.92475 ], [ 0.62931, 44.92477 ], [ 0.62931, 44.92478 ], [ 0.62931, 44.92479 ], [ 0.62931, 44.92482 ], [ 0.62931, 44.92484 ], [ 0.62936, 44.92493 ], [ 0.62937, 44.92495 ], [ 0.62937, 44.92497 ], [ 0.62937, 44.92501 ], [ 0.62935, 44.92503 ], [ 0.62931, 44.92505 ], [ 0.6293, 44.92506 ], [ 0.62914, 44.92511 ], [ 0.6291, 44.92512 ], [ 0.62888, 44.92519 ], [ 0.62887, 44.9252 ], [ 0.62874, 44.92524 ], [ 0.62869, 44.92527 ], [ 0.62851, 44.92535 ], [ 0.62846, 44.92536 ], [ 0.6283, 44.92543 ], [ 0.62819, 44.92548 ], [ 0.62802, 44.9255 ], [ 0.62783, 44.92552 ], [ 0.62773, 44.92555 ], [ 0.6276, 44.92558 ], [ 0.62761, 44.9256 ], [ 0.62772, 44.92569 ], [ 0.62772, 44.92569 ], [ 0.6281, 44.926 ], [ 0.62845, 44.92606 ], [ 0.62854, 44.92607 ], [ 0.62837, 44.92623 ], [ 0.62837, 44.92624 ], [ 0.62828, 44.92633 ], [ 0.62825, 44.92635 ], [ 0.62821, 44.92639 ], [ 0.62814, 44.92646 ], [ 0.62811, 44.92649 ], [ 0.62807, 44.92653 ], [ 0.62804, 44.92655 ], [ 0.62803, 44.92655 ], [ 0.62803, 44.92656 ], [ 0.62799, 44.92659 ], [ 0.62799, 44.9266 ], [ 0.62796, 44.92661 ], [ 0.62795, 44.92662 ], [ 0.6279, 44.92663 ], [ 0.62789, 44.92664 ], [ 0.62787, 44.92664 ], [ 0.62787, 44.92665 ], [ 0.6278, 44.92667 ], [ 0.62778, 44.92667 ], [ 0.62775, 44.92668 ], [ 0.62773, 44.92668 ], [ 0.62772, 44.92669 ], [ 0.62775, 44.92686 ], [ 0.62775, 44.92686 ], [ 0.62775, 44.92688 ], [ 0.62775, 44.92695 ], [ 0.62775, 44.92703 ], [ 0.62775, 44.92708 ], [ 0.62776, 44.92709 ], [ 0.62786, 44.92712 ], [ 0.62793, 44.92715 ], [ 0.62795, 44.92716 ], [ 0.62796, 44.92716 ], [ 0.62797, 44.92716 ], [ 0.62797, 44.92716 ], [ 0.628, 44.92716 ], [ 0.62805, 44.92718 ], [ 0.62828, 44.92726 ], [ 0.62836, 44.9272 ] ] ] ] } },
{ "type": "Feature", "properties": { "commune": "Sous bassin Dordogne centre", "nom": "Zone rouge", "nomrisque": "Multirisque", "IDCAUE_EPC": 21 }, "geometry": { "type": "MultiPolygon", "coordinates": [ [ [ [ 0.80952, 44.85283 ], [ 0.80932, 44.85308 ], [ 0.8091, 44.85333 ], [ 0.80891, 44.85373 ], [ 0.80876, 44.85399 ], [ 0.80884, 44.85402 ], [ 0.80898, 44.85404 ], [ 0.8093, 44.85407 ], [ 0.80945, 44.85409 ], [ 0.80956, 44.85413 ], [ 0.80971, 44.85414 ], [ 0.80983, 44.85414 ], [ 0.80988, 44.85404 ], [ 0.8099, 44.85387 ], [ 0.81002, 44.85352 ], [ 0.8102, 44.85319 ], [ 0.81036, 44.85275 ], [ 0.80968, 44.85257 ], [ 0.80952, 44.85283 ] ] ] ] } },
{ "type": "Feature", "properties": { "commune": "Val de Louyre et Caudeau", "nom": "Zone rouge", "nomrisque": "Inondation", "IDCAUE_EPC": 21 }, "geometry": { "type": "MultiPolygon", "coordinates": [ [ [ [ 0.69362, 44.95447 ], [ 0.69356, 44.95447 ], [ 0.69362, 44.95448 ], [ 0.69363, 44.95447 ], [ 0.69362, 44.95447 ] ] ], [ [ [ 0.69347, 44.95444 ], [ 0.6934, 44.95441 ], [ 0.6934, 44.95438 ], [ 0.69339, 44.95431 ], [ 0.69331, 44.95425 ], [ 0.69324, 44.95422 ], [ 0.69314, 44.95419 ], [ 0.69309, 44.95419 ], [ 0.69297, 44.95416 ], [ 0.69289, 44.95411 ], [ 0.69281, 44.95409 ], [ 0.69265, 44.95409 ], [ 0.69253, 44.95418 ], [ 0.69247, 44.95424 ], [ 0.69251, 44.95425 ], [ 0.69253, 44.95425 ], [ 0.69285, 44.95432 ], [ 0.69287, 44.95433 ], [ 0.693, 44.95435 ], [ 0.69314, 44.95438 ], [ 0.69318, 44.95439 ], [ 0.69349, 44.95445 ], [ 0.69353, 44.95446 ], [ 0.69347, 44.95444 ] ] ] ] } },
{ "type": "Feature", "properties": { "commune": "Sous bassin Caudeau", "nom": "Zone rouge", "nomrisque": "Inondation", "IDCAUE_EPC": 21 }, "geometry": { "type": "MultiPolygon", "coordinates": [ [ [ [ 0.67657, 44.95517 ], [ 0.67662, 44.95521 ], [ 0.67693, 44.95508 ], [ 0.67713, 44.95499 ], [ 0.67718, 44.95498 ], [ 0.67719, 44.95498 ], [ 0.67739, 44.9549 ], [ 0.67754, 44.95485 ], [ 0.67762, 44.95481 ], [ 0.67762, 44.9548 ], [ 0.67764, 44.95478 ], [ 0.67766, 44.95473 ], [ 0.67767, 44.9547 ], [ 0.67769, 44.95465 ], [ 0.67773, 44.95449 ], [ 0.67777, 44.95436 ], [ 0.67778, 44.95431 ], [ 0.67782, 44.95429 ], [ 0.67791, 44.95425 ], [ 0.67804, 44.95419 ], [ 0.67808, 44.95417 ], [ 0.67809, 44.95416 ], [ 0.67814, 44.95413 ], [ 0.67822, 44.95407 ], [ 0.67825, 44.95405 ], [ 0.67826, 44.95405 ], [ 0.6783, 44.95403 ], [ 0.67831, 44.95403 ], [ 0.6784, 44.95404 ], [ 0.67841, 44.95404 ], [ 0.67858, 44.95405 ], [ 0.67869, 44.95406 ], [ 0.6787, 44.95406 ], [ 0.67874, 44.95405 ], [ 0.67885, 44.954 ], [ 0.67892, 44.95396 ], [ 0.67903, 44.95392 ], [ 0.67909, 44.9539 ], [ 0.67923, 44.95385 ], [ 0.67931, 44.95383 ], [ 0.67945, 44.95378 ], [ 0.67949, 44.95377 ], [ 0.67958, 44.95373 ], [ 0.67961, 44.9537 ], [ 0.67969, 44.95366 ], [ 0.67981, 44.95361 ], [ 0.67982, 44.95361 ], [ 0.67987, 44.95359 ], [ 0.67995, 44.95356 ], [ 0.68005, 44.95353 ], [ 0.68015, 44.95347 ], [ 0.68026, 44.95342 ], [ 0.68035, 44.95339 ], [ 0.68045, 44.95334 ], [ 0.68056, 44.9533 ], [ 0.68063, 44.95326 ], [ 0.68067, 44.95324 ], [ 0.68067, 44.95323 ], [ 0.68068, 44.95323 ], [ 0.68089, 44.95311 ], [ 0.6809, 44.9531 ], [ 0.681, 44.95306 ], [ 0.68108, 44.95304 ], [ 0.68109, 44.95304 ], [ 0.6811, 44.95304 ], [ 0.68114, 44.95303 ], [ 0.68128, 44.953 ], [ 0.68137, 44.95299 ], [ 0.68149, 44.95296 ], [ 0.68155, 44.95295 ], [ 0.68158, 44.95295 ], [ 0.68163, 44.95294 ], [ 0.68168, 44.95292 ], [ 0.68177, 44.9529 ], [ 0.68178, 44.9529 ], [ 0.68182, 44.9529 ], [ 0.68193, 44.95287 ], [ 0.68198, 44.95286 ], [ 0.682, 44.95286 ], [ 0.68205, 44.95285 ], [ 0.6822, 44.95285 ], [ 0.68221, 44.95285 ], [ 0.68222, 44.95285 ], [ 0.68225, 44.95285 ], [ 0.68228, 44.95285 ], [ 0.6823, 44.95284 ], [ 0.68231, 44.95284 ], [ 0.68258, 44.9528 ], [ 0.68262, 44.9528 ], [ 0.68263, 44.9528 ], [ 0.68286, 44.95276 ], [ 0.68301, 44.95273 ], [ 0.68304, 44.95273 ], [ 0.68318, 44.95272 ], [ 0.68319, 44.95272 ], [ 0.68322, 44.95272 ], [ 0.68329, 44.95272 ], [ 0.68338, 44.95272 ], [ 0.6835, 44.95272 ], [ 0.68353, 44.95272 ], [ 0.68355, 44.95272 ], [ 0.68374, 44.95274 ], [ 0.6839, 44.95274 ], [ 0.68399, 44.95275 ], [ 0.68408, 44.95275 ], [ 0.68417, 44.95275 ], [ 0.68418, 44.95275 ], [ 0.68451, 44.95276 ], [ 0.68476, 44.95277 ], [ 0.68479, 44.95277 ], [ 0.6848, 44.95277 ], [ 0.68493, 44.95278 ], [ 0.68517, 44.95279 ], [ 0.68538, 44.9528 ], [ 0.68566, 44.95282 ], [ 0.68572, 44.95282 ], [ 0.68603, 44.95284 ], [ 0.68625, 44.95285 ], [ 0.6863, 44.95286 ], [ 0.68634, 44.95286 ], [ 0.68637, 44.95286 ], [ 0.68662, 44.95289 ], [ 0.68667, 44.95289 ], [ 0.68678, 44.95289 ], [ 0.68681, 44.9529 ], [ 0.68687, 44.9529 ], [ 0.68691, 44.9529 ], [ 0.68692, 44.9529 ], [ 0.68708, 44.95292 ], [ 0.68709, 44.95292 ], [ 0.68714, 44.95293 ], [ 0.68721, 44.95295 ], [ 0.68725, 44.95296 ], [ 0.68726, 44.95296 ], [ 0.6873, 44.95298 ], [ 0.68738, 44.95301 ], [ 0.68745, 44.95305 ], [ 0.68746, 44.95306 ], [ 0.68748, 44.95306 ], [ 0.68761, 44.95314 ], [ 0.68765, 44.95316 ], [ 0.68768, 44.95318 ], [ 0.68775, 44.95323 ], [ 0.68779, 44.95325 ], [ 0.6878, 44.95325 ], [ 0.68783, 44.95326 ], [ 0.68783, 44.95327 ], [ 0.68789, 44.9533 ], [ 0.68799, 44.95337 ], [ 0.688, 44.95337 ], [ 0.68805, 44.9534 ], [ 0.6881, 44.95344 ], [ 0.68811, 44.95344 ], [ 0.68832, 44.9536 ], [ 0.68833, 44.9536 ], [ 0.68835, 44.95361 ], [ 0.68836, 44.95362 ], [ 0.68837, 44.95363 ], [ 0.68838, 44.95364 ], [ 0.68842, 44.95365 ], [ 0.68848, 44.95367 ], [ 0.68859, 44.9537 ], [ 0.68859, 44.95371 ], [ 0.6886, 44.95371 ], [ 0.68866, 44.95373 ], [ 0.68875, 44.95377 ], [ 0.6888, 44.95379 ], [ 0.68882, 44.9538 ], [ 0.68884, 44.9538 ], [ 0.68906, 44.95387 ], [ 0.68909, 44.95388 ], [ 0.68911, 44.95389 ], [ 0.68928, 44.95392 ], [ 0.68941, 44.95396 ], [ 0.6895, 44.95398 ], [ 0.68969, 44.95402 ], [ 0.6898, 44.95405 ], [ 0.68991, 44.95406 ], [ 0.68996, 44.95407 ], [ 0.68998, 44.95407 ], [ 0.69008, 44.95408 ], [ 0.69027, 44.95411 ], [ 0.69035, 44.95413 ], [ 0.69036, 44.95413 ], [ 0.69037, 44.95413 ], [ 0.69048, 44.95419 ], [ 0.69063, 44.95426 ], [ 0.69066, 44.95427 ], [ 0.69068, 44.95429 ], [ 0.69078, 44.95434 ], [ 0.69091, 44.95441 ], [ 0.69093, 44.95442 ], [ 0.69098, 44.95444 ], [ 0.691, 44.95444 ], [ 0.69101, 44.95444 ], [ 0.69105, 44.95444 ], [ 0.6911, 44.95444 ], [ 0.69111, 44.95444 ], [ 0.69114, 44.95443 ], [ 0.69116, 44.95443 ], [ 0.69117, 44.95443 ], [ 0.69133, 44.9544 ], [ 0.69142, 44.95439 ], [ 0.69163, 44.95435 ], [ 0.69187, 44.9543 ], [ 0.69189, 44.9543 ], [ 0.69193, 44.9543 ], [ 0.69222, 44.95424 ], [ 0.69231, 44.95422 ], [ 0.69233, 44.95422 ], [ 0.69235, 44.95422 ], [ 0.69237, 44.95419 ], [ 0.69244, 44.9541 ], [ 0.69242, 44.95407 ], [ 0.69228, 44.95402 ], [ 0.69216, 44.95394 ], [ 0.69176, 44.95378 ], [ 0.6915, 44.9537 ], [ 0.69119, 44.95354 ], [ 0.69104, 44.95351 ], [ 0.69087, 44.95345 ], [ 0.69067, 44.95339 ], [ 0.69051, 44.95333 ], [ 0.69036, 44.95325 ], [ 0.69018, 44.95316 ], [ 0.69008, 44.95307 ], [ 0.68993, 44.95291 ], [ 0.68976, 44.95278 ], [ 0.68964, 44.9527 ], [ 0.6895, 44.95267 ], [ 0.6893, 44.95263 ], [ 0.68911, 44.95261 ], [ 0.68893, 44.95259 ], [ 0.68881, 44.95259 ], [ 0.68871, 44.95259 ], [ 0.68863, 44.95262 ], [ 0.68858, 44.95263 ], [ 0.68849, 44.95263 ], [ 0.68845, 44.9526 ], [ 0.68838, 44.95257 ], [ 0.68835, 44.95256 ], [ 0.68824, 44.95256 ], [ 0.68816, 44.95259 ], [ 0.68807, 44.95261 ], [ 0.68797, 44.95259 ], [ 0.68773, 44.9525 ], [ 0.6876, 44.95244 ], [ 0.68749, 44.9524 ], [ 0.68744, 44.95236 ], [ 0.68746, 44.95232 ], [ 0.68739, 44.9523 ], [ 0.68722, 44.95226 ], [ 0.68709, 44.95226 ], [ 0.68682, 44.95224 ], [ 0.68667, 44.95224 ], [ 0.68651, 44.9522 ], [ 0.68628, 44.9522 ], [ 0.6861, 44.95223 ], [ 0.68588, 44.95222 ], [ 0.68572, 44.95222 ], [ 0.6856, 44.95222 ], [ 0.68549, 44.95226 ], [ 0.68539, 44.95229 ], [ 0.68528, 44.9523 ], [ 0.68526, 44.95225 ], [ 0.68516, 44.95222 ], [ 0.68504, 44.95221 ], [ 0.68485, 44.95219 ], [ 0.68464, 44.95217 ], [ 0.68439, 44.95217 ], [ 0.6842, 44.95219 ], [ 0.68397, 44.95222 ], [ 0.68373, 44.95227 ], [ 0.68355, 44.9523 ], [ 0.68337, 44.95233 ], [ 0.68319, 44.95238 ], [ 0.68307, 44.95242 ], [ 0.68285, 44.95248 ], [ 0.68266, 44.95253 ], [ 0.6825, 44.95257 ], [ 0.68236, 44.95261 ], [ 0.68225, 44.9526 ], [ 0.68218, 44.95262 ], [ 0.68209, 44.95264 ], [ 0.68192, 44.95264 ], [ 0.68181, 44.95263 ], [ 0.68168, 44.95265 ], [ 0.6815, 44.9527 ], [ 0.68129, 44.95274 ], [ 0.68106, 44.9528 ], [ 0.68088, 44.95288 ], [ 0.68076, 44.95294 ], [ 0.68061, 44.95299 ], [ 0.68043, 44.95304 ], [ 0.68025, 44.95311 ], [ 0.68016, 44.95315 ], [ 0.67997, 44.95319 ], [ 0.67981, 44.95323 ], [ 0.67961, 44.9533 ], [ 0.67946, 44.95337 ], [ 0.67933, 44.95346 ], [ 0.67928, 44.95349 ], [ 0.67911, 44.95352 ], [ 0.67893, 44.95354 ], [ 0.6788, 44.95355 ], [ 0.67865, 44.95357 ], [ 0.67847, 44.9536 ], [ 0.67839, 44.95362 ], [ 0.67836, 44.95367 ], [ 0.6783, 44.95368 ], [ 0.67827, 44.95364 ], [ 0.67822, 44.95363 ], [ 0.67811, 44.95366 ], [ 0.67797, 44.9537 ], [ 0.67795, 44.95375 ], [ 0.67782, 44.95379 ], [ 0.6777, 44.95381 ], [ 0.67751, 44.95383 ], [ 0.67728, 44.95386 ], [ 0.6771, 44.95387 ], [ 0.67687, 44.95391 ], [ 0.67667, 44.95396 ], [ 0.67643, 44.95401 ], [ 0.67626, 44.95406 ], [ 0.67612, 44.95412 ], [ 0.67603, 44.95422 ], [ 0.67602, 44.95427 ], [ 0.67597, 44.95433 ], [ 0.67607, 44.95453 ], [ 0.67603, 44.95455 ], [ 0.67592, 44.95447 ], [ 0.67585, 44.95434 ], [ 0.6757, 44.95418 ], [ 0.67564, 44.95414 ], [ 0.67555, 44.95411 ], [ 0.67545, 44.95412 ], [ 0.67536, 44.95413 ], [ 0.67524, 44.95413 ], [ 0.67511, 44.95411 ], [ 0.67497, 44.9541 ], [ 0.67483, 44.95409 ], [ 0.67479, 44.95405 ], [ 0.67468, 44.95405 ], [ 0.67458, 44.95405 ], [ 0.67447, 44.95408 ], [ 0.6744, 44.95413 ], [ 0.67429, 44.95414 ], [ 0.67423, 44.95411 ], [ 0.67419, 44.95407 ], [ 0.67415, 44.95403 ], [ 0.67404, 44.95401 ], [ 0.67388, 44.95401 ], [ 0.67378, 44.95399 ], [ 0.67366, 44.95397 ], [ 0.67357, 44.95397 ], [ 0.67348, 44.95399 ], [ 0.67338, 44.95397 ], [ 0.67329, 44.95395 ], [ 0.6732, 44.9539 ], [ 0.67311, 44.95387 ], [ 0.67292, 44.95384 ], [ 0.67274, 44.95381 ], [ 0.67262, 44.95378 ], [ 0.67248, 44.95378 ], [ 0.67236, 44.95379 ], [ 0.67223, 44.95379 ], [ 0.67204, 44.95383 ], [ 0.67187, 44.95384 ], [ 0.67162, 44.95383 ], [ 0.67148, 44.9538 ], [ 0.67131, 44.95378 ], [ 0.67117, 44.95374 ], [ 0.67104, 44.95372 ], [ 0.67089, 44.95371 ], [ 0.67071, 44.9537 ], [ 0.67053, 44.9537 ], [ 0.6703, 44.9537 ], [ 0.67021, 44.9537 ], [ 0.67002, 44.95367 ], [ 0.66986, 44.95365 ], [ 0.66973, 44.95365 ], [ 0.6696, 44.95367 ], [ 0.66951, 44.95364 ], [ 0.66942, 44.95358 ], [ 0.66932, 44.95355 ], [ 0.66918, 44.95352 ], [ 0.66909, 44.9535 ], [ 0.66896, 44.95346 ], [ 0.66884, 44.95344 ], [ 0.66875, 44.95343 ], [ 0.66863, 44.95343 ], [ 0.66851, 44.95342 ], [ 0.6684, 44.95341 ], [ 0.66832, 44.95338 ], [ 0.66823, 44.95334 ], [ 0.66813, 44.95331 ], [ 0.66798, 44.95328 ], [ 0.66792, 44.95327 ], [ 0.66792, 44.95324 ], [ 0.66789, 44.95321 ], [ 0.66783, 44.95318 ], [ 0.66777, 44.95315 ], [ 0.66767, 44.95313 ], [ 0.66759, 44.9531 ], [ 0.66743, 44.95307 ], [ 0.66731, 44.95306 ], [ 0.66721, 44.95303 ], [ 0.66721, 44.95299 ], [ 0.66716, 44.95298 ], [ 0.66706, 44.95298 ], [ 0.6669, 44.95297 ], [ 0.66665, 44.95296 ], [ 0.66648, 44.95293 ], [ 0.66637, 44.95293 ], [ 0.66626, 44.95292 ], [ 0.66616, 44.95292 ], [ 0.66606, 44.95292 ], [ 0.66595, 44.95291 ], [ 0.66581, 44.95292 ], [ 0.66565, 44.9529 ], [ 0.66548, 44.95288 ], [ 0.66539, 44.95284 ], [ 0.66529, 44.95284 ], [ 0.66517, 44.95279 ], [ 0.665, 44.95275 ], [ 0.6649, 44.95273 ], [ 0.66476, 44.95269 ], [ 0.66457, 44.95269 ], [ 0.66451, 44.95268 ], [ 0.66445, 44.95289 ], [ 0.66436, 44.95312 ], [ 0.66435, 44.95314 ], [ 0.66439, 44.95316 ], [ 0.66439, 44.95316 ], [ 0.66445, 44.9532 ], [ 0.66445, 44.95321 ], [ 0.66461, 44.95332 ], [ 0.66462, 44.95333 ], [ 0.66466, 44.95335 ], [ 0.66467, 44.95336 ], [ 0.66476, 44.95338 ], [ 0.66477, 44.95338 ], [ 0.66488, 44.9534 ], [ 0.6649, 44.95341 ], [ 0.66491, 44.95341 ], [ 0.66493, 44.95342 ], [ 0.66495, 44.95344 ], [ 0.66496, 44.95345 ], [ 0.66502, 44.95356 ], [ 0.66503, 44.95357 ], [ 0.66508, 44.95363 ], [ 0.66512, 44.95367 ], [ 0.66515, 44.95369 ], [ 0.66516, 44.95369 ], [ 0.66516, 44.9537 ], [ 0.66518, 44.95371 ], [ 0.66522, 44.95372 ], [ 0.66523, 44.95372 ], [ 0.6654, 44.95374 ], [ 0.66585, 44.95381 ], [ 0.66588, 44.95381 ], [ 0.6659, 44.95381 ], [ 0.66599, 44.95382 ], [ 0.66605, 44.95383 ], [ 0.66607, 44.95383 ], [ 0.66633, 44.95385 ], [ 0.66643, 44.95385 ], [ 0.6665, 44.95386 ], [ 0.66655, 44.95386 ], [ 0.6666, 44.95385 ], [ 0.66667, 44.95386 ], [ 0.66671, 44.95386 ], [ 0.66677, 44.95386 ], [ 0.66712, 44.95385 ], [ 0.66713, 44.95385 ], [ 0.66716, 44.95384 ], [ 0.66717, 44.95384 ], [ 0.66719, 44.95383 ], [ 0.66725, 44.9538 ], [ 0.66726, 44.95379 ], [ 0.66728, 44.95378 ], [ 0.66732, 44.95378 ], [ 0.66733, 44.95378 ], [ 0.66735, 44.95377 ], [ 0.66736, 44.95376 ], [ 0.6674, 44.95374 ], [ 0.66741, 44.95373 ], [ 0.66744, 44.9537 ], [ 0.66745, 44.9537 ], [ 0.66746, 44.95368 ], [ 0.66749, 44.95367 ], [ 0.66749, 44.95366 ], [ 0.6675, 44.95366 ], [ 0.66753, 44.95364 ], [ 0.66754, 44.95364 ], [ 0.66758, 44.95364 ], [ 0.66759, 44.95364 ], [ 0.6676, 44.95364 ], [ 0.6676, 44.95365 ], [ 0.66762, 44.95365 ], [ 0.66765, 44.95367 ], [ 0.66767, 44.95368 ], [ 0.6677, 44.95371 ], [ 0.66775, 44.95374 ], [ 0.66778, 44.95375 ], [ 0.6678, 44.95375 ], [ 0.66782, 44.95376 ], [ 0.66783, 44.95376 ], [ 0.66787, 44.95375 ], [ 0.66793, 44.95372 ], [ 0.66794, 44.95372 ], [ 0.66801, 44.9537 ], [ 0.66802, 44.9537 ], [ 0.66805, 44.95371 ], [ 0.66811, 44.95372 ], [ 0.66812, 44.95372 ], [ 0.66815, 44.95372 ], [ 0.66817, 44.95373 ], [ 0.66817, 44.95373 ], [ 0.66823, 44.95377 ], [ 0.66825, 44.95377 ], [ 0.66828, 44.95381 ], [ 0.6683, 44.95381 ], [ 0.66831, 44.95382 ], [ 0.66832, 44.95384 ], [ 0.66833, 44.95384 ], [ 0.66835, 44.95384 ], [ 0.66836, 44.95384 ], [ 0.66837, 44.95385 ], [ 0.66838, 44.95384 ], [ 0.6684, 44.95383 ], [ 0.66841, 44.95382 ], [ 0.66845, 44.95379 ], [ 0.66846, 44.95379 ], [ 0.66847, 44.95378 ], [ 0.66851, 44.95378 ], [ 0.66853, 44.95378 ], [ 0.66856, 44.95378 ], [ 0.66858, 44.95379 ], [ 0.66865, 44.95381 ], [ 0.66866, 44.95382 ], [ 0.66871, 44.95387 ], [ 0.66873, 44.95387 ], [ 0.66876, 44.95389 ], [ 0.66879, 44.9539 ], [ 0.66884, 44.9539 ], [ 0.66893, 44.95391 ], [ 0.66904, 44.95388 ], [ 0.66909, 44.95387 ], [ 0.66911, 44.95387 ], [ 0.66912, 44.95387 ], [ 0.66914, 44.95387 ], [ 0.66916, 44.95387 ], [ 0.66921, 44.95389 ], [ 0.66922, 44.95389 ], [ 0.66924, 44.95389 ], [ 0.6693, 44.95389 ], [ 0.6693, 44.95388 ], [ 0.66932, 44.95388 ], [ 0.66933, 44.95387 ], [ 0.66935, 44.95387 ], [ 0.6694, 44.95387 ], [ 0.66943, 44.95388 ], [ 0.6695, 44.95389 ], [ 0.66954, 44.95389 ], [ 0.66955, 44.9539 ], [ 0.66957, 44.9539 ], [ 0.66959, 44.9539 ], [ 0.6696, 44.95391 ], [ 0.66961, 44.95391 ], [ 0.66962, 44.95391 ], [ 0.66962, 44.95392 ], [ 0.66964, 44.95393 ], [ 0.66966, 44.95397 ], [ 0.66966, 44.95399 ], [ 0.66967, 44.954 ], [ 0.66968, 44.95401 ], [ 0.66971, 44.95403 ], [ 0.66972, 44.95403 ], [ 0.66972, 44.95404 ], [ 0.66972, 44.95405 ], [ 0.66972, 44.95407 ], [ 0.66971, 44.95407 ], [ 0.66971, 44.95409 ], [ 0.66969, 44.95409 ], [ 0.66969, 44.9541 ], [ 0.66967, 44.95413 ], [ 0.66965, 44.95414 ], [ 0.66965, 44.95415 ], [ 0.66963, 44.95419 ], [ 0.66963, 44.95421 ], [ 0.66965, 44.95422 ], [ 0.66974, 44.95422 ], [ 0.66979, 44.95421 ], [ 0.66981, 44.95421 ], [ 0.66983, 44.95422 ], [ 0.66986, 44.95422 ], [ 0.66988, 44.95422 ], [ 0.66989, 44.95423 ], [ 0.66993, 44.95424 ], [ 0.66994, 44.95424 ], [ 0.66996, 44.95424 ], [ 0.66997, 44.95423 ], [ 0.66998, 44.95423 ], [ 0.66998, 44.95422 ], [ 0.66998, 44.95421 ], [ 0.67, 44.95418 ], [ 0.67001, 44.95418 ], [ 0.67, 44.95414 ], [ 0.67, 44.95406 ], [ 0.67001, 44.95404 ], [ 0.67001, 44.95403 ], [ 0.67003, 44.95402 ], [ 0.67004, 44.95402 ], [ 0.67005, 44.95402 ], [ 0.67006, 44.95402 ], [ 0.67009, 44.95402 ], [ 0.67011, 44.95402 ], [ 0.67015, 44.95404 ], [ 0.67016, 44.95405 ], [ 0.6702, 44.95407 ], [ 0.67025, 44.95408 ], [ 0.67027, 44.95408 ], [ 0.67029, 44.95409 ], [ 0.6703, 44.95409 ], [ 0.67033, 44.95409 ], [ 0.67034, 44.95409 ], [ 0.67037, 44.9541 ], [ 0.67038, 44.9541 ], [ 0.67039, 44.95409 ], [ 0.67042, 44.95409 ], [ 0.67043, 44.95408 ], [ 0.67047, 44.95407 ], [ 0.67049, 44.95407 ], [ 0.67051, 44.95407 ], [ 0.67052, 44.95407 ], [ 0.67053, 44.95407 ], [ 0.67056, 44.95408 ], [ 0.67057, 44.95408 ], [ 0.67057, 44.95409 ], [ 0.67061, 44.95411 ], [ 0.67062, 44.95413 ], [ 0.67063, 44.95414 ], [ 0.67066, 44.95417 ], [ 0.67067, 44.95419 ], [ 0.67067, 44.95419 ], [ 0.67068, 44.95421 ], [ 0.67069, 44.95422 ], [ 0.67072, 44.95424 ], [ 0.67073, 44.95425 ], [ 0.67078, 44.95428 ], [ 0.6708, 44.95429 ], [ 0.67083, 44.9543 ], [ 0.6709, 44.95432 ], [ 0.6709, 44.95432 ], [ 0.67094, 44.95435 ], [ 0.671, 44.95442 ], [ 0.67105, 44.95446 ], [ 0.6711, 44.95451 ], [ 0.67113, 44.95452 ], [ 0.6712, 44.95456 ], [ 0.67124, 44.95458 ], [ 0.67125, 44.95459 ], [ 0.67134, 44.95461 ], [ 0.67138, 44.95462 ], [ 0.67149, 44.95464 ], [ 0.67154, 44.95464 ], [ 0.67159, 44.95465 ], [ 0.67167, 44.95468 ], [ 0.67177, 44.95476 ], [ 0.67178, 44.95477 ], [ 0.67186, 44.95483 ], [ 0.67188, 44.95484 ], [ 0.67197, 44.95485 ], [ 0.67217, 44.95481 ], [ 0.67223, 44.9548 ], [ 0.67231, 44.9548 ], [ 0.67235, 44.9548 ], [ 0.67244, 44.95481 ], [ 0.67247, 44.95481 ], [ 0.67259, 44.95483 ], [ 0.67264, 44.95484 ], [ 0.67265, 44.95485 ], [ 0.67267, 44.95486 ], [ 0.67276, 44.95491 ], [ 0.67279, 44.95493 ], [ 0.67291, 44.95508 ], [ 0.67295, 44.95512 ], [ 0.67296, 44.95513 ], [ 0.67306, 44.95518 ], [ 0.67308, 44.95518 ], [ 0.67313, 44.95519 ], [ 0.67316, 44.9552 ], [ 0.67322, 44.95522 ], [ 0.67322, 44.95523 ], [ 0.67326, 44.95524 ], [ 0.6733, 44.95526 ], [ 0.67331, 44.95526 ], [ 0.67332, 44.95527 ], [ 0.67337, 44.95527 ], [ 0.6734, 44.95525 ], [ 0.67342, 44.95523 ], [ 0.67344, 44.95523 ], [ 0.67344, 44.95523 ], [ 0.67346, 44.95523 ], [ 0.6735, 44.95524 ], [ 0.67352, 44.95525 ], [ 0.67355, 44.95534 ], [ 0.67355, 44.95534 ], [ 0.67355, 44.95535 ], [ 0.67357, 44.95539 ], [ 0.67361, 44.95542 ], [ 0.67373, 44.95545 ], [ 0.67377, 44.95546 ], [ 0.67383, 44.95548 ], [ 0.67385, 44.95548 ], [ 0.67397, 44.95552 ], [ 0.67404, 44.95554 ], [ 0.67416, 44.95558 ], [ 0.67429, 44.95562 ], [ 0.67432, 44.95563 ], [ 0.67432, 44.95564 ], [ 0.67436, 44.95564 ], [ 0.67444, 44.95562 ], [ 0.67445, 44.95562 ], [ 0.67446, 44.95561 ], [ 0.67452, 44.95555 ], [ 0.67453, 44.95554 ], [ 0.67454, 44.95552 ], [ 0.67458, 44.95544 ], [ 0.6746, 44.9554 ], [ 0.67466, 44.95533 ], [ 0.67466, 44.95532 ], [ 0.67468, 44.95531 ], [ 0.6747, 44.95529 ], [ 0.67471, 44.95528 ], [ 0.67477, 44.95527 ], [ 0.67478, 44.95526 ], [ 0.6748, 44.95527 ], [ 0.67483, 44.95529 ], [ 0.67485, 44.95531 ], [ 0.67485, 44.95533 ], [ 0.67486, 44.95537 ], [ 0.67488, 44.95541 ], [ 0.6749, 44.95543 ], [ 0.67491, 44.95544 ], [ 0.67492, 44.95546 ], [ 0.67494, 44.95546 ], [ 0.67496, 44.95547 ], [ 0.67498, 44.95547 ], [ 0.67506, 44.95548 ], [ 0.67511, 44.95548 ], [ 0.67518, 44.95547 ], [ 0.67523, 44.95546 ], [ 0.67524, 44.95546 ], [ 0.67534, 44.95543 ], [ 0.67541, 44.95544 ], [ 0.67547, 44.95543 ], [ 0.67553, 44.95543 ], [ 0.67557, 44.95543 ], [ 0.67562, 44.95541 ], [ 0.67564, 44.95541 ], [ 0.67565, 44.9554 ], [ 0.67566, 44.95539 ], [ 0.67566, 44.95538 ], [ 0.67566, 44.95536 ], [ 0.67566, 44.95535 ], [ 0.67566, 44.95533 ], [ 0.67565, 44.95531 ], [ 0.67566, 44.95531 ], [ 0.67566, 44.9553 ], [ 0.67566, 44.95529 ], [ 0.67568, 44.95528 ], [ 0.6757, 44.95527 ], [ 0.67573, 44.95526 ], [ 0.67575, 44.95527 ], [ 0.67577, 44.95527 ], [ 0.67578, 44.95527 ], [ 0.67579, 44.95527 ], [ 0.6758, 44.95527 ], [ 0.67586, 44.95527 ], [ 0.67587, 44.95527 ], [ 0.67589, 44.95526 ], [ 0.67591, 44.95525 ], [ 0.67592, 44.95525 ], [ 0.67593, 44.95524 ], [ 0.67595, 44.95522 ], [ 0.67596, 44.95521 ], [ 0.67598, 44.95518 ], [ 0.67601, 44.95517 ], [ 0.67602, 44.95517 ], [ 0.67609, 44.95517 ], [ 0.67615, 44.95516 ], [ 0.67618, 44.95515 ], [ 0.67619, 44.95514 ], [ 0.67621, 44.95513 ], [ 0.67623, 44.95512 ], [ 0.6763, 44.95507 ], [ 0.67636, 44.95503 ], [ 0.67637, 44.95503 ], [ 0.67637, 44.95502 ], [ 0.6764, 44.955 ], [ 0.67641, 44.955 ], [ 0.67641, 44.95501 ], [ 0.67653, 44.95516 ], [ 0.67654, 44.95517 ], [ 0.67657, 44.95517 ] ] ] ] } },
{ "type": "Feature", "properties": { "commune": "Sous bassin Dordogne centre", "nom": "Zone rouge", "nomrisque": "Multirisque", "IDCAUE_EPC": 21 }, "geometry": { "type": "MultiPolygon", "coordinates": [ [ [ [ 0.89916, 44.85458 ], [ 0.89916, 44.8543 ], [ 0.89923, 44.85211 ], [ 0.8993, 44.85174 ], [ 0.89953, 44.85125 ], [ 0.8989, 44.85136 ], [ 0.89764, 44.85162 ], [ 0.8965, 44.85174 ], [ 0.89545, 44.85177 ], [ 0.89541, 44.85199 ], [ 0.89497, 44.85194 ], [ 0.89408, 44.85212 ], [ 0.89339, 44.85254 ], [ 0.89226, 44.85354 ], [ 0.89154, 44.85433 ], [ 0.8902, 44.85603 ], [ 0.88918, 44.8577 ], [ 0.88852, 44.8591 ], [ 0.8879, 44.86096 ], [ 0.88752, 44.86184 ], [ 0.88742, 44.86258 ], [ 0.88724, 44.86301 ], [ 0.88706, 44.86332 ], [ 0.88667, 44.86332 ], [ 0.88635, 44.86323 ], [ 0.88603, 44.86299 ], [ 0.88602, 44.8633 ], [ 0.886, 44.8637 ], [ 0.88605, 44.86464 ], [ 0.88562, 44.86563 ], [ 0.88535, 44.86648 ], [ 0.8851, 44.86709 ], [ 0.8851, 44.86721 ], [ 0.88533, 44.86725 ], [ 0.88563, 44.86721 ], [ 0.88569, 44.86726 ], [ 0.8859, 44.86731 ], [ 0.88628, 44.86723 ], [ 0.88708, 44.86693 ], [ 0.88746, 44.86679 ], [ 0.88808, 44.86658 ], [ 0.88798, 44.86648 ], [ 0.88789, 44.86637 ], [ 0.88789, 44.86636 ], [ 0.8878, 44.86615 ], [ 0.88779, 44.86612 ], [ 0.88778, 44.8661 ], [ 0.88773, 44.86595 ], [ 0.88771, 44.86588 ], [ 0.88768, 44.8657 ], [ 0.88768, 44.86569 ], [ 0.88762, 44.86552 ], [ 0.88762, 44.86551 ], [ 0.88757, 44.86537 ], [ 0.88757, 44.86534 ], [ 0.88754, 44.86504 ], [ 0.88754, 44.86499 ], [ 0.88751, 44.86463 ], [ 0.88753, 44.86435 ], [ 0.88753, 44.8643 ], [ 0.88756, 44.86416 ], [ 0.88756, 44.86414 ], [ 0.88759, 44.864 ], [ 0.88759, 44.86397 ], [ 0.88762, 44.86384 ], [ 0.88765, 44.86378 ], [ 0.88766, 44.86373 ], [ 0.88776, 44.86347 ], [ 0.88777, 44.86344 ], [ 0.8878, 44.86337 ], [ 0.88781, 44.86333 ], [ 0.8879, 44.86307 ], [ 0.88791, 44.86304 ], [ 0.8881, 44.86244 ], [ 0.8881, 44.86243 ], [ 0.88812, 44.8624 ], [ 0.88817, 44.86223 ], [ 0.88817, 44.86219 ], [ 0.88819, 44.86215 ], [ 0.8882, 44.86212 ], [ 0.88826, 44.86184 ], [ 0.88826, 44.86181 ], [ 0.88827, 44.86173 ], [ 0.88827, 44.8617 ], [ 0.8883, 44.86154 ], [ 0.88832, 44.86151 ], [ 0.88833, 44.86139 ], [ 0.88833, 44.86136 ], [ 0.88837, 44.86117 ], [ 0.88839, 44.86114 ], [ 0.88843, 44.86094 ], [ 0.88843, 44.86092 ], [ 0.8885, 44.86064 ], [ 0.88852, 44.86061 ], [ 0.88857, 44.86033 ], [ 0.88859, 44.86031 ], [ 0.88859, 44.86028 ], [ 0.8886, 44.86024 ], [ 0.88861, 44.86023 ], [ 0.88862, 44.8602 ], [ 0.88868, 44.86004 ], [ 0.88868, 44.86002 ], [ 0.88874, 44.85988 ], [ 0.88874, 44.85986 ], [ 0.88878, 44.85979 ], [ 0.88878, 44.85977 ], [ 0.88882, 44.85966 ], [ 0.88883, 44.85965 ], [ 0.8889, 44.85946 ], [ 0.88898, 44.85928 ], [ 0.88899, 44.85926 ], [ 0.88911, 44.85899 ], [ 0.88911, 44.85898 ], [ 0.88922, 44.85876 ], [ 0.88922, 44.85875 ], [ 0.88944, 44.85829 ], [ 0.88944, 44.85828 ], [ 0.88953, 44.8581 ], [ 0.88957, 44.85803 ], [ 0.88977, 44.85768 ], [ 0.88978, 44.85766 ], [ 0.88978, 44.85765 ], [ 0.88991, 44.85745 ], [ 0.88991, 44.85744 ], [ 0.88995, 44.85738 ], [ 0.88997, 44.85738 ], [ 0.89007, 44.85719 ], [ 0.89023, 44.85698 ], [ 0.89023, 44.85698 ], [ 0.89028, 44.85691 ], [ 0.8908, 44.85702 ], [ 0.89081, 44.85702 ], [ 0.89106, 44.85697 ], [ 0.8915, 44.85689 ], [ 0.89151, 44.85688 ], [ 0.89155, 44.85688 ], [ 0.89155, 44.85687 ], [ 0.89191, 44.85665 ], [ 0.89215, 44.85662 ], [ 0.89238, 44.85662 ], [ 0.89244, 44.85661 ], [ 0.89245, 44.85661 ], [ 0.89268, 44.85659 ], [ 0.89281, 44.85658 ], [ 0.89305, 44.85653 ], [ 0.89311, 44.85652 ], [ 0.89324, 44.85649 ], [ 0.8934, 44.85647 ], [ 0.89362, 44.85645 ], [ 0.89366, 44.85644 ], [ 0.89372, 44.85644 ], [ 0.89394, 44.85641 ], [ 0.89445, 44.85631 ], [ 0.89523, 44.85614 ], [ 0.89527, 44.85613 ], [ 0.89535, 44.8561 ], [ 0.89536, 44.8561 ], [ 0.89592, 44.85591 ], [ 0.89608, 44.85586 ], [ 0.89618, 44.85582 ], [ 0.89665, 44.85564 ], [ 0.89666, 44.85564 ], [ 0.8968, 44.85555 ], [ 0.89683, 44.85553 ], [ 0.89684, 44.85552 ], [ 0.89688, 44.8555 ], [ 0.89689, 44.8555 ], [ 0.89693, 44.85548 ], [ 0.89706, 44.85541 ], [ 0.89722, 44.85531 ], [ 0.89723, 44.85531 ], [ 0.89724, 44.8553 ], [ 0.89725, 44.8553 ], [ 0.89728, 44.8553 ], [ 0.89729, 44.85529 ], [ 0.89744, 44.85526 ], [ 0.89747, 44.85526 ], [ 0.89748, 44.85525 ], [ 0.89756, 44.85524 ], [ 0.8977, 44.85518 ], [ 0.89771, 44.85517 ], [ 0.89774, 44.85517 ], [ 0.89775, 44.85517 ], [ 0.89776, 44.85517 ], [ 0.89776, 44.85516 ], [ 0.89778, 44.85516 ], [ 0.89783, 44.85514 ], [ 0.89823, 44.85526 ], [ 0.89827, 44.85528 ], [ 0.89876, 44.85544 ], [ 0.89877, 44.85544 ], [ 0.89889, 44.85548 ], [ 0.89891, 44.85549 ], [ 0.89892, 44.85549 ], [ 0.89893, 44.8555 ], [ 0.89897, 44.85551 ], [ 0.89917, 44.85554 ], [ 0.89918, 44.85553 ], [ 0.89916, 44.85458 ] ] ] ] } },
{ "type": "Feature", "properties": { "commune": "Sous bassin Caudeau", "nom": "Zone rouge", "nomrisque": "Inondation", "IDCAUE_EPC": 21 }, "geometry": { "type": "MultiPolygon", "coordinates": [ [ [ [ 0.62956, 44.9208 ], [ 0.62945, 44.92069 ], [ 0.62932, 44.92065 ], [ 0.62928, 44.92059 ], [ 0.62922, 44.92044 ], [ 0.62912, 44.92028 ], [ 0.62909, 44.92014 ], [ 0.62903, 44.91997 ], [ 0.62891, 44.91989 ], [ 0.62877, 44.91982 ], [ 0.62873, 44.91975 ], [ 0.62875, 44.91968 ], [ 0.62872, 44.91961 ], [ 0.62866, 44.91955 ], [ 0.62852, 44.91946 ], [ 0.62844, 44.91935 ], [ 0.62835, 44.91923 ], [ 0.62832, 44.91912 ], [ 0.62833, 44.91909 ], [ 0.62827, 44.91902 ], [ 0.6282, 44.91894 ], [ 0.62811, 44.91888 ], [ 0.62792, 44.91881 ], [ 0.62771, 44.91876 ], [ 0.62749, 44.91874 ], [ 0.62733, 44.91873 ], [ 0.627, 44.91868 ], [ 0.62676, 44.91865 ], [ 0.62665, 44.91859 ], [ 0.62656, 44.91859 ], [ 0.62646, 44.91862 ], [ 0.62639, 44.91865 ], [ 0.62635, 44.91865 ], [ 0.62634, 44.91864 ], [ 0.62629, 44.91858 ], [ 0.62623, 44.91854 ], [ 0.62598, 44.91851 ], [ 0.62565, 44.91848 ], [ 0.62536, 44.91846 ], [ 0.62518, 44.91846 ], [ 0.62506, 44.9185 ], [ 0.6249, 44.91851 ], [ 0.62473, 44.91849 ], [ 0.62455, 44.91844 ], [ 0.62443, 44.9184 ], [ 0.6243, 44.91838 ], [ 0.62413, 44.91834 ], [ 0.62399, 44.91829 ], [ 0.62391, 44.91823 ], [ 0.62381, 44.91815 ], [ 0.62368, 44.91805 ], [ 0.62357, 44.91793 ], [ 0.62352, 44.91785 ], [ 0.6235, 44.91778 ], [ 0.62346, 44.91772 ], [ 0.62339, 44.91765 ], [ 0.62328, 44.91756 ], [ 0.62321, 44.91747 ], [ 0.62321, 44.91741 ], [ 0.62323, 44.91738 ], [ 0.62326, 44.91737 ], [ 0.62333, 44.91736 ], [ 0.62336, 44.91733 ], [ 0.62335, 44.91728 ], [ 0.62331, 44.91721 ], [ 0.62325, 44.91716 ], [ 0.62321, 44.91716 ], [ 0.62314, 44.91717 ], [ 0.62307, 44.9172 ], [ 0.62292, 44.91723 ], [ 0.62292, 44.91717 ], [ 0.62295, 44.91714 ], [ 0.62299, 44.9171 ], [ 0.62312, 44.91706 ], [ 0.62319, 44.91705 ], [ 0.6232, 44.91698 ], [ 0.62316, 44.91695 ], [ 0.62311, 44.91697 ], [ 0.62302, 44.91697 ], [ 0.62301, 44.91695 ], [ 0.62303, 44.91693 ], [ 0.62308, 44.91693 ], [ 0.62315, 44.91691 ], [ 0.62311, 44.91685 ], [ 0.62307, 44.91679 ], [ 0.62304, 44.91675 ], [ 0.62296, 44.91677 ], [ 0.62288, 44.91675 ], [ 0.62285, 44.91671 ], [ 0.62279, 44.91669 ], [ 0.62273, 44.91664 ], [ 0.62279, 44.91662 ], [ 0.6228, 44.91657 ], [ 0.62274, 44.91645 ], [ 0.62271, 44.91637 ], [ 0.62272, 44.91632 ], [ 0.62277, 44.91629 ], [ 0.62283, 44.91623 ], [ 0.62283, 44.91619 ], [ 0.62281, 44.91617 ], [ 0.6228, 44.91616 ], [ 0.62282, 44.91612 ], [ 0.62286, 44.91607 ], [ 0.62284, 44.91605 ], [ 0.62282, 44.91602 ], [ 0.62286, 44.91598 ], [ 0.62287, 44.91593 ], [ 0.62286, 44.91588 ], [ 0.62282, 44.91582 ], [ 0.62277, 44.91574 ], [ 0.62267, 44.91562 ], [ 0.62262, 44.91553 ], [ 0.6226, 44.91546 ], [ 0.62256, 44.91529 ], [ 0.62251, 44.91509 ], [ 0.62244, 44.91493 ], [ 0.62242, 44.91483 ], [ 0.62232, 44.91465 ], [ 0.62226, 44.91455 ], [ 0.62225, 44.91449 ], [ 0.62227, 44.91444 ], [ 0.6223, 44.91433 ], [ 0.62226, 44.91426 ], [ 0.62221, 44.91413 ], [ 0.62214, 44.91408 ], [ 0.62209, 44.91403 ], [ 0.62206, 44.91402 ], [ 0.622, 44.91404 ], [ 0.62198, 44.91404 ], [ 0.62198, 44.914 ], [ 0.62206, 44.91397 ], [ 0.6221, 44.91392 ], [ 0.62207, 44.91376 ], [ 0.62202, 44.91356 ], [ 0.62194, 44.91339 ], [ 0.62188, 44.91327 ], [ 0.62185, 44.91313 ], [ 0.62179, 44.91301 ], [ 0.62174, 44.91291 ], [ 0.62165, 44.91282 ], [ 0.62162, 44.91276 ], [ 0.62159, 44.91265 ], [ 0.62157, 44.91251 ], [ 0.62149, 44.91237 ], [ 0.62141, 44.91227 ], [ 0.62135, 44.91218 ], [ 0.62125, 44.91207 ], [ 0.62118, 44.91202 ], [ 0.62106, 44.912 ], [ 0.62097, 44.91201 ], [ 0.62088, 44.91206 ], [ 0.62082, 44.91209 ], [ 0.62076, 44.91209 ], [ 0.62072, 44.91206 ], [ 0.62068, 44.912 ], [ 0.62058, 44.91212 ], [ 0.62052, 44.9122 ], [ 0.62048, 44.91224 ], [ 0.62042, 44.91227 ], [ 0.62039, 44.91231 ], [ 0.62028, 44.91239 ], [ 0.62016, 44.91249 ], [ 0.62015, 44.9125 ], [ 0.61986, 44.91259 ], [ 0.61978, 44.91262 ], [ 0.61977, 44.91262 ], [ 0.61973, 44.91263 ], [ 0.61969, 44.91265 ], [ 0.61968, 44.91265 ], [ 0.61967, 44.91265 ], [ 0.61964, 44.91267 ], [ 0.61969, 44.9127 ], [ 0.61976, 44.91277 ], [ 0.61978, 44.91278 ], [ 0.6198, 44.9128 ], [ 0.61981, 44.91281 ], [ 0.61983, 44.91282 ], [ 0.61984, 44.91284 ], [ 0.61984, 44.91286 ], [ 0.61985, 44.91288 ], [ 0.61985, 44.9129 ], [ 0.61985, 44.9129 ], [ 0.61985, 44.91291 ], [ 0.61984, 44.91292 ], [ 0.61982, 44.91294 ], [ 0.6198, 44.91296 ], [ 0.61977, 44.91298 ], [ 0.61974, 44.91301 ], [ 0.6197, 44.91305 ], [ 0.61964, 44.9131 ], [ 0.61963, 44.91312 ], [ 0.61961, 44.91313 ], [ 0.61961, 44.91313 ], [ 0.6196, 44.91317 ], [ 0.6196, 44.91318 ], [ 0.61965, 44.9133 ], [ 0.61966, 44.91333 ], [ 0.61966, 44.91334 ], [ 0.61973, 44.91349 ], [ 0.61974, 44.91351 ], [ 0.61974, 44.91352 ], [ 0.61978, 44.91361 ], [ 0.61978, 44.91361 ], [ 0.6198, 44.91372 ], [ 0.61981, 44.91376 ], [ 0.61981, 44.91377 ], [ 0.61985, 44.91381 ], [ 0.61986, 44.91382 ], [ 0.61989, 44.91386 ], [ 0.61994, 44.9139 ], [ 0.61998, 44.91394 ], [ 0.62004, 44.91399 ], [ 0.62013, 44.91404 ], [ 0.62014, 44.91405 ], [ 0.62018, 44.91407 ], [ 0.62023, 44.91412 ], [ 0.62024, 44.91412 ], [ 0.62028, 44.91413 ], [ 0.62029, 44.91414 ], [ 0.6203, 44.91414 ], [ 0.62042, 44.91418 ], [ 0.62043, 44.91418 ], [ 0.62044, 44.91418 ], [ 0.62049, 44.9142 ], [ 0.6205, 44.91421 ], [ 0.62052, 44.91422 ], [ 0.62053, 44.91422 ], [ 0.62054, 44.91424 ], [ 0.62054, 44.91425 ], [ 0.62051, 44.91438 ], [ 0.62051, 44.9144 ], [ 0.62051, 44.91441 ], [ 0.62051, 44.91444 ], [ 0.62051, 44.91447 ], [ 0.62051, 44.91448 ], [ 0.62052, 44.91452 ], [ 0.62054, 44.9146 ], [ 0.62056, 44.91462 ], [ 0.62059, 44.91469 ], [ 0.6206, 44.91471 ], [ 0.62065, 44.91477 ], [ 0.62065, 44.91478 ], [ 0.62066, 44.91481 ], [ 0.62067, 44.91486 ], [ 0.62069, 44.91491 ], [ 0.62068, 44.91496 ], [ 0.62068, 44.91498 ], [ 0.62067, 44.915 ], [ 0.62067, 44.91501 ], [ 0.62064, 44.91503 ], [ 0.62063, 44.91505 ], [ 0.62058, 44.9151 ], [ 0.62058, 44.91511 ], [ 0.62058, 44.91512 ], [ 0.62058, 44.91513 ], [ 0.6206, 44.91516 ], [ 0.62065, 44.9152 ], [ 0.6207, 44.91525 ], [ 0.62081, 44.91538 ], [ 0.62082, 44.91538 ], [ 0.6209, 44.91545 ], [ 0.62093, 44.91549 ], [ 0.62103, 44.91555 ], [ 0.62111, 44.9156 ], [ 0.62121, 44.91567 ], [ 0.62122, 44.91569 ], [ 0.62131, 44.91575 ], [ 0.62131, 44.91576 ], [ 0.6214, 44.91585 ], [ 0.62142, 44.91586 ], [ 0.62155, 44.91597 ], [ 0.62165, 44.91605 ], [ 0.62179, 44.91616 ], [ 0.62189, 44.91624 ], [ 0.6219, 44.91624 ], [ 0.62216, 44.91645 ], [ 0.62218, 44.91647 ], [ 0.62236, 44.91661 ], [ 0.62237, 44.91662 ], [ 0.62248, 44.91672 ], [ 0.6225, 44.91673 ], [ 0.62263, 44.91686 ], [ 0.62271, 44.91695 ], [ 0.62271, 44.91696 ], [ 0.62272, 44.91696 ], [ 0.62283, 44.91714 ], [ 0.62287, 44.91719 ], [ 0.62289, 44.91723 ], [ 0.62292, 44.91726 ], [ 0.62305, 44.91738 ], [ 0.62305, 44.91739 ], [ 0.62321, 44.91755 ], [ 0.62339, 44.91772 ], [ 0.6234, 44.91772 ], [ 0.62343, 44.91778 ], [ 0.62343, 44.91784 ], [ 0.62343, 44.91785 ], [ 0.62338, 44.91792 ], [ 0.62338, 44.91793 ], [ 0.6233, 44.91806 ], [ 0.6233, 44.91807 ], [ 0.62334, 44.9182 ], [ 0.62337, 44.9183 ], [ 0.62339, 44.91834 ], [ 0.62339, 44.91835 ], [ 0.6234, 44.91836 ], [ 0.62346, 44.91845 ], [ 0.62348, 44.91845 ], [ 0.62349, 44.91849 ], [ 0.62349, 44.91852 ], [ 0.62347, 44.91857 ], [ 0.62346, 44.91859 ], [ 0.62346, 44.91864 ], [ 0.62349, 44.91871 ], [ 0.62351, 44.91876 ], [ 0.62348, 44.91882 ], [ 0.62346, 44.91883 ], [ 0.62341, 44.91889 ], [ 0.62344, 44.91893 ], [ 0.62345, 44.91893 ], [ 0.62345, 44.91895 ], [ 0.6235, 44.91903 ], [ 0.62351, 44.91903 ], [ 0.62351, 44.91903 ], [ 0.62355, 44.91905 ], [ 0.62358, 44.91907 ], [ 0.62358, 44.91908 ], [ 0.62371, 44.91909 ], [ 0.62372, 44.91909 ], [ 0.62377, 44.91914 ], [ 0.62378, 44.91915 ], [ 0.62386, 44.91927 ], [ 0.62388, 44.91928 ], [ 0.62393, 44.9193 ], [ 0.62406, 44.91931 ], [ 0.62408, 44.91932 ], [ 0.62412, 44.91934 ], [ 0.62414, 44.91937 ], [ 0.62414, 44.91938 ], [ 0.6242, 44.91951 ], [ 0.62425, 44.91957 ], [ 0.62446, 44.91981 ], [ 0.62446, 44.91982 ], [ 0.62462, 44.91999 ], [ 0.62482, 44.9201 ], [ 0.62482, 44.92011 ], [ 0.62508, 44.92027 ], [ 0.62512, 44.92029 ], [ 0.6252, 44.92036 ], [ 0.62525, 44.92038 ], [ 0.62527, 44.92039 ], [ 0.62533, 44.92041 ], [ 0.62535, 44.92042 ], [ 0.62537, 44.92041 ], [ 0.62542, 44.9204 ], [ 0.62561, 44.92034 ], [ 0.62575, 44.92031 ], [ 0.62597, 44.92025 ], [ 0.62615, 44.92021 ], [ 0.62643, 44.92012 ], [ 0.62649, 44.92012 ], [ 0.62654, 44.92011 ], [ 0.62658, 44.92011 ], [ 0.62668, 44.92012 ], [ 0.62693, 44.92018 ], [ 0.62693, 44.92019 ], [ 0.62717, 44.92029 ], [ 0.62724, 44.92032 ], [ 0.62728, 44.92033 ], [ 0.62738, 44.92039 ], [ 0.62739, 44.92039 ], [ 0.62748, 44.92045 ], [ 0.62753, 44.92047 ], [ 0.62772, 44.92057 ], [ 0.6278, 44.9206 ], [ 0.62785, 44.92064 ], [ 0.6279, 44.92069 ], [ 0.6279, 44.92069 ], [ 0.62792, 44.92069 ], [ 0.62801, 44.92078 ], [ 0.62801, 44.92079 ], [ 0.62806, 44.92081 ], [ 0.62814, 44.92083 ], [ 0.62818, 44.92085 ], [ 0.62834, 44.9209 ], [ 0.62839, 44.92093 ], [ 0.62845, 44.92096 ], [ 0.62856, 44.92104 ], [ 0.62858, 44.92105 ], [ 0.62874, 44.92118 ], [ 0.62875, 44.92119 ], [ 0.62881, 44.92128 ], [ 0.62881, 44.9213 ], [ 0.62883, 44.9213 ], [ 0.62902, 44.92129 ], [ 0.62923, 44.92125 ], [ 0.62939, 44.92121 ], [ 0.62939, 44.9212 ], [ 0.62928, 44.92122 ], [ 0.62926, 44.92119 ], [ 0.62933, 44.92115 ], [ 0.62947, 44.9211 ], [ 0.62962, 44.921 ], [ 0.62965, 44.92092 ], [ 0.62956, 44.9208 ] ] ] ] } },
{ "type": "Feature", "properties": { "commune": "Sous bassin Dordogne centre", "nom": "Zone bleue", "nomrisque": "Multirisque", "IDCAUE_EPC": 21 }, "geometry": { "type": "MultiPolygon", "coordinates": [ [ [ [ 0.70238, 44.8297 ], [ 0.70231, 44.82944 ], [ 0.70238, 44.82909 ], [ 0.70171, 44.82926 ], [ 0.70174, 44.82973 ], [ 0.70189, 44.83017 ], [ 0.70197, 44.83057 ], [ 0.70229, 44.83069 ], [ 0.70261, 44.83089 ], [ 0.70264, 44.83134 ], [ 0.70225, 44.83152 ], [ 0.70078, 44.83195 ], [ 0.69945, 44.83225 ], [ 0.69819, 44.83248 ], [ 0.69659, 44.83262 ], [ 0.69562, 44.83272 ], [ 0.69495, 44.83274 ], [ 0.69443, 44.83267 ], [ 0.6938, 44.83265 ], [ 0.69328, 44.83266 ], [ 0.69258, 44.83275 ], [ 0.69181, 44.83278 ], [ 0.69121, 44.83299 ], [ 0.69048, 44.83331 ], [ 0.6897, 44.83352 ], [ 0.68901, 44.83381 ], [ 0.68867, 44.834 ], [ 0.68667, 44.83429 ], [ 0.6861, 44.8343 ], [ 0.68557, 44.83447 ], [ 0.68477, 44.8346 ], [ 0.68306, 44.83495 ], [ 0.68203, 44.83516 ], [ 0.68124, 44.83526 ], [ 0.67953, 44.83568 ], [ 0.67872, 44.83604 ], [ 0.67826, 44.8363 ], [ 0.67738, 44.83661 ], [ 0.67612, 44.83702 ], [ 0.67511, 44.83723 ], [ 0.67444, 44.83736 ], [ 0.67405, 44.83738 ], [ 0.67369, 44.83732 ], [ 0.67337, 44.8371 ], [ 0.67313, 44.83638 ], [ 0.67264, 44.83654 ], [ 0.67294, 44.83687 ], [ 0.67305, 44.83705 ], [ 0.67289, 44.83711 ], [ 0.67237, 44.83721 ], [ 0.6717, 44.83729 ], [ 0.67091, 44.83737 ], [ 0.6703, 44.83749 ], [ 0.66918, 44.83785 ], [ 0.66813, 44.83815 ], [ 0.66707, 44.83843 ], [ 0.66633, 44.83845 ], [ 0.66699, 44.83952 ], [ 0.66667, 44.83963 ], [ 0.66527, 44.83976 ], [ 0.66437, 44.83982 ], [ 0.66313, 44.83969 ], [ 0.66263, 44.83969 ], [ 0.66208, 44.83953 ], [ 0.66185, 44.83947 ], [ 0.66146, 44.83951 ], [ 0.66097, 44.83953 ], [ 0.66067, 44.83953 ], [ 0.65988, 44.83938 ], [ 0.65924, 44.83937 ], [ 0.65893, 44.83948 ], [ 0.65832, 44.83932 ], [ 0.65774, 44.83937 ], [ 0.65704, 44.83952 ], [ 0.65638, 44.83959 ], [ 0.65535, 44.83968 ], [ 0.65476, 44.83971 ], [ 0.65506, 44.84064 ], [ 0.65483, 44.84066 ], [ 0.65446, 44.83975 ], [ 0.6533, 44.83993 ], [ 0.65263, 44.84003 ], [ 0.65205, 44.84012 ], [ 0.65144, 44.84026 ], [ 0.65062, 44.84038 ], [ 0.64898, 44.84082 ], [ 0.64822, 44.84093 ], [ 0.64778, 44.84098 ], [ 0.64713, 44.84091 ], [ 0.64644, 44.84101 ], [ 0.64608, 44.84107 ], [ 0.64555, 44.84097 ], [ 0.64472, 44.84095 ], [ 0.64379, 44.84093 ], [ 0.64356, 44.84089 ], [ 0.64346, 44.84074 ], [ 0.64319, 44.84053 ], [ 0.64286, 44.84061 ], [ 0.64308, 44.84083 ], [ 0.64314, 44.84096 ], [ 0.64296, 44.84103 ], [ 0.6425, 44.84113 ], [ 0.64187, 44.84114 ], [ 0.6413, 44.84121 ], [ 0.64075, 44.84124 ], [ 0.64012, 44.84135 ], [ 0.63944, 44.84152 ], [ 0.63906, 44.84169 ], [ 0.63844, 44.84177 ], [ 0.63731, 44.84201 ], [ 0.63626, 44.84242 ], [ 0.63529, 44.84284 ], [ 0.63482, 44.84298 ], [ 0.63431, 44.8431 ], [ 0.63381, 44.84323 ], [ 0.63341, 44.84348 ], [ 0.63261, 44.84377 ], [ 0.63226, 44.84396 ], [ 0.63208, 44.84411 ], [ 0.63193, 44.84436 ], [ 0.63121, 44.84494 ], [ 0.63038, 44.84554 ], [ 0.62946, 44.84604 ], [ 0.62884, 44.84617 ], [ 0.62836, 44.84633 ], [ 0.62781, 44.84628 ], [ 0.62746, 44.84637 ], [ 0.6271, 44.84661 ], [ 0.62683, 44.84671 ], [ 0.62653, 44.84669 ], [ 0.62602, 44.8467 ], [ 0.62581, 44.84661 ], [ 0.62555, 44.84614 ], [ 0.62541, 44.84644 ], [ 0.62547, 44.84666 ], [ 0.62541, 44.84687 ], [ 0.62498, 44.84697 ], [ 0.62384, 44.84703 ], [ 0.62312, 44.84707 ], [ 0.62217, 44.84708 ], [ 0.62104, 44.84716 ], [ 0.62001, 44.84725 ], [ 0.61903, 44.84741 ], [ 0.61726, 44.84763 ], [ 0.61675, 44.84764 ], [ 0.61647, 44.84775 ], [ 0.6159, 44.84785 ], [ 0.61511, 44.84797 ], [ 0.61406, 44.84818 ], [ 0.61354, 44.84831 ], [ 0.61358, 44.84843 ], [ 0.61359, 44.84845 ], [ 0.61362, 44.84852 ], [ 0.61384, 44.84899 ], [ 0.61423, 44.84889 ], [ 0.61477, 44.84877 ], [ 0.61484, 44.84875 ], [ 0.61532, 44.84864 ], [ 0.61564, 44.84858 ], [ 0.61587, 44.84854 ], [ 0.6164, 44.84845 ], [ 0.61743, 44.84831 ], [ 0.61755, 44.84829 ], [ 0.61812, 44.84823 ], [ 0.61817, 44.84823 ], [ 0.61854, 44.84814 ], [ 0.619, 44.84803 ], [ 0.61921, 44.84799 ], [ 0.61963, 44.84793 ], [ 0.62019, 44.84784 ], [ 0.62033, 44.84782 ], [ 0.62076, 44.84776 ], [ 0.621, 44.84775 ], [ 0.62138, 44.84773 ], [ 0.62146, 44.84772 ], [ 0.62147, 44.84772 ], [ 0.62237, 44.84762 ], [ 0.6226, 44.8476 ], [ 0.62271, 44.84758 ], [ 0.62278, 44.84758 ], [ 0.62313, 44.84757 ], [ 0.62317, 44.84757 ], [ 0.62374, 44.84755 ], [ 0.62408, 44.84754 ], [ 0.62497, 44.84749 ], [ 0.62532, 44.84743 ], [ 0.6262, 44.84728 ], [ 0.62696, 44.84718 ], [ 0.62708, 44.84716 ], [ 0.62724, 44.84714 ], [ 0.62741, 44.84709 ], [ 0.62751, 44.84706 ], [ 0.62787, 44.84697 ], [ 0.62821, 44.84687 ], [ 0.6284, 44.84681 ], [ 0.62857, 44.84677 ], [ 0.62874, 44.84671 ], [ 0.62938, 44.84647 ], [ 0.62999, 44.84623 ], [ 0.63017, 44.84616 ], [ 0.63059, 44.84591 ], [ 0.63079, 44.84579 ], [ 0.63157, 44.8453 ], [ 0.63203, 44.84572 ], [ 0.63215, 44.84584 ], [ 0.63216, 44.84584 ], [ 0.63219, 44.84587 ], [ 0.63221, 44.84588 ], [ 0.63221, 44.84589 ], [ 0.63223, 44.84589 ], [ 0.63224, 44.84589 ], [ 0.6323, 44.84592 ], [ 0.63231, 44.84592 ], [ 0.63231, 44.84593 ], [ 0.63234, 44.84595 ], [ 0.63235, 44.84596 ], [ 0.63236, 44.84596 ], [ 0.63236, 44.84597 ], [ 0.63236, 44.84598 ], [ 0.63239, 44.84603 ], [ 0.6324, 44.84606 ], [ 0.6324, 44.84609 ], [ 0.6324, 44.8461 ], [ 0.6324, 44.84611 ], [ 0.63241, 44.84615 ], [ 0.63242, 44.84616 ], [ 0.63243, 44.84616 ], [ 0.63243, 44.84617 ], [ 0.63244, 44.84618 ], [ 0.63282, 44.84612 ], [ 0.63334, 44.84587 ], [ 0.63382, 44.84559 ], [ 0.63431, 44.8449 ], [ 0.63453, 44.84449 ], [ 0.63584, 44.84473 ], [ 0.6364, 44.8448 ], [ 0.63772, 44.84488 ], [ 0.64074, 44.84479 ], [ 0.64188, 44.84462 ], [ 0.64377, 44.84416 ], [ 0.64672, 44.84333 ], [ 0.64768, 44.84311 ], [ 0.64805, 44.84295 ], [ 0.64847, 44.84276 ], [ 0.64826, 44.84229 ], [ 0.6496, 44.84202 ], [ 0.65329, 44.8414 ], [ 0.65484, 44.84104 ], [ 0.65555, 44.84098 ], [ 0.65844, 44.84101 ], [ 0.66071, 44.84102 ], [ 0.66269, 44.84103 ], [ 0.665, 44.84104 ], [ 0.6656, 44.84098 ], [ 0.66694, 44.84086 ], [ 0.66889, 44.84047 ], [ 0.6712, 44.83985 ], [ 0.67606, 44.83842 ], [ 0.67852, 44.83771 ], [ 0.6805, 44.83721 ], [ 0.68366, 44.8367 ], [ 0.68641, 44.83629 ], [ 0.69091, 44.83562 ], [ 0.69543, 44.83493 ], [ 0.69659, 44.83476 ], [ 0.70323, 44.83372 ], [ 0.70311, 44.83301 ], [ 0.70377, 44.833 ], [ 0.70397, 44.83301 ], [ 0.70413, 44.83344 ], [ 0.70454, 44.83354 ], [ 0.70559, 44.83347 ], [ 0.70709, 44.83338 ], [ 0.70791, 44.83348 ], [ 0.70944, 44.83406 ], [ 0.70992, 44.83424 ], [ 0.71242, 44.83284 ], [ 0.71301, 44.83279 ], [ 0.71343, 44.83272 ], [ 0.71378, 44.83261 ], [ 0.71409, 44.83253 ], [ 0.71482, 44.83256 ], [ 0.71543, 44.83255 ], [ 0.71603, 44.83259 ], [ 0.71683, 44.83268 ], [ 0.71717, 44.83277 ], [ 0.71756, 44.83282 ], [ 0.71845, 44.83282 ], [ 0.71967, 44.83297 ], [ 0.72073, 44.83318 ], [ 0.72227, 44.83353 ], [ 0.72334, 44.83381 ], [ 0.72445, 44.83425 ], [ 0.72544, 44.8344 ], [ 0.72704, 44.83442 ], [ 0.72762, 44.83452 ], [ 0.72822, 44.83467 ], [ 0.72868, 44.8347 ], [ 0.72931, 44.83468 ], [ 0.73024, 44.83471 ], [ 0.73091, 44.83478 ], [ 0.73132, 44.83481 ], [ 0.73198, 44.83484 ], [ 0.73371, 44.83492 ], [ 0.73438, 44.83488 ], [ 0.73547, 44.83494 ], [ 0.73637, 44.83507 ], [ 0.73791, 44.83542 ], [ 0.73934, 44.83558 ], [ 0.73986, 44.83564 ], [ 0.74027, 44.83383 ], [ 0.74016, 44.83371 ], [ 0.73866, 44.83357 ], [ 0.7375, 44.83359 ], [ 0.73633, 44.83343 ], [ 0.73464, 44.83329 ], [ 0.73348, 44.83318 ], [ 0.73272, 44.83316 ], [ 0.73113, 44.83294 ], [ 0.72965, 44.83277 ], [ 0.72866, 44.8326 ], [ 0.72824, 44.83248 ], [ 0.72811, 44.83235 ], [ 0.72767, 44.83225 ], [ 0.72758, 44.8324 ], [ 0.72721, 44.83252 ], [ 0.72646, 44.83252 ], [ 0.72405, 44.83215 ], [ 0.72175, 44.83169 ], [ 0.72042, 44.83143 ], [ 0.71977, 44.83143 ], [ 0.7189, 44.83141 ], [ 0.71835, 44.83138 ], [ 0.71762, 44.8313 ], [ 0.71705, 44.83135 ], [ 0.71654, 44.83131 ], [ 0.71501, 44.83139 ], [ 0.71376, 44.83143 ], [ 0.71298, 44.83144 ], [ 0.71231, 44.83141 ], [ 0.71116, 44.83135 ], [ 0.71024, 44.83135 ], [ 0.7095, 44.83128 ], [ 0.70872, 44.83122 ], [ 0.70816, 44.8312 ], [ 0.70769, 44.8312 ], [ 0.70717, 44.83121 ], [ 0.70575, 44.83103 ], [ 0.70421, 44.83106 ], [ 0.70432, 44.8321 ], [ 0.70406, 44.83212 ], [ 0.70392, 44.83112 ], [ 0.70297, 44.83136 ], [ 0.70301, 44.83113 ], [ 0.70294, 44.8308 ], [ 0.70285, 44.83052 ], [ 0.70264, 44.83019 ], [ 0.70258, 44.83 ], [ 0.70238, 44.8297 ] ], [ [ 0.66971, 44.83855 ], [ 0.67019, 44.83833 ], [ 0.67077, 44.83817 ], [ 0.67161, 44.83803 ], [ 0.67163, 44.83808 ], [ 0.67015, 44.83842 ], [ 0.66956, 44.83873 ], [ 0.6689, 44.83904 ], [ 0.66851, 44.83899 ], [ 0.66713, 44.83945 ], [ 0.66711, 44.8394 ], [ 0.66716, 44.83939 ], [ 0.66807, 44.83905 ], [ 0.66854, 44.83892 ], [ 0.66894, 44.83896 ], [ 0.66922, 44.83881 ], [ 0.66971, 44.83855 ] ] ] ] } },
{ "type": "Feature", "properties": { "commune": "Sous bassin Dordogne centre", "nom": "Zone bleue", "nomrisque": "Multirisque", "IDCAUE_EPC": 21 }, "geometry": { "type": "MultiPolygon", "coordinates": [ [ [ [ 0.78763, 44.84541 ], [ 0.7884, 44.84595 ], [ 0.78923, 44.84645 ], [ 0.79006, 44.84696 ], [ 0.79107, 44.84646 ], [ 0.79182, 44.84678 ], [ 0.79272, 44.84726 ], [ 0.79312, 44.84744 ], [ 0.7934, 44.84762 ], [ 0.79409, 44.84806 ], [ 0.79415, 44.84864 ], [ 0.79421, 44.849 ], [ 0.79446, 44.84925 ], [ 0.79521, 44.84961 ], [ 0.79621, 44.85003 ], [ 0.79743, 44.85037 ], [ 0.79917, 44.8509 ], [ 0.7999, 44.85126 ], [ 0.80072, 44.8517 ], [ 0.80151, 44.85205 ], [ 0.80211, 44.85231 ], [ 0.80244, 44.85252 ], [ 0.80259, 44.85286 ], [ 0.80266, 44.85348 ], [ 0.80257, 44.8537 ], [ 0.80233, 44.85432 ], [ 0.80195, 44.85492 ], [ 0.80159, 44.85549 ], [ 0.80146, 44.85579 ], [ 0.80143, 44.85596 ], [ 0.80148, 44.8563 ], [ 0.80133, 44.85646 ], [ 0.8006, 44.85677 ], [ 0.79989, 44.85725 ], [ 0.79942, 44.85764 ], [ 0.79933, 44.85814 ], [ 0.7994, 44.85908 ], [ 0.79953, 44.86036 ], [ 0.79964, 44.86163 ], [ 0.79973, 44.86153 ], [ 0.79985, 44.86166 ], [ 0.7998, 44.86181 ], [ 0.79975, 44.86221 ], [ 0.79976, 44.86244 ], [ 0.79964, 44.86262 ], [ 0.79901, 44.86285 ], [ 0.7989, 44.86282 ], [ 0.79892, 44.86274 ], [ 0.79862, 44.8627 ], [ 0.79835, 44.8627 ], [ 0.79802, 44.86296 ], [ 0.79777, 44.86339 ], [ 0.7977, 44.86363 ], [ 0.79862, 44.86386 ], [ 0.79906, 44.86396 ], [ 0.80122, 44.86449 ], [ 0.80223, 44.86468 ], [ 0.80373, 44.86497 ], [ 0.80403, 44.865 ], [ 0.8052, 44.86511 ], [ 0.80519, 44.86488 ], [ 0.80507, 44.86441 ], [ 0.80518, 44.86404 ], [ 0.80529, 44.86391 ], [ 0.80629, 44.86322 ], [ 0.80599, 44.86315 ], [ 0.80612, 44.86298 ], [ 0.80629, 44.86254 ], [ 0.80644, 44.86218 ], [ 0.8066, 44.8617 ], [ 0.80662, 44.86153 ], [ 0.80667, 44.86047 ], [ 0.80686, 44.85967 ], [ 0.80742, 44.8584 ], [ 0.80758, 44.85816 ], [ 0.80752, 44.85787 ], [ 0.80738, 44.85759 ], [ 0.80727, 44.85726 ], [ 0.80706, 44.85616 ], [ 0.80702, 44.85451 ], [ 0.80701, 44.85416 ], [ 0.807, 44.85386 ], [ 0.807, 44.85376 ], [ 0.80702, 44.85369 ], [ 0.80714, 44.85364 ], [ 0.80713, 44.8536 ], [ 0.80692, 44.85336 ], [ 0.8062, 44.85272 ], [ 0.80571, 44.8523 ], [ 0.80519, 44.85179 ], [ 0.80397, 44.85075 ], [ 0.80251, 44.84998 ], [ 0.80161, 44.84952 ], [ 0.79992, 44.84857 ], [ 0.79809, 44.84755 ], [ 0.79574, 44.84637 ], [ 0.79501, 44.84599 ], [ 0.79279, 44.8448 ], [ 0.79185, 44.8444 ], [ 0.79147, 44.84403 ], [ 0.79093, 44.84391 ], [ 0.79044, 44.84364 ], [ 0.78973, 44.8433 ], [ 0.7888, 44.84299 ], [ 0.78848, 44.84287 ], [ 0.78733, 44.84249 ], [ 0.7863, 44.84215 ], [ 0.78587, 44.84195 ], [ 0.78555, 44.84178 ], [ 0.78495, 44.84156 ], [ 0.78462, 44.84161 ], [ 0.7843, 44.84163 ], [ 0.78395, 44.84163 ], [ 0.78355, 44.84157 ], [ 0.78309, 44.84146 ], [ 0.78255, 44.84123 ], [ 0.7819, 44.84099 ], [ 0.78124, 44.84071 ], [ 0.78061, 44.84051 ], [ 0.78032, 44.84044 ], [ 0.78031, 44.8402 ], [ 0.77958, 44.84009 ], [ 0.77913, 44.83999 ], [ 0.77886, 44.83991 ], [ 0.77875, 44.83978 ], [ 0.7785, 44.83964 ], [ 0.7779, 44.83961 ], [ 0.77742, 44.8396 ], [ 0.77647, 44.83933 ], [ 0.77552, 44.83897 ], [ 0.77515, 44.83884 ], [ 0.77496, 44.83899 ], [ 0.77112, 44.83794 ], [ 0.76872, 44.83737 ], [ 0.76697, 44.83714 ], [ 0.76499, 44.83696 ], [ 0.76369, 44.837 ], [ 0.76241, 44.83694 ], [ 0.76152, 44.83701 ], [ 0.76087, 44.83702 ], [ 0.75997, 44.83693 ], [ 0.75795, 44.83657 ], [ 0.75626, 44.83648 ], [ 0.75537, 44.83656 ], [ 0.75495, 44.83655 ], [ 0.75345, 44.83621 ], [ 0.75214, 44.83582 ], [ 0.75058, 44.83553 ], [ 0.74974, 44.83533 ], [ 0.74863, 44.83503 ], [ 0.74715, 44.83478 ], [ 0.7453, 44.83446 ], [ 0.74369, 44.83414 ], [ 0.74182, 44.83394 ], [ 0.74062, 44.83381 ], [ 0.74024, 44.83568 ], [ 0.7408, 44.83573 ], [ 0.74086, 44.83574 ], [ 0.74175, 44.83643 ], [ 0.74316, 44.83712 ], [ 0.7442, 44.83753 ], [ 0.74745, 44.83795 ], [ 0.74947, 44.83825 ], [ 0.75444, 44.83893 ], [ 0.75825, 44.83955 ], [ 0.75864, 44.83963 ], [ 0.7596, 44.83977 ], [ 0.76026, 44.83984 ], [ 0.76108, 44.84002 ], [ 0.76175, 44.84024 ], [ 0.76181, 44.8403 ], [ 0.76209, 44.84048 ], [ 0.76239, 44.84071 ], [ 0.76257, 44.84084 ], [ 0.76278, 44.84101 ], [ 0.76297, 44.84116 ], [ 0.7632, 44.84135 ], [ 0.76336, 44.84147 ], [ 0.76353, 44.84153 ], [ 0.76376, 44.84157 ], [ 0.76409, 44.84164 ], [ 0.76429, 44.84168 ], [ 0.76451, 44.84173 ], [ 0.76478, 44.84178 ], [ 0.76525, 44.84186 ], [ 0.76519, 44.84171 ], [ 0.76477, 44.84124 ], [ 0.7641, 44.84076 ], [ 0.76376, 44.84044 ], [ 0.76395, 44.8402 ], [ 0.76438, 44.8401 ], [ 0.76528, 44.84002 ], [ 0.76602, 44.84002 ], [ 0.76643, 44.84005 ], [ 0.76724, 44.84008 ], [ 0.76761, 44.8401 ], [ 0.76858, 44.84001 ], [ 0.76916, 44.84005 ], [ 0.76951, 44.8401 ], [ 0.77015, 44.84021 ], [ 0.7706, 44.84032 ], [ 0.77144, 44.8407 ], [ 0.7716, 44.84082 ], [ 0.77178, 44.84103 ], [ 0.77209, 44.84113 ], [ 0.77254, 44.84117 ], [ 0.77302, 44.84112 ], [ 0.77352, 44.84115 ], [ 0.77408, 44.84149 ], [ 0.77439, 44.84158 ], [ 0.77517, 44.84183 ], [ 0.7756, 44.84198 ], [ 0.77586, 44.84225 ], [ 0.77604, 44.84242 ], [ 0.77622, 44.84259 ], [ 0.77649, 44.84271 ], [ 0.77676, 44.8427 ], [ 0.77759, 44.84262 ], [ 0.778, 44.8427 ], [ 0.77944, 44.84355 ], [ 0.77955, 44.84404 ], [ 0.78009, 44.84415 ], [ 0.78048, 44.84405 ], [ 0.78131, 44.84325 ], [ 0.78162, 44.84318 ], [ 0.78199, 44.84347 ], [ 0.7826, 44.84387 ], [ 0.78336, 44.84406 ], [ 0.78528, 44.84463 ], [ 0.78592, 44.84473 ], [ 0.78615, 44.84476 ], [ 0.78687, 44.84492 ], [ 0.78763, 44.84541 ] ] ], [ [ [ 0.77231, 44.8441 ], [ 0.77341, 44.84446 ], [ 0.7746, 44.84496 ], [ 0.77527, 44.84525 ], [ 0.77536, 44.84517 ], [ 0.77533, 44.84476 ], [ 0.77532, 44.84468 ], [ 0.77523, 44.8444 ], [ 0.77487, 44.84431 ], [ 0.77373, 44.84396 ], [ 0.77147, 44.84343 ], [ 0.76864, 44.84268 ], [ 0.76548, 44.84205 ], [ 0.76409, 44.84187 ], [ 0.76639, 44.8425 ], [ 0.76874, 44.84312 ], [ 0.7713, 44.84383 ], [ 0.77231, 44.8441 ] ] ], [ [ [ 0.77806, 44.84465 ], [ 0.77745, 44.84469 ], [ 0.7765, 44.84469 ], [ 0.77545, 44.84468 ], [ 0.77546, 44.84478 ], [ 0.77549, 44.84503 ], [ 0.77554, 44.84526 ], [ 0.77589, 44.84533 ], [ 0.77618, 44.84539 ], [ 0.77662, 44.84543 ], [ 0.77767, 44.84535 ], [ 0.77852, 44.84526 ], [ 0.77918, 44.84506 ], [ 0.77968, 44.84477 ], [ 0.78006, 44.84445 ], [ 0.77932, 44.84427 ], [ 0.77905, 44.84436 ], [ 0.77872, 44.84452 ], [ 0.77839, 44.8446 ], [ 0.77806, 44.84465 ] ] ] ] } },
{ "type": "Feature", "properties": { "commune": "Sous bassin Dordogne centre", "nom": "Zone rouge", "nomrisque": "Multirisque", "IDCAUE_EPC": 21 }, "geometry": { "type": "MultiPolygon", "coordinates": [ [ [ [ 0.83293, 44.87562 ], [ 0.8333, 44.8753 ], [ 0.83306, 44.87524 ], [ 0.8328, 44.87518 ], [ 0.83242, 44.875 ], [ 0.83211, 44.8748 ], [ 0.83198, 44.87449 ], [ 0.83192, 44.87426 ], [ 0.83123, 44.87429 ], [ 0.83052, 44.87436 ], [ 0.83009, 44.87432 ], [ 0.82991, 44.87419 ], [ 0.82987, 44.87376 ], [ 0.8297, 44.87305 ], [ 0.82946, 44.8724 ], [ 0.82897, 44.87175 ], [ 0.82857, 44.87132 ], [ 0.82818, 44.87088 ], [ 0.8281, 44.87003 ], [ 0.82776, 44.86805 ], [ 0.82798, 44.86664 ], [ 0.82783, 44.86637 ], [ 0.8274, 44.8659 ], [ 0.82724, 44.86563 ], [ 0.8271, 44.86541 ], [ 0.82723, 44.86523 ], [ 0.82751, 44.86506 ], [ 0.82799, 44.8648 ], [ 0.82849, 44.86451 ], [ 0.829, 44.86424 ], [ 0.82922, 44.86394 ], [ 0.8292, 44.86335 ], [ 0.82904, 44.86344 ], [ 0.8282, 44.86386 ], [ 0.82717, 44.86427 ], [ 0.82662, 44.86442 ], [ 0.82579, 44.86462 ], [ 0.82523, 44.86469 ], [ 0.82386, 44.86468 ], [ 0.82122, 44.86461 ], [ 0.82121, 44.86527 ], [ 0.82121, 44.86576 ], [ 0.82121, 44.86707 ], [ 0.82116, 44.86772 ], [ 0.82109, 44.86821 ], [ 0.821, 44.86896 ], [ 0.82073, 44.87014 ], [ 0.82049, 44.87072 ], [ 0.82037, 44.87099 ], [ 0.82023, 44.87138 ], [ 0.82015, 44.87167 ], [ 0.82001, 44.87218 ], [ 0.82004, 44.87236 ], [ 0.82019, 44.87234 ], [ 0.82027, 44.87234 ], [ 0.82046, 44.87232 ], [ 0.821, 44.87233 ], [ 0.82162, 44.87233 ], [ 0.82348, 44.87244 ], [ 0.82347, 44.87257 ], [ 0.82209, 44.87254 ], [ 0.82102, 44.8725 ], [ 0.82048, 44.87248 ], [ 0.82029, 44.87251 ], [ 0.82001, 44.87255 ], [ 0.81988, 44.87267 ], [ 0.81957, 44.87311 ], [ 0.81929, 44.87363 ], [ 0.81894, 44.8743 ], [ 0.81847, 44.87522 ], [ 0.81813, 44.87583 ], [ 0.81758, 44.87673 ], [ 0.81704, 44.87731 ], [ 0.81638, 44.87789 ], [ 0.81632, 44.87819 ], [ 0.81643, 44.87874 ], [ 0.81631, 44.8792 ], [ 0.81588, 44.87928 ], [ 0.81534, 44.87937 ], [ 0.81405, 44.88 ], [ 0.81215, 44.88044 ], [ 0.81127, 44.88046 ], [ 0.81006, 44.88042 ], [ 0.80709, 44.88022 ], [ 0.80563, 44.88009 ], [ 0.80506, 44.87988 ], [ 0.80441, 44.87918 ], [ 0.80393, 44.87852 ], [ 0.80331, 44.87734 ], [ 0.80291, 44.87646 ], [ 0.80285, 44.87616 ], [ 0.80274, 44.8754 ], [ 0.80229, 44.87481 ], [ 0.80204, 44.87443 ], [ 0.80164, 44.8736 ], [ 0.8015, 44.87301 ], [ 0.80165, 44.87216 ], [ 0.80178, 44.87151 ], [ 0.80206, 44.87034 ], [ 0.80253, 44.8695 ], [ 0.80281, 44.86909 ], [ 0.80347, 44.86813 ], [ 0.8038, 44.86737 ], [ 0.80392, 44.86744 ], [ 0.80412, 44.86719 ], [ 0.8045, 44.8665 ], [ 0.80479, 44.86584 ], [ 0.80505, 44.86541 ], [ 0.80485, 44.8654 ], [ 0.80459, 44.86537 ], [ 0.80308, 44.86517 ], [ 0.80221, 44.86497 ], [ 0.80176, 44.86487 ], [ 0.79903, 44.86424 ], [ 0.79824, 44.86406 ], [ 0.79813, 44.86404 ], [ 0.7976, 44.86392 ], [ 0.79752, 44.86419 ], [ 0.79764, 44.86431 ], [ 0.7979, 44.86443 ], [ 0.79796, 44.86456 ], [ 0.79811, 44.86475 ], [ 0.79799, 44.86474 ], [ 0.79796, 44.86485 ], [ 0.79808, 44.86487 ], [ 0.79804, 44.86512 ], [ 0.79794, 44.86568 ], [ 0.79804, 44.86614 ], [ 0.79818, 44.86683 ], [ 0.79804, 44.86765 ], [ 0.79782, 44.86831 ], [ 0.79745, 44.86946 ], [ 0.79731, 44.86998 ], [ 0.79723, 44.87052 ], [ 0.79706, 44.87188 ], [ 0.79705, 44.8726 ], [ 0.79696, 44.87335 ], [ 0.79697, 44.87426 ], [ 0.79696, 44.8748 ], [ 0.79705, 44.87515 ], [ 0.79742, 44.87637 ], [ 0.79756, 44.87688 ], [ 0.79772, 44.8774 ], [ 0.79786, 44.87783 ], [ 0.79805, 44.87838 ], [ 0.79822, 44.879 ], [ 0.79847, 44.87962 ], [ 0.79879, 44.88026 ], [ 0.79928, 44.88107 ], [ 0.79958, 44.88156 ], [ 0.79994, 44.88194 ], [ 0.80049, 44.8824 ], [ 0.80126, 44.88313 ], [ 0.80198, 44.88358 ], [ 0.80272, 44.88406 ], [ 0.80314, 44.88441 ], [ 0.80326, 44.88461 ], [ 0.80331, 44.88479 ], [ 0.80351, 44.88484 ], [ 0.80415, 44.88475 ], [ 0.80484, 44.88496 ], [ 0.80569, 44.88524 ], [ 0.80689, 44.88564 ], [ 0.80801, 44.886 ], [ 0.80882, 44.88628 ], [ 0.80907, 44.88648 ], [ 0.80946, 44.88636 ], [ 0.80986, 44.88631 ], [ 0.81184, 44.88644 ], [ 0.81334, 44.88647 ], [ 0.81425, 44.88646 ], [ 0.81546, 44.88637 ], [ 0.81744, 44.88623 ], [ 0.81899, 44.88608 ], [ 0.82028, 44.88583 ], [ 0.82163, 44.88526 ], [ 0.8227, 44.88443 ], [ 0.82341, 44.88366 ], [ 0.82388, 44.88321 ], [ 0.8243, 44.88272 ], [ 0.82481, 44.8823 ], [ 0.82503, 44.88206 ], [ 0.82515, 44.88183 ], [ 0.82516, 44.88149 ], [ 0.82545, 44.88091 ], [ 0.82573, 44.88033 ], [ 0.82592, 44.87998 ], [ 0.8262, 44.87903 ], [ 0.82655, 44.87827 ], [ 0.82684, 44.8778 ], [ 0.82698, 44.87762 ], [ 0.82703, 44.87716 ], [ 0.82735, 44.87677 ], [ 0.82779, 44.87613 ], [ 0.82803, 44.87587 ], [ 0.82848, 44.87562 ], [ 0.82888, 44.87546 ], [ 0.82919, 44.87542 ], [ 0.82983, 44.87542 ], [ 0.83026, 44.87532 ], [ 0.83071, 44.87528 ], [ 0.8311, 44.87519 ], [ 0.83126, 44.87519 ], [ 0.83152, 44.87527 ], [ 0.83211, 44.87539 ], [ 0.83251, 44.87551 ], [ 0.83293, 44.87562 ] ] ] ] } },
{ "type": "Feature", "properties": { "commune": "Sous bassin Dordogne centre", "nom": "Zone bleue", "nomrisque": "Multirisque", "IDCAUE_EPC": 21 }, "geometry": { "type": "MultiPolygon", "coordinates": [ [ [ [ 0.83257, 44.8607 ], [ 0.83313, 44.86024 ], [ 0.83335, 44.86001 ], [ 0.83356, 44.85968 ], [ 0.83363, 44.85912 ], [ 0.83382, 44.85867 ], [ 0.8339, 44.8584 ], [ 0.83416, 44.85822 ], [ 0.83444, 44.85816 ], [ 0.83519, 44.85806 ], [ 0.83557, 44.85799 ], [ 0.83586, 44.85779 ], [ 0.836, 44.85763 ], [ 0.83609, 44.85753 ], [ 0.83632, 44.85782 ], [ 0.83653, 44.85801 ], [ 0.83623, 44.85815 ], [ 0.83579, 44.85838 ], [ 0.83574, 44.8586 ], [ 0.83582, 44.85876 ], [ 0.83606, 44.85881 ], [ 0.83637, 44.85867 ], [ 0.83677, 44.85842 ], [ 0.83758, 44.85803 ], [ 0.83822, 44.85782 ], [ 0.83851, 44.85753 ], [ 0.83841, 44.85727 ], [ 0.83816, 44.85716 ], [ 0.83784, 44.8573 ], [ 0.83755, 44.8574 ], [ 0.83683, 44.85759 ], [ 0.83632, 44.85748 ], [ 0.83614, 44.85731 ], [ 0.83633, 44.8572 ], [ 0.8366, 44.85704 ], [ 0.8377, 44.85691 ], [ 0.83827, 44.85689 ], [ 0.83859, 44.8567 ], [ 0.84025, 44.85611 ], [ 0.84024, 44.85592 ], [ 0.84035, 44.85588 ], [ 0.84042, 44.85604 ], [ 0.84081, 44.85585 ], [ 0.84248, 44.85532 ], [ 0.84504, 44.85519 ], [ 0.84565, 44.85518 ], [ 0.84615, 44.85523 ], [ 0.84685, 44.8554 ], [ 0.84757, 44.85566 ], [ 0.84856, 44.85612 ], [ 0.84897, 44.85629 ], [ 0.85006, 44.85683 ], [ 0.85102, 44.85742 ], [ 0.85174, 44.85788 ], [ 0.85234, 44.85841 ], [ 0.8524, 44.85871 ], [ 0.85252, 44.85895 ], [ 0.85305, 44.85951 ], [ 0.85328, 44.85977 ], [ 0.85371, 44.86028 ], [ 0.85382, 44.86056 ], [ 0.85383, 44.86082 ], [ 0.8537, 44.86112 ], [ 0.85372, 44.86131 ], [ 0.85515, 44.86217 ], [ 0.85655, 44.86263 ], [ 0.85789, 44.86291 ], [ 0.86016, 44.86333 ], [ 0.86361, 44.86399 ], [ 0.86422, 44.86411 ], [ 0.86586, 44.86439 ], [ 0.86622, 44.86442 ], [ 0.86609, 44.86225 ], [ 0.86557, 44.86017 ], [ 0.86484, 44.85866 ], [ 0.8641, 44.85772 ], [ 0.86205, 44.85568 ], [ 0.85989, 44.85384 ], [ 0.85746, 44.85229 ], [ 0.857, 44.85189 ], [ 0.85693, 44.85153 ], [ 0.85657, 44.85153 ], [ 0.85603, 44.85147 ], [ 0.8548, 44.85117 ], [ 0.85387, 44.85082 ], [ 0.85238, 44.85052 ], [ 0.85127, 44.85024 ], [ 0.84935, 44.84985 ], [ 0.84667, 44.84956 ], [ 0.84355, 44.84957 ], [ 0.84104, 44.84987 ], [ 0.83856, 44.85025 ], [ 0.83618, 44.85074 ], [ 0.83399, 44.85117 ], [ 0.83194, 44.85187 ], [ 0.82926, 44.85291 ], [ 0.82716, 44.85418 ], [ 0.82509, 44.8556 ], [ 0.82408, 44.85654 ], [ 0.82325, 44.85756 ], [ 0.8222, 44.85899 ], [ 0.82157, 44.86079 ], [ 0.82127, 44.86247 ], [ 0.82115, 44.86417 ], [ 0.82343, 44.86433 ], [ 0.82389, 44.86432 ], [ 0.825, 44.8643 ], [ 0.82645, 44.86411 ], [ 0.82869, 44.86321 ], [ 0.82896, 44.86291 ], [ 0.82908, 44.86249 ], [ 0.82912, 44.86231 ], [ 0.83015, 44.86184 ], [ 0.83058, 44.86184 ], [ 0.83113, 44.8617 ], [ 0.83143, 44.86155 ], [ 0.83203, 44.8611 ], [ 0.83257, 44.8607 ] ] ] ] } },
{ "type": "Feature", "properties": { "commune": "Sous bassin Dordogne centre", "nom": "Zone bleue", "nomrisque": "Multirisque", "IDCAUE_EPC": 21 }, "geometry": { "type": "MultiPolygon", "coordinates": [ [ [ [ 0.87678, 44.87991 ], [ 0.87644, 44.87989 ], [ 0.87493, 44.87977 ], [ 0.87352, 44.87954 ], [ 0.87191, 44.87914 ], [ 0.86993, 44.87821 ], [ 0.86804, 44.87698 ], [ 0.86707, 44.87601 ], [ 0.86683, 44.87565 ], [ 0.86671, 44.87472 ], [ 0.86659, 44.87309 ], [ 0.86638, 44.87217 ], [ 0.86624, 44.8715 ], [ 0.86617, 44.87044 ], [ 0.86599, 44.86858 ], [ 0.86609, 44.86776 ], [ 0.86606, 44.86754 ], [ 0.86599, 44.86714 ], [ 0.86585, 44.86659 ], [ 0.86588, 44.86596 ], [ 0.86605, 44.86476 ], [ 0.86351, 44.86429 ], [ 0.86099, 44.86383 ], [ 0.86022, 44.86369 ], [ 0.85708, 44.86312 ], [ 0.85643, 44.863 ], [ 0.85569, 44.86279 ], [ 0.85547, 44.86274 ], [ 0.8563, 44.86333 ], [ 0.85665, 44.86348 ], [ 0.85695, 44.86345 ], [ 0.85729, 44.86375 ], [ 0.85762, 44.86428 ], [ 0.85784, 44.86501 ], [ 0.85782, 44.8654 ], [ 0.85832, 44.86653 ], [ 0.85909, 44.86741 ], [ 0.85991, 44.8694 ], [ 0.86067, 44.87094 ], [ 0.86118, 44.87263 ], [ 0.86156, 44.87369 ], [ 0.86157, 44.87369 ], [ 0.86162, 44.87368 ], [ 0.86163, 44.87368 ], [ 0.86165, 44.87368 ], [ 0.86172, 44.87368 ], [ 0.86174, 44.87368 ], [ 0.86184, 44.87367 ], [ 0.86185, 44.87367 ], [ 0.86186, 44.87367 ], [ 0.86189, 44.87368 ], [ 0.86191, 44.87368 ], [ 0.86206, 44.87367 ], [ 0.86214, 44.87367 ], [ 0.86215, 44.87367 ], [ 0.86308, 44.87359 ], [ 0.86311, 44.87366 ], [ 0.86315, 44.87385 ], [ 0.8632, 44.8741 ], [ 0.8632, 44.87411 ], [ 0.86324, 44.87423 ], [ 0.86334, 44.87461 ], [ 0.86349, 44.87511 ], [ 0.86363, 44.8756 ], [ 0.86376, 44.87612 ], [ 0.86379, 44.87622 ], [ 0.86384, 44.87636 ], [ 0.86385, 44.87638 ], [ 0.86437, 44.87729 ], [ 0.86458, 44.87763 ], [ 0.86493, 44.87817 ], [ 0.86494, 44.87817 ], [ 0.86505, 44.87832 ], [ 0.86534, 44.8787 ], [ 0.86568, 44.87916 ], [ 0.86569, 44.87918 ], [ 0.86583, 44.87931 ], [ 0.86601, 44.87949 ], [ 0.86608, 44.87955 ], [ 0.86641, 44.87983 ], [ 0.86641, 44.87984 ], [ 0.86665, 44.88005 ], [ 0.8667, 44.88009 ], [ 0.86689, 44.88024 ], [ 0.86713, 44.8804 ], [ 0.86727, 44.8805 ], [ 0.86735, 44.88055 ], [ 0.86754, 44.88063 ], [ 0.86794, 44.88082 ], [ 0.86844, 44.88104 ], [ 0.8685, 44.88107 ], [ 0.86851, 44.88107 ], [ 0.86857, 44.8811 ], [ 0.86896, 44.88125 ], [ 0.86898, 44.88125 ], [ 0.86901, 44.88127 ], [ 0.86925, 44.88136 ], [ 0.86939, 44.8814 ], [ 0.8694, 44.88141 ], [ 0.86954, 44.88145 ], [ 0.86955, 44.88146 ], [ 0.86958, 44.88146 ], [ 0.86972, 44.8815 ], [ 0.8698, 44.88154 ], [ 0.86983, 44.88154 ], [ 0.87028, 44.88169 ], [ 0.87032, 44.88169 ], [ 0.87033, 44.8817 ], [ 0.87036, 44.8817 ], [ 0.87053, 44.88176 ], [ 0.87056, 44.88177 ], [ 0.87058, 44.88178 ], [ 0.87069, 44.88181 ], [ 0.87103, 44.88189 ], [ 0.87179, 44.88208 ], [ 0.87183, 44.88209 ], [ 0.87188, 44.88211 ], [ 0.87195, 44.88212 ], [ 0.87206, 44.88215 ], [ 0.8721, 44.88216 ], [ 0.87223, 44.88218 ], [ 0.87225, 44.88218 ], [ 0.87263, 44.88224 ], [ 0.87266, 44.88224 ], [ 0.87287, 44.88227 ], [ 0.8729, 44.88228 ], [ 0.87297, 44.88228 ], [ 0.87334, 44.88232 ], [ 0.87336, 44.88232 ], [ 0.87401, 44.88239 ], [ 0.87403, 44.8824 ], [ 0.87459, 44.88246 ], [ 0.87537, 44.88256 ], [ 0.87539, 44.88256 ], [ 0.87611, 44.88265 ], [ 0.87619, 44.88266 ], [ 0.87621, 44.88266 ], [ 0.87649, 44.88269 ], [ 0.8765, 44.88269 ], [ 0.87668, 44.88269 ], [ 0.87669, 44.88269 ], [ 0.87688, 44.88269 ], [ 0.8769, 44.88269 ], [ 0.8775, 44.88266 ], [ 0.87771, 44.88265 ], [ 0.87772, 44.88265 ], [ 0.87852, 44.88259 ], [ 0.87853, 44.88259 ], [ 0.87885, 44.88256 ], [ 0.87927, 44.88252 ], [ 0.87928, 44.88252 ], [ 0.87951, 44.88249 ], [ 0.88002, 44.88244 ], [ 0.88021, 44.88242 ], [ 0.8806, 44.8824 ], [ 0.88146, 44.88235 ], [ 0.88147, 44.88235 ], [ 0.88213, 44.8823 ], [ 0.88226, 44.88229 ], [ 0.88227, 44.88229 ], [ 0.88282, 44.88227 ], [ 0.88342, 44.88226 ], [ 0.88373, 44.88227 ], [ 0.88455, 44.88228 ], [ 0.88459, 44.88228 ], [ 0.88521, 44.88228 ], [ 0.88536, 44.88228 ], [ 0.88602, 44.88226 ], [ 0.88635, 44.88225 ], [ 0.88637, 44.88224 ], [ 0.88655, 44.88222 ], [ 0.88669, 44.88221 ], [ 0.88706, 44.88217 ], [ 0.88707, 44.88217 ], [ 0.88774, 44.88209 ], [ 0.88776, 44.88208 ], [ 0.88791, 44.88206 ], [ 0.88796, 44.88205 ], [ 0.88811, 44.88201 ], [ 0.88835, 44.88195 ], [ 0.88865, 44.88186 ], [ 0.88866, 44.88186 ], [ 0.88895, 44.88177 ], [ 0.88898, 44.88176 ], [ 0.88909, 44.88173 ], [ 0.88915, 44.88167 ], [ 0.88916, 44.88166 ], [ 0.88921, 44.88162 ], [ 0.88921, 44.8816 ], [ 0.8893, 44.88153 ], [ 0.88952, 44.88128 ], [ 0.88972, 44.88106 ], [ 0.88972, 44.88105 ], [ 0.88972, 44.88105 ], [ 0.88971, 44.88104 ], [ 0.88881, 44.8808 ], [ 0.88894, 44.88066 ], [ 0.88981, 44.88092 ], [ 0.88985, 44.88085 ], [ 0.89005, 44.88047 ], [ 0.89008, 44.88042 ], [ 0.8901, 44.88037 ], [ 0.89014, 44.88031 ], [ 0.89053, 44.87949 ], [ 0.8906, 44.87934 ], [ 0.89063, 44.87925 ], [ 0.89066, 44.87912 ], [ 0.89074, 44.8788 ], [ 0.89078, 44.87865 ], [ 0.89078, 44.87864 ], [ 0.89082, 44.87846 ], [ 0.89088, 44.87816 ], [ 0.89088, 44.87814 ], [ 0.8909, 44.87792 ], [ 0.8909, 44.8779 ], [ 0.89094, 44.87757 ], [ 0.89095, 44.87733 ], [ 0.89096, 44.87731 ], [ 0.89098, 44.87682 ], [ 0.89098, 44.87679 ], [ 0.89098, 44.87666 ], [ 0.89099, 44.87663 ], [ 0.89099, 44.87656 ], [ 0.89098, 44.87652 ], [ 0.89095, 44.87602 ], [ 0.89095, 44.87598 ], [ 0.89094, 44.87595 ], [ 0.89087, 44.87514 ], [ 0.89087, 44.87489 ], [ 0.89086, 44.8748 ], [ 0.89086, 44.87475 ], [ 0.89085, 44.87462 ], [ 0.89085, 44.87459 ], [ 0.89087, 44.87378 ], [ 0.89086, 44.87375 ], [ 0.89086, 44.87374 ], [ 0.89082, 44.87341 ], [ 0.89082, 44.87338 ], [ 0.89082, 44.87336 ], [ 0.8907, 44.87265 ], [ 0.89068, 44.87263 ], [ 0.89063, 44.87219 ], [ 0.89056, 44.87169 ], [ 0.89054, 44.87145 ], [ 0.89048, 44.87117 ], [ 0.89048, 44.87116 ], [ 0.8904, 44.87084 ], [ 0.89025, 44.87024 ], [ 0.89009, 44.8698 ], [ 0.88999, 44.86957 ], [ 0.88991, 44.86939 ], [ 0.88991, 44.86938 ], [ 0.88967, 44.86897 ], [ 0.88954, 44.86876 ], [ 0.88944, 44.86858 ], [ 0.88944, 44.86857 ], [ 0.88933, 44.86842 ], [ 0.88931, 44.86841 ], [ 0.8893, 44.8684 ], [ 0.88903, 44.86806 ], [ 0.88902, 44.86804 ], [ 0.88887, 44.86784 ], [ 0.88878, 44.86765 ], [ 0.88878, 44.86764 ], [ 0.88872, 44.86749 ], [ 0.88868, 44.86733 ], [ 0.88866, 44.86729 ], [ 0.88851, 44.86712 ], [ 0.8885, 44.86709 ], [ 0.88825, 44.86678 ], [ 0.88753, 44.86701 ], [ 0.88723, 44.8671 ], [ 0.88575, 44.86768 ], [ 0.88511, 44.86777 ], [ 0.88486, 44.86781 ], [ 0.88503, 44.86803 ], [ 0.88519, 44.86871 ], [ 0.88521, 44.87021 ], [ 0.88522, 44.87093 ], [ 0.88546, 44.87224 ], [ 0.88567, 44.87313 ], [ 0.88544, 44.87389 ], [ 0.88515, 44.87494 ], [ 0.88474, 44.87597 ], [ 0.88427, 44.87662 ], [ 0.8835, 44.87756 ], [ 0.88297, 44.87805 ], [ 0.88281, 44.87834 ], [ 0.8826, 44.87885 ], [ 0.88206, 44.87931 ], [ 0.88166, 44.8795 ], [ 0.88133, 44.8796 ], [ 0.88058, 44.87972 ], [ 0.87867, 44.87995 ], [ 0.8775, 44.87996 ], [ 0.87678, 44.87991 ] ] ] ] } },
{ "type": "Feature", "properties": { "commune": "Sous bassin Dordogne centre", "nom": "Zone bleue", "nomrisque": "Multirisque", "IDCAUE_EPC": 21 }, "geometry": { "type": "MultiPolygon", "coordinates": [ [ [ [ 0.9147, 44.84969 ], [ 0.91443, 44.84984 ], [ 0.91428, 44.85002 ], [ 0.91408, 44.85017 ], [ 0.9136, 44.85026 ], [ 0.91317, 44.85045 ], [ 0.9124, 44.8509 ], [ 0.91189, 44.8511 ], [ 0.91153, 44.85117 ], [ 0.9112, 44.85117 ], [ 0.91096, 44.85115 ], [ 0.91065, 44.85114 ], [ 0.91058, 44.85114 ], [ 0.91049, 44.85087 ], [ 0.91015, 44.85089 ], [ 0.90993, 44.85054 ], [ 0.90961, 44.85033 ], [ 0.9095, 44.85031 ], [ 0.90906, 44.85045 ], [ 0.90913, 44.85086 ], [ 0.90907, 44.85117 ], [ 0.9089, 44.85136 ], [ 0.90845, 44.85168 ], [ 0.90761, 44.85199 ], [ 0.90705, 44.85203 ], [ 0.90628, 44.85208 ], [ 0.90501, 44.85197 ], [ 0.90446, 44.85186 ], [ 0.90355, 44.85153 ], [ 0.90315, 44.85145 ], [ 0.90216, 44.85141 ], [ 0.90115, 44.85144 ], [ 0.90053, 44.85151 ], [ 0.89997, 44.85162 ], [ 0.89974, 44.85173 ], [ 0.89968, 44.85232 ], [ 0.8996, 44.8543 ], [ 0.89957, 44.85526 ], [ 0.89957, 44.85525 ], [ 0.8996, 44.85524 ], [ 0.8996, 44.85524 ], [ 0.89961, 44.85524 ], [ 0.89962, 44.85523 ], [ 0.89963, 44.85523 ], [ 0.89975, 44.85517 ], [ 0.8999, 44.8551 ], [ 0.89994, 44.85509 ], [ 0.9, 44.85506 ], [ 0.90002, 44.85506 ], [ 0.90003, 44.85506 ], [ 0.90009, 44.85505 ], [ 0.90013, 44.85505 ], [ 0.90014, 44.85505 ], [ 0.90016, 44.85506 ], [ 0.90022, 44.85508 ], [ 0.90029, 44.85512 ], [ 0.90042, 44.85517 ], [ 0.90043, 44.85518 ], [ 0.90059, 44.85526 ], [ 0.90087, 44.8554 ], [ 0.90087, 44.8554 ], [ 0.90089, 44.85541 ], [ 0.90143, 44.85568 ], [ 0.90154, 44.85574 ], [ 0.90161, 44.85577 ], [ 0.90164, 44.85578 ], [ 0.90166, 44.85579 ], [ 0.90167, 44.85579 ], [ 0.90173, 44.85582 ], [ 0.90174, 44.85582 ], [ 0.90179, 44.85585 ], [ 0.90192, 44.8559 ], [ 0.90193, 44.8559 ], [ 0.90211, 44.85597 ], [ 0.90212, 44.85597 ], [ 0.90228, 44.85604 ], [ 0.90229, 44.85604 ], [ 0.90232, 44.85604 ], [ 0.90243, 44.85609 ], [ 0.90244, 44.85609 ], [ 0.90246, 44.8561 ], [ 0.90247, 44.8561 ], [ 0.90262, 44.85614 ], [ 0.90278, 44.85615 ], [ 0.9028, 44.85615 ], [ 0.90281, 44.85615 ], [ 0.90282, 44.85616 ], [ 0.90342, 44.85619 ], [ 0.90364, 44.85619 ], [ 0.90386, 44.8562 ], [ 0.90388, 44.8562 ], [ 0.90395, 44.8562 ], [ 0.90402, 44.85621 ], [ 0.90403, 44.85621 ], [ 0.90407, 44.85621 ], [ 0.90411, 44.85621 ], [ 0.90415, 44.85621 ], [ 0.90439, 44.85618 ], [ 0.90445, 44.85617 ], [ 0.90455, 44.85615 ], [ 0.90466, 44.85615 ], [ 0.9049, 44.85611 ], [ 0.90508, 44.85609 ], [ 0.9053, 44.85607 ], [ 0.90568, 44.85602 ], [ 0.90619, 44.85596 ], [ 0.90622, 44.85596 ], [ 0.90643, 44.85594 ], [ 0.90646, 44.85595 ], [ 0.9065, 44.85594 ], [ 0.90652, 44.85594 ], [ 0.90651, 44.85548 ], [ 0.90874, 44.85562 ], [ 0.90895, 44.85562 ], [ 0.90898, 44.85501 ], [ 0.90907, 44.85459 ], [ 0.90949, 44.8546 ], [ 0.90937, 44.85479 ], [ 0.9093, 44.85496 ], [ 0.90931, 44.85563 ], [ 0.91162, 44.85583 ], [ 0.91211, 44.85587 ], [ 0.91214, 44.85587 ], [ 0.91321, 44.85593 ], [ 0.91324, 44.85594 ], [ 0.91456, 44.85598 ], [ 0.9146, 44.85598 ], [ 0.9152, 44.85598 ], [ 0.91592, 44.85597 ], [ 0.91609, 44.85594 ], [ 0.91615, 44.85593 ], [ 0.91648, 44.85586 ], [ 0.91653, 44.85585 ], [ 0.91683, 44.85576 ], [ 0.91686, 44.85576 ], [ 0.91688, 44.85575 ], [ 0.91723, 44.85562 ], [ 0.91798, 44.85526 ], [ 0.9181, 44.8552 ], [ 0.91812, 44.85526 ], [ 0.91828, 44.85566 ], [ 0.91828, 44.85567 ], [ 0.91829, 44.85571 ], [ 0.91829, 44.85585 ], [ 0.91828, 44.85594 ], [ 0.91829, 44.85595 ], [ 0.91831, 44.856 ], [ 0.91831, 44.85601 ], [ 0.91831, 44.85602 ], [ 0.9183, 44.85611 ], [ 0.91832, 44.85615 ], [ 0.91832, 44.85616 ], [ 0.91834, 44.85619 ], [ 0.91867, 44.85612 ], [ 0.91895, 44.85607 ], [ 0.91899, 44.85606 ], [ 0.91905, 44.85605 ], [ 0.91932, 44.85601 ], [ 0.91934, 44.856 ], [ 0.91942, 44.85599 ], [ 0.91943, 44.85598 ], [ 0.91947, 44.85596 ], [ 0.9196, 44.85588 ], [ 0.91963, 44.85586 ], [ 0.91977, 44.85578 ], [ 0.91997, 44.85566 ], [ 0.92066, 44.85555 ], [ 0.92082, 44.85552 ], [ 0.92142, 44.85548 ], [ 0.92222, 44.85533 ], [ 0.92263, 44.85525 ], [ 0.92268, 44.85525 ], [ 0.92273, 44.85526 ], [ 0.92279, 44.85526 ], [ 0.92279, 44.85525 ], [ 0.92279, 44.85523 ], [ 0.9228, 44.85518 ], [ 0.92289, 44.85517 ], [ 0.92306, 44.85512 ], [ 0.9233, 44.85507 ], [ 0.92331, 44.85506 ], [ 0.92339, 44.85505 ], [ 0.92348, 44.85503 ], [ 0.92372, 44.85498 ], [ 0.92387, 44.85495 ], [ 0.92437, 44.85484 ], [ 0.92448, 44.85481 ], [ 0.92464, 44.85478 ], [ 0.92465, 44.85478 ], [ 0.92469, 44.85477 ], [ 0.92483, 44.85473 ], [ 0.92484, 44.85473 ], [ 0.92502, 44.85469 ], [ 0.92513, 44.85467 ], [ 0.92522, 44.85466 ], [ 0.92527, 44.85471 ], [ 0.92529, 44.85474 ], [ 0.92544, 44.85469 ], [ 0.92558, 44.85464 ], [ 0.92559, 44.85464 ], [ 0.92564, 44.85463 ], [ 0.92612, 44.85448 ], [ 0.92616, 44.85446 ], [ 0.92657, 44.85433 ], [ 0.92666, 44.8543 ], [ 0.92699, 44.85419 ], [ 0.92709, 44.85417 ], [ 0.92711, 44.85416 ], [ 0.92756, 44.85401 ], [ 0.92768, 44.85397 ], [ 0.92792, 44.85389 ], [ 0.92795, 44.85388 ], [ 0.92796, 44.85387 ], [ 0.92801, 44.85386 ], [ 0.92809, 44.85381 ], [ 0.9281, 44.8538 ], [ 0.92818, 44.85377 ], [ 0.92821, 44.85375 ], [ 0.92845, 44.85363 ], [ 0.92855, 44.85358 ], [ 0.9286, 44.85356 ], [ 0.92872, 44.8535 ], [ 0.92873, 44.85349 ], [ 0.92874, 44.85348 ], [ 0.92879, 44.85341 ], [ 0.92879, 44.85341 ], [ 0.9289, 44.85325 ], [ 0.92892, 44.85322 ], [ 0.92895, 44.85318 ], [ 0.92895, 44.85318 ], [ 0.92898, 44.85314 ], [ 0.92908, 44.85299 ], [ 0.92911, 44.85295 ], [ 0.92932, 44.85268 ], [ 0.9294, 44.85257 ], [ 0.92941, 44.85255 ], [ 0.92942, 44.85252 ], [ 0.92944, 44.85252 ], [ 0.9297, 44.85215 ], [ 0.92971, 44.85215 ], [ 0.93, 44.85174 ], [ 0.93001, 44.85173 ], [ 0.93004, 44.8517 ], [ 0.9301, 44.8516 ], [ 0.93014, 44.85154 ], [ 0.9302, 44.85146 ], [ 0.93019, 44.85145 ], [ 0.93016, 44.85122 ], [ 0.93018, 44.85121 ], [ 0.9302, 44.8512 ], [ 0.93022, 44.85119 ], [ 0.93022, 44.85119 ], [ 0.93029, 44.85115 ], [ 0.93032, 44.85113 ], [ 0.93041, 44.85108 ], [ 0.93049, 44.85103 ], [ 0.93055, 44.851 ], [ 0.93065, 44.85096 ], [ 0.93069, 44.85095 ], [ 0.93078, 44.85092 ], [ 0.93083, 44.85091 ], [ 0.93087, 44.85088 ], [ 0.93102, 44.8508 ], [ 0.93103, 44.85079 ], [ 0.93108, 44.85077 ], [ 0.93114, 44.85073 ], [ 0.93128, 44.85065 ], [ 0.93138, 44.85059 ], [ 0.93157, 44.85045 ], [ 0.93163, 44.85041 ], [ 0.93166, 44.85039 ], [ 0.93181, 44.85031 ], [ 0.93188, 44.85027 ], [ 0.9319, 44.85026 ], [ 0.93191, 44.85025 ], [ 0.93193, 44.85024 ], [ 0.93195, 44.85021 ], [ 0.93195, 44.8502 ], [ 0.93196, 44.85019 ], [ 0.93197, 44.85015 ], [ 0.93197, 44.85012 ], [ 0.93198, 44.85011 ], [ 0.93199, 44.85008 ], [ 0.93199, 44.85007 ], [ 0.932, 44.85006 ], [ 0.932, 44.85005 ], [ 0.93204, 44.84999 ], [ 0.93205, 44.84999 ], [ 0.93211, 44.84995 ], [ 0.93212, 44.84994 ], [ 0.93213, 44.84993 ], [ 0.93217, 44.84991 ], [ 0.93218, 44.84991 ], [ 0.9322, 44.8499 ], [ 0.93221, 44.84989 ], [ 0.93222, 44.84989 ], [ 0.93223, 44.84988 ], [ 0.9323, 44.84985 ], [ 0.93241, 44.84982 ], [ 0.93251, 44.84978 ], [ 0.93262, 44.84973 ], [ 0.93263, 44.8497 ], [ 0.93264, 44.84969 ], [ 0.93277, 44.84963 ], [ 0.93284, 44.8496 ], [ 0.93287, 44.8496 ], [ 0.93289, 44.84959 ], [ 0.9329, 44.84959 ], [ 0.93291, 44.84958 ], [ 0.93292, 44.84958 ], [ 0.93292, 44.84957 ], [ 0.93296, 44.84953 ], [ 0.93296, 44.84952 ], [ 0.93299, 44.8495 ], [ 0.933, 44.84949 ], [ 0.93305, 44.84945 ], [ 0.93307, 44.84945 ], [ 0.93308, 44.84944 ], [ 0.93316, 44.8494 ], [ 0.93318, 44.84938 ], [ 0.93323, 44.84935 ], [ 0.93341, 44.84927 ], [ 0.93343, 44.84927 ], [ 0.93349, 44.84924 ], [ 0.93352, 44.84922 ], [ 0.93358, 44.84919 ], [ 0.93363, 44.84917 ], [ 0.93364, 44.84917 ], [ 0.93366, 44.84915 ], [ 0.93372, 44.84913 ], [ 0.93373, 44.84913 ], [ 0.93373, 44.84912 ], [ 0.9339, 44.84905 ], [ 0.93392, 44.84904 ], [ 0.93404, 44.84898 ], [ 0.93412, 44.84896 ], [ 0.93413, 44.84896 ], [ 0.93423, 44.84893 ], [ 0.93433, 44.84892 ], [ 0.93433, 44.84891 ], [ 0.93434, 44.84891 ], [ 0.93438, 44.84889 ], [ 0.9345, 44.84885 ], [ 0.93455, 44.84882 ], [ 0.93469, 44.84876 ], [ 0.93473, 44.84874 ], [ 0.93474, 44.84874 ], [ 0.93487, 44.8487 ], [ 0.93488, 44.84869 ], [ 0.93492, 44.84867 ], [ 0.93496, 44.84866 ], [ 0.93497, 44.84866 ], [ 0.93498, 44.84866 ], [ 0.93506, 44.84863 ], [ 0.93511, 44.8486 ], [ 0.93509, 44.84858 ], [ 0.93505, 44.84854 ], [ 0.93506, 44.84853 ], [ 0.93508, 44.84852 ], [ 0.93509, 44.84851 ], [ 0.93539, 44.84827 ], [ 0.93545, 44.84821 ], [ 0.93568, 44.84803 ], [ 0.93572, 44.84798 ], [ 0.9364, 44.84773 ], [ 0.93654, 44.84768 ], [ 0.93677, 44.84759 ], [ 0.93678, 44.84758 ], [ 0.93679, 44.84758 ], [ 0.93681, 44.84757 ], [ 0.937, 44.8475 ], [ 0.9372, 44.84742 ], [ 0.93721, 44.84742 ], [ 0.93727, 44.8474 ], [ 0.9375, 44.84731 ], [ 0.93751, 44.84731 ], [ 0.93755, 44.84729 ], [ 0.93756, 44.84729 ], [ 0.93764, 44.84726 ], [ 0.93773, 44.84722 ], [ 0.93774, 44.84722 ], [ 0.93778, 44.8472 ], [ 0.93779, 44.8472 ], [ 0.9379, 44.84715 ], [ 0.9379, 44.84714 ], [ 0.93792, 44.84714 ], [ 0.93792, 44.84713 ], [ 0.93797, 44.84711 ], [ 0.93798, 44.8471 ], [ 0.93806, 44.84706 ], [ 0.93814, 44.84702 ], [ 0.93826, 44.84694 ], [ 0.9386, 44.84677 ], [ 0.9386, 44.84676 ], [ 0.93806, 44.84638 ], [ 0.93812, 44.84633 ], [ 0.93788, 44.84621 ], [ 0.9379, 44.84616 ], [ 0.93797, 44.84609 ], [ 0.9381, 44.84593 ], [ 0.93835, 44.84564 ], [ 0.93836, 44.84564 ], [ 0.93836, 44.84562 ], [ 0.93874, 44.84519 ], [ 0.93882, 44.84511 ], [ 0.93882, 44.8451 ], [ 0.93883, 44.84509 ], [ 0.93906, 44.84482 ], [ 0.93909, 44.84479 ], [ 0.93917, 44.84471 ], [ 0.93934, 44.84449 ], [ 0.93925, 44.84399 ], [ 0.93923, 44.84387 ], [ 0.93892, 44.8439 ], [ 0.93881, 44.84392 ], [ 0.93839, 44.84394 ], [ 0.93823, 44.84394 ], [ 0.938, 44.84393 ], [ 0.93797, 44.84393 ], [ 0.93783, 44.84391 ], [ 0.93735, 44.84386 ], [ 0.93722, 44.84384 ], [ 0.93688, 44.84379 ], [ 0.93635, 44.8437 ], [ 0.93623, 44.84367 ], [ 0.936, 44.8436 ], [ 0.93551, 44.84347 ], [ 0.93473, 44.84321 ], [ 0.93458, 44.84316 ], [ 0.93379, 44.84289 ], [ 0.93292, 44.84264 ], [ 0.93286, 44.84262 ], [ 0.93252, 44.84253 ], [ 0.93206, 44.8424 ], [ 0.93255, 44.84182 ], [ 0.93255, 44.84181 ], [ 0.93256, 44.84181 ], [ 0.93259, 44.84177 ], [ 0.93265, 44.8417 ], [ 0.93272, 44.84162 ], [ 0.93273, 44.84161 ], [ 0.9328, 44.84153 ], [ 0.9328, 44.84152 ], [ 0.93294, 44.84137 ], [ 0.93294, 44.84136 ], [ 0.93297, 44.84136 ], [ 0.93297, 44.84135 ], [ 0.933, 44.84134 ], [ 0.9332, 44.8413 ], [ 0.93364, 44.84119 ], [ 0.93365, 44.84119 ], [ 0.93411, 44.84108 ], [ 0.93414, 44.84107 ], [ 0.93419, 44.84106 ], [ 0.93426, 44.84104 ], [ 0.93451, 44.84098 ], [ 0.93452, 44.84098 ], [ 0.93453, 44.84097 ], [ 0.93454, 44.84096 ], [ 0.93454, 44.84095 ], [ 0.93454, 44.84094 ], [ 0.93455, 44.84093 ], [ 0.93453, 44.84093 ], [ 0.93452, 44.84092 ], [ 0.93451, 44.84091 ], [ 0.93426, 44.84089 ], [ 0.93424, 44.84089 ], [ 0.9337, 44.84085 ], [ 0.93369, 44.84085 ], [ 0.93365, 44.84085 ], [ 0.9335, 44.84093 ], [ 0.93304, 44.84089 ], [ 0.93324, 44.84082 ], [ 0.93306, 44.8408 ], [ 0.93299, 44.84079 ], [ 0.93298, 44.84079 ], [ 0.93297, 44.84079 ], [ 0.93297, 44.84079 ], [ 0.93296, 44.84079 ], [ 0.93296, 44.84078 ], [ 0.93297, 44.84078 ], [ 0.9331, 44.84072 ], [ 0.9331, 44.84072 ], [ 0.9335, 44.84057 ], [ 0.93356, 44.84055 ], [ 0.93356, 44.84054 ], [ 0.93357, 44.84053 ], [ 0.93359, 44.84051 ], [ 0.93361, 44.8405 ], [ 0.93362, 44.84047 ], [ 0.93362, 44.84037 ], [ 0.93321, 44.84044 ], [ 0.93361, 44.84026 ], [ 0.9336, 44.84025 ], [ 0.93359, 44.84024 ], [ 0.93358, 44.84023 ], [ 0.93355, 44.84022 ], [ 0.93354, 44.84022 ], [ 0.9335, 44.84021 ], [ 0.9335, 44.8402 ], [ 0.93348, 44.8402 ], [ 0.93346, 44.8402 ], [ 0.93345, 44.8402 ], [ 0.93339, 44.8402 ], [ 0.93329, 44.84021 ], [ 0.93322, 44.84022 ], [ 0.93307, 44.84025 ], [ 0.93301, 44.84026 ], [ 0.933, 44.84026 ], [ 0.93295, 44.8403 ], [ 0.93231, 44.84075 ], [ 0.93153, 44.84133 ], [ 0.93019, 44.84229 ], [ 0.92943, 44.84295 ], [ 0.92859, 44.84385 ], [ 0.92763, 44.8447 ], [ 0.92691, 44.84534 ], [ 0.92643, 44.84605 ], [ 0.92583, 44.84669 ], [ 0.92484, 44.84763 ], [ 0.92443, 44.84812 ], [ 0.92377, 44.84848 ], [ 0.92362, 44.84886 ], [ 0.92347, 44.84927 ], [ 0.92287, 44.8498 ], [ 0.92239, 44.85022 ], [ 0.92192, 44.85043 ], [ 0.92159, 44.85055 ], [ 0.92098, 44.85061 ], [ 0.92076, 44.85073 ], [ 0.92041, 44.85081 ], [ 0.92, 44.85096 ], [ 0.91956, 44.85107 ], [ 0.91893, 44.85116 ], [ 0.91816, 44.85121 ], [ 0.91765, 44.85124 ], [ 0.91703, 44.85123 ], [ 0.91674, 44.85123 ], [ 0.91651, 44.85116 ], [ 0.91629, 44.85094 ], [ 0.91627, 44.85083 ], [ 0.91628, 44.85069 ], [ 0.91638, 44.85051 ], [ 0.91675, 44.85002 ], [ 0.91554, 44.84926 ], [ 0.91516, 44.84948 ], [ 0.9147, 44.84969 ] ], [ [ 0.93241, 44.84282 ], [ 0.93393, 44.84341 ], [ 0.93369, 44.84335 ], [ 0.93243, 44.84294 ], [ 0.93171, 44.84275 ], [ 0.93179, 44.84263 ], [ 0.93241, 44.84282 ] ] ], [ [ [ 0.94856, 44.82788 ], [ 0.94859, 44.82781 ], [ 0.94862, 44.82772 ], [ 0.94863, 44.82771 ], [ 0.94863, 44.8277 ], [ 0.94874, 44.82744 ], [ 0.94874, 44.82744 ], [ 0.94879, 44.82727 ], [ 0.94847, 44.82743 ], [ 0.94702, 44.82805 ], [ 0.94608, 44.82862 ], [ 0.94405, 44.82994 ], [ 0.94214, 44.83132 ], [ 0.94138, 44.83219 ], [ 0.93966, 44.83412 ], [ 0.93932, 44.83453 ], [ 0.93943, 44.83519 ], [ 0.93932, 44.83537 ], [ 0.93892, 44.83542 ], [ 0.93862, 44.8352 ], [ 0.93717, 44.83631 ], [ 0.93569, 44.83732 ], [ 0.93488, 44.83799 ], [ 0.93372, 44.83954 ], [ 0.9331, 44.84015 ], [ 0.93311, 44.84015 ], [ 0.93312, 44.84014 ], [ 0.93314, 44.84014 ], [ 0.93314, 44.84013 ], [ 0.93314, 44.84012 ], [ 0.93337, 44.84005 ], [ 0.93363, 44.83998 ], [ 0.93372, 44.83994 ], [ 0.93411, 44.8398 ], [ 0.93412, 44.8398 ], [ 0.93421, 44.83977 ], [ 0.93437, 44.83971 ], [ 0.93445, 44.83969 ], [ 0.93469, 44.8396 ], [ 0.9347, 44.8396 ], [ 0.93473, 44.83958 ], [ 0.93474, 44.83959 ], [ 0.93476, 44.83959 ], [ 0.93478, 44.83959 ], [ 0.9349, 44.83955 ], [ 0.93491, 44.83955 ], [ 0.93493, 44.83955 ], [ 0.93502, 44.83952 ], [ 0.93504, 44.83952 ], [ 0.93519, 44.83946 ], [ 0.9352, 44.83946 ], [ 0.93528, 44.83945 ], [ 0.93529, 44.83944 ], [ 0.93532, 44.83944 ], [ 0.93534, 44.83944 ], [ 0.93535, 44.83943 ], [ 0.93539, 44.83943 ], [ 0.9354, 44.83943 ], [ 0.93552, 44.83942 ], [ 0.93553, 44.83942 ], [ 0.93561, 44.83942 ], [ 0.93567, 44.83942 ], [ 0.93568, 44.83942 ], [ 0.9357, 44.83942 ], [ 0.93571, 44.83942 ], [ 0.93572, 44.83942 ], [ 0.93582, 44.83942 ], [ 0.93582, 44.83942 ], [ 0.93583, 44.83942 ], [ 0.93592, 44.83942 ], [ 0.93594, 44.83942 ], [ 0.936, 44.83943 ], [ 0.93606, 44.83943 ], [ 0.93607, 44.83943 ], [ 0.93611, 44.83944 ], [ 0.93611, 44.83943 ], [ 0.93614, 44.8394 ], [ 0.93613, 44.83938 ], [ 0.93613, 44.83937 ], [ 0.93608, 44.83929 ], [ 0.93605, 44.83925 ], [ 0.93605, 44.83924 ], [ 0.93604, 44.8392 ], [ 0.93603, 44.83919 ], [ 0.93602, 44.83914 ], [ 0.93602, 44.83911 ], [ 0.93603, 44.83908 ], [ 0.93606, 44.83903 ], [ 0.93611, 44.83896 ], [ 0.93612, 44.83895 ], [ 0.93612, 44.83894 ], [ 0.93613, 44.83892 ], [ 0.93611, 44.83887 ], [ 0.9361, 44.83884 ], [ 0.93612, 44.83882 ], [ 0.93614, 44.83878 ], [ 0.93614, 44.83877 ], [ 0.93617, 44.83877 ], [ 0.93617, 44.83876 ], [ 0.93623, 44.83872 ], [ 0.9363, 44.83869 ], [ 0.93632, 44.83869 ], [ 0.93633, 44.83869 ], [ 0.93637, 44.83869 ], [ 0.93637, 44.83869 ], [ 0.93648, 44.8387 ], [ 0.93657, 44.83872 ], [ 0.9366, 44.83872 ], [ 0.93661, 44.83872 ], [ 0.93688, 44.8386 ], [ 0.93689, 44.8386 ], [ 0.93705, 44.83853 ], [ 0.93706, 44.83853 ], [ 0.93716, 44.8385 ], [ 0.93716, 44.83849 ], [ 0.9372, 44.83846 ], [ 0.93721, 44.83846 ], [ 0.93728, 44.83841 ], [ 0.93729, 44.83841 ], [ 0.93729, 44.8384 ], [ 0.93731, 44.83838 ], [ 0.93733, 44.83838 ], [ 0.93733, 44.83837 ], [ 0.93737, 44.83834 ], [ 0.93737, 44.83833 ], [ 0.93741, 44.83831 ], [ 0.93742, 44.8383 ], [ 0.93744, 44.83828 ], [ 0.93746, 44.83827 ], [ 0.93761, 44.8382 ], [ 0.93762, 44.83819 ], [ 0.9377, 44.83815 ], [ 0.93771, 44.83815 ], [ 0.93783, 44.83808 ], [ 0.93784, 44.83807 ], [ 0.93791, 44.83803 ], [ 0.93791, 44.83802 ], [ 0.93793, 44.83801 ], [ 0.93794, 44.838 ], [ 0.93796, 44.83797 ], [ 0.93798, 44.8379 ], [ 0.93798, 44.83789 ], [ 0.93801, 44.83786 ], [ 0.93805, 44.83784 ], [ 0.93806, 44.83783 ], [ 0.9381, 44.83782 ], [ 0.93813, 44.83781 ], [ 0.93814, 44.83781 ], [ 0.93821, 44.83781 ], [ 0.93823, 44.83781 ], [ 0.93826, 44.8378 ], [ 0.93828, 44.8378 ], [ 0.93832, 44.83779 ], [ 0.93833, 44.83779 ], [ 0.93853, 44.83767 ], [ 0.93855, 44.83766 ], [ 0.93862, 44.83763 ], [ 0.93865, 44.83762 ], [ 0.93869, 44.8376 ], [ 0.93871, 44.8376 ], [ 0.93874, 44.83759 ], [ 0.93876, 44.8376 ], [ 0.93878, 44.8376 ], [ 0.93879, 44.83762 ], [ 0.93879, 44.83763 ], [ 0.9388, 44.83765 ], [ 0.93879, 44.83766 ], [ 0.93875, 44.83768 ], [ 0.93872, 44.83769 ], [ 0.93871, 44.8377 ], [ 0.9387, 44.83771 ], [ 0.93868, 44.83772 ], [ 0.93868, 44.83773 ], [ 0.9387, 44.83773 ], [ 0.9387, 44.83774 ], [ 0.93872, 44.83775 ], [ 0.93876, 44.83775 ], [ 0.93877, 44.83774 ], [ 0.93895, 44.83768 ], [ 0.939, 44.83765 ], [ 0.93905, 44.83763 ], [ 0.93907, 44.83762 ], [ 0.93918, 44.83756 ], [ 0.93928, 44.8375 ], [ 0.93937, 44.83745 ], [ 0.93939, 44.83745 ], [ 0.9395, 44.83739 ], [ 0.9396, 44.83735 ], [ 0.93962, 44.83735 ], [ 0.93981, 44.83729 ], [ 0.93984, 44.83728 ], [ 0.93987, 44.83722 ], [ 0.93988, 44.83721 ], [ 0.93987, 44.8372 ], [ 0.93984, 44.83718 ], [ 0.93979, 44.83715 ], [ 0.93977, 44.83714 ], [ 0.93977, 44.83713 ], [ 0.93979, 44.83713 ], [ 0.93979, 44.83712 ], [ 0.93985, 44.83708 ], [ 0.93985, 44.83707 ], [ 0.93989, 44.83705 ], [ 0.93989, 44.83704 ], [ 0.9399, 44.83702 ], [ 0.9399, 44.83701 ], [ 0.9399, 44.83701 ], [ 0.9399, 44.837 ], [ 0.93989, 44.83698 ], [ 0.93988, 44.83695 ], [ 0.93985, 44.83691 ], [ 0.93987, 44.8369 ], [ 0.93997, 44.83683 ], [ 0.93998, 44.83683 ], [ 0.93998, 44.83682 ], [ 0.94001, 44.83677 ], [ 0.94001, 44.83676 ], [ 0.94009, 44.8367 ], [ 0.94015, 44.83666 ], [ 0.94018, 44.83664 ], [ 0.94018, 44.83663 ], [ 0.94026, 44.83658 ], [ 0.9404, 44.8365 ], [ 0.94045, 44.83646 ], [ 0.94046, 44.83645 ], [ 0.94047, 44.83645 ], [ 0.94056, 44.83638 ], [ 0.94059, 44.83636 ], [ 0.9406, 44.83635 ], [ 0.94072, 44.83631 ], [ 0.94073, 44.83631 ], [ 0.94074, 44.8363 ], [ 0.94076, 44.83629 ], [ 0.94077, 44.83627 ], [ 0.94077, 44.83626 ], [ 0.94077, 44.83625 ], [ 0.94077, 44.83624 ], [ 0.94077, 44.83622 ], [ 0.94077, 44.8362 ], [ 0.94077, 44.83619 ], [ 0.94077, 44.83618 ], [ 0.94078, 44.83617 ], [ 0.94078, 44.83616 ], [ 0.94082, 44.83614 ], [ 0.94082, 44.83613 ], [ 0.94084, 44.83613 ], [ 0.94085, 44.83612 ], [ 0.94089, 44.8361 ], [ 0.9409, 44.8361 ], [ 0.94094, 44.8361 ], [ 0.94095, 44.8361 ], [ 0.94096, 44.8361 ], [ 0.94098, 44.8361 ], [ 0.94099, 44.83609 ], [ 0.941, 44.83609 ], [ 0.94103, 44.83606 ], [ 0.94107, 44.83599 ], [ 0.94108, 44.83599 ], [ 0.94109, 44.83598 ], [ 0.9411, 44.83597 ], [ 0.94113, 44.83597 ], [ 0.94116, 44.83597 ], [ 0.94116, 44.83596 ], [ 0.94121, 44.83596 ], [ 0.94127, 44.83596 ], [ 0.94128, 44.83596 ], [ 0.94131, 44.83595 ], [ 0.94138, 44.83592 ], [ 0.94144, 44.83589 ], [ 0.94146, 44.83588 ], [ 0.94151, 44.83586 ], [ 0.94158, 44.83583 ], [ 0.9416, 44.83582 ], [ 0.94167, 44.83579 ], [ 0.94174, 44.83576 ], [ 0.94174, 44.83575 ], [ 0.94183, 44.83573 ], [ 0.94187, 44.83572 ], [ 0.94192, 44.8357 ], [ 0.94193, 44.8357 ], [ 0.94193, 44.83569 ], [ 0.94205, 44.83564 ], [ 0.94213, 44.83561 ], [ 0.94213, 44.8356 ], [ 0.94214, 44.8356 ], [ 0.94215, 44.83559 ], [ 0.94216, 44.83559 ], [ 0.94219, 44.83559 ], [ 0.9422, 44.83559 ], [ 0.94221, 44.83558 ], [ 0.94228, 44.83557 ], [ 0.94232, 44.83556 ], [ 0.94233, 44.83556 ], [ 0.94237, 44.83555 ], [ 0.94237, 44.83554 ], [ 0.94238, 44.83554 ], [ 0.94243, 44.83551 ], [ 0.94243, 44.8355 ], [ 0.94247, 44.83549 ], [ 0.94249, 44.83549 ], [ 0.94251, 44.83548 ], [ 0.94256, 44.83546 ], [ 0.94257, 44.83546 ], [ 0.94257, 44.83545 ], [ 0.94266, 44.8354 ], [ 0.94267, 44.8354 ], [ 0.94269, 44.8354 ], [ 0.9427, 44.8354 ], [ 0.9427, 44.83541 ], [ 0.94271, 44.83541 ], [ 0.94271, 44.83542 ], [ 0.94271, 44.83544 ], [ 0.94271, 44.83545 ], [ 0.94271, 44.83546 ], [ 0.94271, 44.83547 ], [ 0.94271, 44.8355 ], [ 0.94271, 44.83551 ], [ 0.94271, 44.83552 ], [ 0.94271, 44.83553 ], [ 0.94272, 44.83554 ], [ 0.94277, 44.83555 ], [ 0.94288, 44.83557 ], [ 0.94288, 44.83558 ], [ 0.9429, 44.83558 ], [ 0.94293, 44.83559 ], [ 0.94295, 44.8356 ], [ 0.94296, 44.8356 ], [ 0.94297, 44.8356 ], [ 0.94301, 44.83563 ], [ 0.94302, 44.83563 ], [ 0.94302, 44.83564 ], [ 0.94302, 44.83564 ], [ 0.94303, 44.83564 ], [ 0.94305, 44.83564 ], [ 0.94306, 44.83563 ], [ 0.94307, 44.83563 ], [ 0.94307, 44.83563 ], [ 0.94307, 44.83562 ], [ 0.94309, 44.83562 ], [ 0.94309, 44.83561 ], [ 0.94309, 44.8356 ], [ 0.94306, 44.83556 ], [ 0.94306, 44.83555 ], [ 0.94305, 44.83553 ], [ 0.94305, 44.83552 ], [ 0.94306, 44.83552 ], [ 0.94306, 44.83551 ], [ 0.94308, 44.8355 ], [ 0.94309, 44.8355 ], [ 0.9431, 44.83549 ], [ 0.94313, 44.83549 ], [ 0.94314, 44.83549 ], [ 0.94323, 44.83549 ], [ 0.94327, 44.83549 ], [ 0.94328, 44.83549 ], [ 0.9433, 44.83547 ], [ 0.94332, 44.83547 ], [ 0.94334, 44.83547 ], [ 0.94341, 44.83541 ], [ 0.94342, 44.83541 ], [ 0.94342, 44.8354 ], [ 0.94347, 44.83538 ], [ 0.94348, 44.83538 ], [ 0.94354, 44.83535 ], [ 0.94355, 44.83534 ], [ 0.94361, 44.83533 ], [ 0.94364, 44.83532 ], [ 0.94366, 44.83532 ], [ 0.94368, 44.83531 ], [ 0.94373, 44.8353 ], [ 0.94378, 44.8353 ], [ 0.94379, 44.83529 ], [ 0.9438, 44.83529 ], [ 0.94383, 44.83528 ], [ 0.94384, 44.83528 ], [ 0.94384, 44.83527 ], [ 0.94388, 44.83527 ], [ 0.94388, 44.83526 ], [ 0.94389, 44.83525 ], [ 0.94398, 44.83519 ], [ 0.94401, 44.83516 ], [ 0.94403, 44.83514 ], [ 0.94405, 44.83514 ], [ 0.94405, 44.83513 ], [ 0.9441, 44.83512 ], [ 0.94417, 44.83509 ], [ 0.94419, 44.83508 ], [ 0.94433, 44.83504 ], [ 0.94433, 44.83503 ], [ 0.94442, 44.83501 ], [ 0.94443, 44.835 ], [ 0.94448, 44.83499 ], [ 0.94449, 44.83499 ], [ 0.94454, 44.83499 ], [ 0.94462, 44.83498 ], [ 0.94466, 44.83498 ], [ 0.94468, 44.83497 ], [ 0.94476, 44.83493 ], [ 0.94477, 44.83493 ], [ 0.94484, 44.8349 ], [ 0.945, 44.83482 ], [ 0.94502, 44.83481 ], [ 0.94503, 44.8348 ], [ 0.9453, 44.83467 ], [ 0.9454, 44.83463 ], [ 0.9454, 44.83462 ], [ 0.94572, 44.83447 ], [ 0.94581, 44.83443 ], [ 0.94592, 44.83437 ], [ 0.94605, 44.8343 ], [ 0.94609, 44.83429 ], [ 0.9461, 44.83429 ], [ 0.94615, 44.83426 ], [ 0.94623, 44.83422 ], [ 0.94635, 44.83417 ], [ 0.94647, 44.8341 ], [ 0.94669, 44.834 ], [ 0.9469, 44.8339 ], [ 0.94692, 44.83389 ], [ 0.94693, 44.83389 ], [ 0.94714, 44.83379 ], [ 0.94722, 44.83375 ], [ 0.94724, 44.83373 ], [ 0.94733, 44.83371 ], [ 0.94734, 44.83371 ], [ 0.94747, 44.83367 ], [ 0.94747, 44.83366 ], [ 0.94748, 44.83365 ], [ 0.94748, 44.83364 ], [ 0.94751, 44.83359 ], [ 0.94751, 44.83358 ], [ 0.94752, 44.83356 ], [ 0.94752, 44.83355 ], [ 0.94752, 44.83354 ], [ 0.94753, 44.83353 ], [ 0.9476, 44.8334 ], [ 0.9476, 44.83339 ], [ 0.94768, 44.83322 ], [ 0.9477, 44.83322 ], [ 0.94772, 44.83314 ], [ 0.94774, 44.83313 ], [ 0.94774, 44.83312 ], [ 0.94804, 44.83249 ], [ 0.94804, 44.83248 ], [ 0.94808, 44.8324 ], [ 0.94812, 44.83235 ], [ 0.94812, 44.83234 ], [ 0.94831, 44.83197 ], [ 0.94831, 44.83196 ], [ 0.94854, 44.83148 ], [ 0.94854, 44.83147 ], [ 0.9486, 44.83136 ], [ 0.94871, 44.83113 ], [ 0.94871, 44.83113 ], [ 0.94872, 44.8311 ], [ 0.94875, 44.83104 ], [ 0.94875, 44.83103 ], [ 0.94875, 44.83101 ], [ 0.94875, 44.83101 ], [ 0.94876, 44.83097 ], [ 0.94876, 44.83096 ], [ 0.94877, 44.83092 ], [ 0.94877, 44.83091 ], [ 0.94875, 44.83089 ], [ 0.94874, 44.83086 ], [ 0.94872, 44.83082 ], [ 0.94872, 44.83079 ], [ 0.94871, 44.83079 ], [ 0.94864, 44.83068 ], [ 0.94855, 44.83054 ], [ 0.94855, 44.83053 ], [ 0.94847, 44.8304 ], [ 0.94846, 44.83038 ], [ 0.94846, 44.83036 ], [ 0.94843, 44.8303 ], [ 0.94843, 44.83026 ], [ 0.94839, 44.82991 ], [ 0.94839, 44.8299 ], [ 0.94839, 44.82985 ], [ 0.94837, 44.82985 ], [ 0.94836, 44.82959 ], [ 0.94833, 44.82921 ], [ 0.94833, 44.8292 ], [ 0.94833, 44.82919 ], [ 0.94831, 44.82901 ], [ 0.94839, 44.82885 ], [ 0.94817, 44.82883 ], [ 0.94817, 44.82882 ], [ 0.94813, 44.82882 ], [ 0.94812, 44.82882 ], [ 0.94816, 44.82876 ], [ 0.94821, 44.82868 ], [ 0.94824, 44.82864 ], [ 0.94829, 44.82857 ], [ 0.94831, 44.82853 ], [ 0.94832, 44.82849 ], [ 0.94832, 44.82848 ], [ 0.94833, 44.82845 ], [ 0.9484, 44.82827 ], [ 0.94844, 44.82819 ], [ 0.94848, 44.82807 ], [ 0.94856, 44.82789 ], [ 0.94856, 44.82788 ] ] ] ] } }
]
}
