{
"type": "FeatureCollection",
"crs": { "type": "name", "properties": { "name": "urn:ogc:def:crs:OGC:1.3:CRS84" } },
"name": "Documents d'urbanisme",
"color": "#1D1D1B",
"active": "true",
"description": "Documents approuvés",

"features": [
{ "type": "Feature", "properties": { "NOM": "saint-félix-de-villadeix" }, "geometry": { "type": "Point", "coordinates": [ 517155.597070000017993, 6427644.19582 ] } },
{ "type": "Feature", "properties": { "NOM": "saint-cassien" }, "geometry": { "type": "Point", "coordinates": [ 529308.697399999946356, 6400884.738789999857545 ] } },
{ "type": "Feature", "properties": { "NOM": "soulaures" }, "geometry": { "type": "Point", "coordinates": [ 535300.668659999966621, 6396637.984950000420213 ] } },
{ "type": "Feature", "properties": { "NOM": "saint-marcel-du-périgord" }, "geometry": { "type": "Point", "coordinates": [ 519529.474110000010114, 6426694.37377000041306 ] } },
{ "type": "Feature", "properties": { "NOM": "saint-marcory" }, "geometry": { "type": "Point", "coordinates": [ 536156.615819999948144, 6404787.066669999621809 ] } },
{ "type": "Feature", "properties": { "NOM": "montferrand-du-périgord" }, "geometry": { "type": "Point", "coordinates": [ 531100.778640000033192, 6408077.945089999586344 ] } },
{ "type": "Feature", "properties": { "NOM": "monpazier" }, "geometry": { "type": "Point", "coordinates": [ 533235.862450000015087, 6400392.551579999737442 ] } },
{ "type": "Feature", "properties": { "NOM": "cause-de-clérans" }, "geometry": { "type": "Point", "coordinates": [ 515950.72888, 6421144.35817 ] } },
{ "type": "Feature", "properties": { "NOM": "vergt-de-biron" }, "geometry": { "type": "Point", "coordinates": [ 528818.773939999984577, 6395062.407809999771416 ] } },
{ "type": "Feature", "properties": { "NOM": "Labouquerie" }, "geometry": { "type": "Point", "coordinates": [ 525549.647680000052787, 6407306.819299999624491 ] } },
{ "type": "Feature", "properties": { "NOM": "calès" }, "geometry": { "type": "Point", "coordinates": [ 527093.232680000015534, 6419825.047740000300109 ] } },
{ "type": "Feature", "properties": { "NOM": "le buisson-de-cadouin" }, "geometry": { "type": "Point", "coordinates": [ 534895.90232, 6418509.457530000247061 ] } },
{ "type": "Feature", "properties": { "NOM": "saint-avit-sénieur" }, "geometry": { "type": "Point", "coordinates": [ 527292.27943, 6410830.9644 ] } },
{ "type": "Feature", "properties": { "NOM": "liorac-sur-louyre" }, "geometry": { "type": "Point", "coordinates": [ 513972.417620000021998, 6424855.277940000407398 ] } },
{ "type": "Feature", "properties": { "NOM": "Sainte Sabine Born" }, "geometry": { "type": "Point", "coordinates": [ 521868.12338, 6401888.630180000327528 ] } },
{ "type": "Feature", "properties": { "NOM": "saint-avit-rivière" }, "geometry": { "type": "Point", "coordinates": [ 532406.12011000001803, 6408148.026569999754429 ] } },
{ "type": "Feature", "properties": { "NOM": "monsac" }, "geometry": { "type": "Point", "coordinates": [ 517890.12614, 6411543.394650000147521 ] } },
{ "type": "Feature", "properties": { "NOM": "pezuls" }, "geometry": { "type": "Point", "coordinates": [ 526951.80163999996148, 6426252.135700000450015 ] } },
{ "type": "Feature", "properties": { "NOM": "baneuil" }, "geometry": { "type": "Point", "coordinates": [ 517486.193529999989551, 6419569.095970000140369 ] } },
{ "type": "Feature", "properties": { "NOM": "biron" }, "geometry": { "type": "Point", "coordinates": [ 531121.243559999973513, 6394782.523339999839664 ] } },
{ "type": "Feature", "properties": { "NOM": "pressignac-vicq" }, "geometry": { "type": "Point", "coordinates": [ 520268.633510000014212, 6424270.527549999766052 ] } },
{ "type": "Feature", "properties": { "NOM": "capdrot" }, "geometry": { "type": "Point", "coordinates": [ 535374.06284999998752, 6400180.981010000221431 ] } },
{ "type": "Feature", "properties": { "NOM": "sainte-croix" }, "geometry": { "type": "Point", "coordinates": [ 528384.57178, 6406779.76503000035882 ] } },
{ "type": "Feature", "properties": { "NOM": "verdon" }, "geometry": { "type": "Point", "coordinates": [ 512754.86637, 6415139.613409999758005 ] } },
{ "type": "Feature", "properties": { "NOM": "lolme" }, "geometry": { "type": "Point", "coordinates": [ 529060.502800000016578, 6403600.197169999592006 ] } },
{ "type": "Feature", "properties": { "NOM": "saint-romain-de-monpazier" }, "geometry": { "type": "Point", "coordinates": [ 531540.800180000020191, 6404280.923329999670386 ] } },
{ "type": "Feature", "properties": { "NOM": "lalinde" }, "geometry": { "type": "Point", "coordinates": [ 521381.421870000020135, 6417994.239760000258684 ] } },
{ "type": "Feature", "properties": { "NOM": "Beaumont du Périgord" }, "geometry": { "type": "Point", "coordinates": [ 523398.98173, 6410229.891119999811053 ] } },
{ "type": "Feature", "properties": { "NOM": "naussannes" }, "geometry": { "type": "Point", "coordinates": [ 520008.937480000022333, 6409115.12605999968946 ] } },
{ "type": "Feature", "properties": { "NOM": "mairie de marsalès" }, "geometry": { "type": "Point", "coordinates": [ 532403.344879999989644, 6401076.82118 ] } },
{ "type": "Feature", "properties": { "NOM": "alles-sur-dordogne" }, "geometry": { "type": "Point", "coordinates": [ 531589.412340000038967, 6420118.410830000415444 ] } },
{ "type": "Feature", "properties": { "NOM": "trémolat" }, "geometry": { "type": "Point", "coordinates": [ 528608.99844, 6422014.37787 ] } },
{ "type": "Feature", "properties": { "NOM": "saint-agne" }, "geometry": { "type": "Point", "coordinates": [ 512949.695469999976922, 6418151.129119999706745 ] } },
{ "type": "Feature", "properties": { "NOM": "Gaugeac" }, "geometry": { "type": "Point", "coordinates": [ 531896.667739999946207, 6397930.049490000121295 ] } },
{ "type": "Feature", "properties": { "NOM": "bayac" }, "geometry": { "type": "Point", "coordinates": [ 520326.53349, 6414277.54134 ] } },
{ "type": "Feature", "properties": { "NOM": "lavalade" }, "geometry": { "type": "Point", "coordinates": [ 530709.287890000035986, 6401838.180010000243783 ] } },
{ "type": "Feature", "properties": { "NOM": "molières" }, "geometry": { "type": "Point", "coordinates": [ 527983.640999999945052, 6414803.428530000150204 ] } },
{ "type": "Feature", "properties": { "NOM": "sainte-foy-de-longas" }, "geometry": { "type": "Point", "coordinates": [ 522503.112069999973755, 6427709.7180300001055 ] } },
{ "type": "Feature", "properties": { "NOM": "Cadouin" }, "geometry": { "type": "Point", "coordinates": [ 531867.59563, 6414760.19529000017792 ] } },
{ "type": "Feature", "properties": { "NOM": "urval" }, "geometry": { "type": "Point", "coordinates": [ 537755.552969999960624, 6414704.310580000281334 ] } },
{ "type": "Feature", "properties": { "NOM": "pontours" }, "geometry": { "type": "Point", "coordinates": [ 523100.989349999988917, 6417777.162279999814928 ] } },
{ "type": "Feature", "properties": { "NOM": "mauzac" }, "geometry": { "type": "Point", "coordinates": [ 525935.079879999975674, 6420877.669959999620914 ] } },
{ "type": "Feature", "properties": { "NOM": "Paleyrac" }, "geometry": { "type": "Point", "coordinates": [ 536558.904390000039712, 6415933.08665 ] } },
{ "type": "Feature", "properties": { "NOM": "lanquais" }, "geometry": { "type": "Point", "coordinates": [ 515812.1959200000274, 6416610.81678 ] } },
{ "type": "Feature", "properties": { "NOM": "rampieux" }, "geometry": { "type": "Point", "coordinates": [ 525541.18440999998711, 6404241.83256 ] } },
{ "type": "Feature", "properties": { "NOM": "saint-capraise-de-lalinde" }, "geometry": { "type": "Point", "coordinates": [ 514717.642969999986235, 6418706.915950000286102 ] } },
{ "type": "Feature", "properties": { "NOM": "badefols-sur-dordogne" }, "geometry": { "type": "Point", "coordinates": [ 525448.24702, 6418316.14817 ] } },
{ "type": "Feature", "properties": { "NOM": "varennes" }, "geometry": { "type": "Point", "coordinates": [ 516338.12011999997776, 6417383.71201 ] } },
{ "type": "Feature", "properties": { "NOM": "bouillac" }, "geometry": { "type": "Point", "coordinates": [ 535366.597590000019409, 6408904.69558 ] } },
{ "type": "Feature", "properties": { "NOM": "couze-et-saint-front" }, "geometry": { "type": "Point", "coordinates": [ 518871.78573, 6417030.00007 ] } },
{ "type": "Feature", "properties": { "NOM": "bourniquel" }, "geometry": { "type": "Point", "coordinates": [ 523965.418049999978393, 6414678.931479999795556 ] } },
{ "type": "Feature", "properties": { "NOM": "Nojals et Clotte" }, "geometry": { "type": "Point", "coordinates": [ 522563.70093, 6405407.461520000360906 ] } }
]
}
